SrNo,Name,RegNo,State,City,Address,PIN,SectorWorking
1,A & N Kayaking & Caneoing Association,1544,Andaman & Nicobar Islands, Port Blair ,C/O State Olympic Associationnetaji Stadiumport Blair,,Sports
2,A S Music And Dance A Cultural Organization,1534,Andaman & Nicobar Islands, Port Blair ,"As Music And Dance A Cultural Organization,8,Air Lane Delanipur Port Blair,South Andaman.744102",744102,NaN
3,Abhishweta Foundation,20211011RS00016,Andaman & Nicobar Islands, Port Blair ,"Room No.604(1)-Mb550, Near Urban Health Centre, Dairy Farm, Port Blair City, Andaman And Nicobar Islands 744103.",744103,"Science & Technology,Art & Culture,Biotechnology,Education & Literacy,Health & Family Welfare,Scientific & Industrial Research,Skill Development,Information & Communication Technology,Water Resources"
4,Adityanatyaacademy,888,Andaman & Nicobar Islands, Port Blair ,"31 M.G. Road,Opp. Sun Sea Resort,Middle Point.",,"Art & Culture,Children,Education & Literacy,Skill Development"
5,Anandodhara,1355,Andaman & Nicobar Islands, Port Blair ,C/O Baakprotima (Sbi Building)Junglighatport Blair-744103South Andamanpin-744103,744103,Art & Culture
6,Andaman & Nicobar Kho-Kho Association,1211,Andaman & Nicobar Islands, Port Blair ,State Olympic Associationnetaji Stadium,,Sports
7,Andaman & Nicobar Taekwondo Association,995,Andaman & Nicobar Islands, Port Blair ,Andaman Nicobar State Olympic Associationnetaji Stadium,,Sports
8,Andaman And Nicobar Chess Association,689,Andaman & Nicobar Islands, Port Blair ,"Andaman Nicobar Chess Association11 Km Road, Prem Nagar Near Electricity Site Office, Port Blair 744102,South Andamanandaman And Nicobar Islands",744102,Sports
9,Andaman And Nicobar Football Association,27,Andaman & Nicobar Islands, Kadamtala ,C/O Sapna Balapresidentex-Zilla Parishad Member,,Sports
10,Andaman And Nicobar State Olympic Association,1198,Andaman & Nicobar Islands, Port Blair ,"Andaman And Nicobar State Olympic Association, Netaji Stadium, Port Blair,South Andaman, Andamanand Nicobar Islandsph: 03192-243001",243001,Sports
1,Adil Gandhian Society,TSR 1/2004/2/of2004.,Meghalaya, Tura ,"Araimile,New Tura, West Garo Hills,Meghalaya",,"HIV/AIDS,Health & Family Welfare,Rural Development & Poverty Alleviation,Women's Development & Empowerment,Agriculture,Differently Abled"
2,Agency For Sustainable Development Initiatives,NEW REGN.NO SR/AFSDI-30-18 OF ,Meghalaya, Shillong ,"C/O K.J.P.Synod Sepngichurch Housemission Compoundmeghalaya, Shillong-793002",793002,"Children,Differently Abled,Disaster Management,Education & Literacy,Environment & Forests,Food Processing,Health & Family Welfare,HIV/AIDS,Human Rights,Legal Awareness & Aid,Labour & Employment,Micro Finance (SHGs),Rural Development & Poverty Alleviation,Tribal Affairs,Vocational Training,Women's Development & Empowerment,Any Other"
3,All Meghalaya Minorities Students' Union,TSR.1/2005/Pt-/1997 ,Meghalaya, Shillong ,H.Q :-New Bhaitbarip.O :- New Bhaitbarip.S :- Phulbari,,"Agriculture,Animal Husbandry, Dairying  &  Fisheries,Art & Culture,Children,Civic Issues,Education & Literacy,Human Rights,Information & Communication Technology,Labour & Employment,Legal Awareness & Aid,Minority Issues,Prisoner's Issues,Youth Affairs,Any Other"
4,Annie Margaret Barr Childrens Village,SW/SD/3/87/Pt/4875-4968,Meghalaya, Shillong ,"Mawsynjri, Kharang",,"Children,Any Other"
5,Anti Corruption & Human Development Organisation,TSR. 1/2005/Pt-1/2095 OF 2018,Meghalaya, Chibinang ,"Chibinang (Plain Belt) Tura, West Garo Hills, Meghalaya,794104",794104,NaN
6,Archdiocese Of Shillong,SR/TAS-416/88 of 1988,Meghalaya, Shillong ,Archbishop Houselaitumkhrahshillong 793003Meghalaya,793003,"Education & Literacy,Health & Family Welfare,Nutrition,Vocational Training,Youth Affairs,Education & Literacy,Health & Family Welfare,Nutrition,Vocational Training,Youth Affairs"
7,Asha Rehabilitation Centre Shillong,SR/ARC-632/98 OF 1998,Meghalaya, Shillong ,"Asha Rehabilitation Centrec/O 58 Gorkha Training Centre,Happy Valley",,Differently Abled
8,Auxilium Tribal Women And Children Welfare Society,MEG-RoS/2019/00058,Meghalaya, Shillong ,"Auxilium Tribal Women And Children Welfare Societyauxilium Convent, Nongthymmai â€“ Shillong 793014East Khasi Hills - Meghalaya",793014,NaN
9,Auxilium Welfare Society Mawtnum Nongpoh,MEG-RoS/2019/00348,Meghalaya, Nongpoh ,Auxilium Welfare Society Mawtnum Nongpoh,,"Children,Education & Literacy,Vocational Training"
10,B P Rural Development Society,E-16(RS)8/2005/34,"Rs)8/2005/34, Shillong (Meghalaya", Shillong ,"B P Rural Development Society, Behind R. K. Dispensary, Lummawrie, Laitumkhrah, Shillong",,Art & Culture
1,1 Roti Gau Mata Ke Naam Trust,31Jaipur2020,Rajasthan, Jaipur ,"Plot No. 2, Bhadu Farm House Lane, Opp. Kamla Devi Budhiya School, 200 Ft. Bypass, Ajmer Road, Heerapura, Jaipur-302021",302021,NaN
2,100Medals Targeted Foundation,U85300RJ2021NPL077070,Rajasthan, Jaipur ,"Flat No. 04, Primrose 1, Park Apartments Vatika, Infotech City, Villagethikaria, Jaipur, Rajasthan302026",302026,Sports
3,109 Chandan Parshpadmawati Trust,17/2012/JODHPUR,Rajasthan, Jodhpur ,"Maa Padmawati Nagar, Chandan Vatka, Tanawada Fanta, Salawas Road",,Any Other
4,2.2K Digital Edusport Association ,U85100RJ2022NPL080017,Rajasthan, Bharatpur ,"C/O Saty Lekha, Jag Dish Singh,, Anirudh Nagar,, Bharatpur, Bharatpur, Rajasthan-321001",321001,"Sports,Skill Development,Education & Literacy,Rural Development & Poverty Alleviation,Any Other,Agriculture,Animal Husbandry, Dairying  &  Fisheries,Art & Culture,Biotechnology,Dalit Upliftment,Differently Abled,Disaster Management,Drinking Water,Aged/Elderly,Environment & Forests,Health & Family Welfare,Human Rights,Information & Communication Technology,Legal Awareness & Aid,Micro Small & Medium Enterprises,Minority Issues,New & Renewable Energy,Nutrition,Panchayati Raj,Science & Technology,Tribal Affairs,Water Resources,Women's Development & Empowerment,Youth Affairs"
5,3M Dot Bands Theatre Family Society,379/JAIPUR/2003-04,Rajasthan, Jaipur ,837Frontier Colonyadarsh Nagar,,"Art & Culture,Any Other"
6,A Bless Of Creator Society,68/jaipur/2009-10,Rajasthan, Jaipur ,"C-12,Lal Kothi Shopping Centre ,Between Hotal Jaipur Palace And Laxmi Mandri Cinema ,Tonk Phatak  ,Jaipur-302015",302015,"Aged/Elderly,Agriculture,Children,Civic Issues,Differently Abled,Disaster Management,Dalit Upliftment,Drinking Water,Education & Literacy,Environment & Forests,HIV/AIDS,Human Rights,Information & Communication Technology,Legal Awareness & Aid,Labour & Employment,Micro Finance (SHGs),Minority Issues,Micro Small & Medium Enterprises,Right to Information & Advocacy,Rural Development & Poverty Alleviation,Scientific & Industrial Research,Science & Technology,Tribal Affairs,Tourism,Women's Development & Empowerment"
7,A Fundamental Organization For Rurali Development Society,108/UDAIPUR/2009-10,Rajasthan, Raomadra ,"Village Post-Rao Madra Via Nandeshma, Tehsil-Gogunda, Udaipur, Rajasthan-313708",313708,"Agriculture,Art & Culture,Children,Dalit Upliftment,Education & Literacy,Environment & Forests,Information & Communication Technology,Micro Small & Medium Enterprises,Minority Issues,New & Renewable Energy,Vocational Training,Women's Development & Empowerment"
8,A Hand For Help Development Society,184/Jaipur/12-13,Rajasthan, Jaipur ,"A Hand For Help Development Society, 41 Jyoti Vihar Vistar, Mansarover, Jaipur",,"Civic Issues,Education & Literacy,Environment & Forests,Labour & Employment,Rural Development & Poverty Alleviation,Urban Development & Poverty Alleviation,Water Resources,Any Other"
9,A P Jain Bal And Mahila Vikas Samiti,54/ALWAR/1987-88,Rajasthan, Tijara ,"Ward No 05, Shri Ram Colony, Near Tehsil, Tijara, Alwar, Rajasthan ",,NaN
10,A.P.B.S.Trust,469514,Rajasthan, Jodhpur ,"Neem Ki Gali,Veer Mohalla,Jodhpur Rajasthan-342001",342001,"Agriculture,Art & Culture,Children,Civic Issues,Disaster Management,Education & Literacy,Human Rights,Land Resources,Women's Development & Empowerment,Animal Husbandry, Dairying  &  Fisheries,Biotechnology,Dalit Upliftment,Differently Abled,Drinking Water,Aged/Elderly,Environment & Forests,Food Processing,Health & Family Welfare,HIV/AIDS,Housing,Information & Communication Technology,Labour & Employment,Legal Awareness & Aid,Micro Finance (SHGs),Micro Small & Medium Enterprises,Minority Issues,Tourism,Urban Development & Poverty Alleviation,Water Resources,Youth Affairs"
1,   Radhakanta Es Institute Of Computer Technology,40241200175,Orissa, Baleswar ,"At/Po/Ps- Simulia, Dist- Balasore",,Vocational Training
2,24Mahakal Help Foundation,U853200R2020NPL034578,Orissa, Jagatsinghpur ,"Santara, Kujang,Jagatsinghpur,Odisha,754141",754141,"Children,Environment & Forests,Health & Family Welfare,Human Rights,Rural Development & Poverty Alleviation,Women's Development & Empowerment,Youth Affairs,Drinking Water,HIV/AIDS,Sports,Vocational Training"
3,2Nd Universe,41711401490,Orissa, Rourkela ,B 55 Koelnagar Rourkela,,"Children,Education & Literacy,Aged/Elderly,Micro Finance (SHGs),Women's Development & Empowerment"
4,360 Degree Social And Educational Trust,41132211801,Orissa, Bhubaneswar ,"House No- S2/438(B), Lane No- 15, Satya Sai Enclave, Po- Khandagiri, Khorda",,Education & Literacy
5,3Rd Eye Foundation,039980,Orissa, Bhubaneswar ,"Flat No.401, Shanti Nivas, Bomikhal, Rasulgarh,Bhubaneswar-751010",751010,"Art & Culture,Biotechnology,Children,Civic Issues,Dalit Upliftment,Differently Abled,Disaster Management,Drinking Water,Education & Literacy,Aged/Elderly,Environment & Forests,Food Processing,Health & Family Welfare,HIV/AIDS,Housing,Human Rights,Nutrition,Science & Technology,Urban Development & Poverty Alleviation,Vocational Training,Women's Development & Empowerment,Youth Affairs,Any Other,Skill Development"
6,3Rd Eye Foundation,41081900647,Orissa, Bhubaneswar ,"401,Shanti Nivas,Bomikhalnear Esplanade Mall,Rasulgarh",,"Micro Small & Medium Enterprises,Housing,Education & Literacy,Information & Communication Technology,Legal Awareness & Aid,Any Other"
7,4A Art Education Training And Entertainment Foundation,U80900OR2019NPL031616,Orissa, Bhubaneswar ,"Flat No-G10 / B6, Hitech Plaza Appartmen, Madhipur,Bhubaneswar, Khordha, Orissa, India, 751002",751002,"Art & Culture,Education & Literacy,Environment & Forests,Human Rights,Information & Communication Technology,Legal Awareness & Aid,Women's Development & Empowerment,Any Other,Skill Development"
8,5T Foundation,U85300OR2021NPL036958,Orissa, Bhubaneswar ,"Plot No. 453/11, Nuasahi, Nayapalli",,NaN
9,7 Wonders Welfare Trust,1081904747,Orissa, Bhubaneswar ,"Plot No-36/2059, Basanti Nilay, Santha Tulasi Sarovara, Near Nh-16, Pahala, Bhubaneswar.",,"Agriculture,Animal Husbandry, Dairying  &  Fisheries,Art & Culture,Biotechnology,Children,Civic Issues,Dalit Upliftment,Differently Abled,Disaster Management,Drinking Water,Education & Literacy,Aged/Elderly,Environment & Forests,Food Processing,Health & Family Welfare,HIV/AIDS,Human Rights,Information & Communication Technology,Micro Finance (SHGs),Panchayati Raj,Science & Technology,Sports,Tribal Affairs,Urban Development & Poverty Alleviation,Vocational Training,Women's Development & Empowerment,Youth Affairs"
10,A C O R D,4732/101,Orissa, Dhenkanal ,"At-Gudianalipo/Dist-Dhenkanal,Pin-759001,Odisha",759001,"Education & Literacy,Aged/Elderly,Environment & Forests,HIV/AIDS,Sports,Tribal Affairs,Vocational Training,Women's Development & Empowerment,Youth Affairs"
1,Aalamaram Social Service Society,149,Puducherry, Lawspet ,"No.30, Arjunan Street, Kannady Gardern, ",,Education & Literacy
2,Aanantha Kudil Charitable Trust,725,Puducherry, Puducherry ,"No 98, Edaiyanchavady Road, Karuvadikuppam, Lawspet Post,Puducherry",,"Agriculture,Animal Husbandry, Dairying  &  Fisheries,Art & Culture,Biotechnology,Children,Civic Issues,Dalit Upliftment,Differently Abled"
3,Aathmalayaa Educational Public Trust,0134 (05/17-18/T-0134),"05/17-18/T-0134), Karaikal (Puducherry", Karaikal ,"School Road, Aathmalayaa Nagar,Keezhakasakudy,Karaikal",,Education & Literacy
4,Abdul Gaffar Abdul Kareem Sait Educational Trust ,611/2018,Puducherry, Puducherry ,"568, M.G. Road,Puducherry605001.",605001,NaN
5,Achariya Educational Public Trust,229/2000,Puducherry, Pudhcherry ,"No5, Vasantha Nagar,Villianur, Puducherry.",,NaN
6,Adecom Network,108,Puducherry, Puducherry ,"Plot. No.26 , Fourth Cross Street, Extn., Mothilal Nagar, Moolakulam, Pondicherry -605 010",,"Right to Information & Advocacy,Rural Development & Poverty Alleviation,Women's Development & Empowerment,Children,Dalit Upliftment,Environment & Forests,Legal Awareness & Aid,Panchayati Raj,Vocational Training,Human Rights,Skill Development"
7,Agathe Illam Orphanage,DOC NO. 2079 OF 2015 BOOK IV,Puducherry, Pondicherry ,"No. 47/1, Fifth Cross Street, Moogambigai Nagar",,NaN
8,Agathin Aram Arivom Foundation,378 of 2020,Puducherry, Puducherry ,"No.14, First Floor, Vallalar Salai, Rajarajeswari Nagar, Near Andhra Maha Sabha, Puducherry.",,"Children,Differently Abled,Disaster Management,Education & Literacy,Environment & Forests,Skill Development,Health & Family Welfare"
9,Aic-Pondicherry Engineering College Foundation,U73200PY2018NPL008321,Puducherry, Pondicherry ,"Aic-Pondicherry Engineering College Foundationpondicherry Engineering College Campus,,Pillichavady, Puducherry, Pondicherry, Pondicherry, India,605014",605014,"Science & Technology,Information & Communication Technology"
10,Akshadha Foundation,1465/2021,Puducherry, Puducherry ,"No. 5, Kamaraj Salai, Pooranankuppam, Puducherry 605 007",,"Education & Literacy,Aged/Elderly"
1,Mizo Hmechhe Insuihkhawm Pawl Tlangmawi Branch,NO 5 OF 1977,Mizoram, Tlangmawi ,Mhip Tlangmawi Branchtlangmawichamphai Dist,,NaN
2,Sazep Bran Mizo Hmeichhe Insuihkhawm Pawl,No. 5 of 1977,Mizoram, Champhai ,Sazep Branch,,Women's Development & Empowerment
3,7 Mountain Bamboo & Natural Materials,MSR 1402 of 08.04.2021,Mizoram, Mizoram ,"C/O King Marketing, House No F/F45World Bank Road, Near Bridgefalkland796017Aizawl, Mizoram",796017,NaN
4,Adullam Society,MSR 394 of 11.10.2011,Mizoram, Aizawl ,"Zuangtui,Ii, Vengsang, Aizawl",,"Women's Development & Empowerment,Animal Husbandry, Dairying  &  Fisheries,Children,Civic Issues,Drinking Water,Education & Literacy,Aged/Elderly,Environment & Forests,Health & Family Welfare,Human Rights,Micro Finance (SHGs),Nutrition,Right to Information & Advocacy,Tribal Affairs,Vocational Training"
5,Adventist Hospital Society,SR/MZ_39,Mizoram, Aizawl ,"Seventh Day Tlang, Vaivakawn , Aizawl,Mizoram796009",796009,NaN
6,Agape Moral Reformation Organisation,SR-40 of 1990,Mizoram, Aizawl ,Ropaiabawk Chawlhhmun,,HIV/AIDS
7,Ainawn Society,MSR 765 OF 02.09.2016,Mizoram, Aizawl ,"H.No. B/12Mrf Tyre Showroom Buildingdawrpui Vengtharaizawl, Mizoram-796001",796001,"Agriculture,Food Processing,Any Other"
8,Aizawl Common Service Centre Society,MSR 971 OF 25.09.2018,Mizoram, Aizawl ,"Lk C-8 B, Durtlang Leitan Aizawl",,"Information & Communication Technology,Any Other"
9,Aizawl Diocesan Education Society,SR/MZ-87 OF 2003-04,Mizoram, Aizawl ,"Bishops House,Ramthar Veng",,"Children,Education & Literacy,Vocational Training"
10,Aizawl Football Club,No. S.R. 21 of 1987,Mizoram, Aizawl ,".No.188, Dawrpui West, Aizawl, Mizoram",,Sports
1,1008 Sant Baba Hari Singh Nekiwale Charitable Society,564,Punjab, Hoshiarpur ,Villae Panjaurdistt Hoshiarpur-Punjab144404,144404,Any Other
2,2Qadam Foundation,399/2022,Punjab, Bhatiwal Kalan ,"Village-518, Mander Patti, Bhatiwal Kalan, Sangrur, Punjab- 148026.",148026,"Agriculture,Art & Culture,Children,Drinking Water,Education & Literacy,Aged/Elderly,Environment & Forests,Food Processing,Health & Family Welfare,Science & Technology,Sports,Women's Development & Empowerment,Skill Development"
3,A S High School Trust And Management Society,32,Punjab, Khanna ,A S Sr Sec School Khanna,,"Children,Education & Literacy"
4,Aaas Foundation,DIC/BTL51 2019-2020,Punjab, Pathankot ,"Vill Lahri Bawian, Post Office Sarnatehsil And District Pathankot Punjab 145025",145025,"Agriculture,Art & Culture,Education & Literacy,Environment & Forests,Health & Family Welfare,Rural Development & Poverty Alleviation,Sports,Vocational Training,Women's Development & Empowerment"
5,Aadiwasi Guru Gyan Nath Pooran Sanghrash Dal Foundation,U85300PB2020NPL052024,Punjab, Amritsar ,"C/O Gian Ashram,Jagat Guru Valmikimandir, Gyan Ashram Bhagwan Valmiki Tirath, Amritsar, Amritsar, Punjab, India, 143001",143001,"Dalit Upliftment,Aged/Elderly,Human Rights,Labour & Employment"
6,Aagaz(Society For The People By The People),253,Punjab, Amritsar ,"109, Amarkot, Opp Khalsa College For Women, Amritsar, Punjab",,"Dalit Upliftment,Education & Literacy,Health & Family Welfare,Information & Communication Technology,Legal Awareness & Aid,Minority Issues,Rural Development & Poverty Alleviation,Sports,Vocational Training,Women's Development & Empowerment,Youth Affairs"
7,Aapi Charitable Foundation,607,Punjab, Jalandhar ,"Mohalla Kalhan Kartarpur,Jalandhar-144801",144801,"Health & Family Welfare,Education & Literacy"
8,Aas Ehssas Welfare Society (Regd.),AAKAA4567FE20221,Punjab, Ludhiana ,Kitchlu Nagar,,Any Other
9,Aas Welfare Society,20,Punjab, Mohali ,"184, Phase-9, Tehsil Mohali, Distt. S.A.S. Nagar, Punjab",,"Children,Education & Literacy,Health & Family Welfare,Rural Development & Poverty Alleviation,Vocational Training,Women's Development & Empowerment,Youth Affairs,Any Other"
10,Aasra Foundations,245,Punjab, Muktsar ,"Aasra Foundations,Jalalabad Road,Muktsar",,Education & Literacy
1,Abiogenesis  Socety,Regd No H/RS-2445,Nagaland, Dimapur ,"Abiogenesis Society,Mamias Bliss, 6,Angami Khel,Nuton Bosti",,"Animal Husbandry, Dairying  &  Fisheries,Aged/Elderly,Agriculture,Art & Culture,Children,Civic Issues,Disaster Management,Education & Literacy,Environment & Forests,Health & Family Welfare,HIV/AIDS,Human Rights,Information & Communication Technology,Micro Finance (SHGs),Minority Issues,Micro Small & Medium Enterprises,New & Renewable Energy,Nutrition,Right to Information & Advocacy,Rural Development & Poverty Alleviation,Sports,Tribal Affairs,Tourism,Vocational Training,Women's Development & Empowerment"
2,Abundant Life Foundation,HOME/SRC-6661/2014,Nagaland, Dimapur ,Abundant Life Foundationunited North Blockburma Camp,,"Children,Civic Issues,Differently Abled,Education & Literacy,Aged/Elderly,Health & Family Welfare,HIV/AIDS,Micro Finance (SHGs),Sports,Tribal Affairs,Urban Development & Poverty Alleviation,Vocational Training,Women's Development & Empowerment,Youth Affairs"
3,Achemlong Welfare Society,H/RS-2750 ,Nagaland, Noklak ,"Achemlong Welfare Societyc/O Pongombelow D.C. Office, Noklaknagaland 798626",798626,"Children,Education & Literacy"
4,Achiku Society Ltd,H/RS-3689,Nagaland, Atoizu ,Atoizu Townzunheboto Dist,,"Agriculture,Animal Husbandry, Dairying  &  Fisheries,Art & Culture,Children,Civic Issues,Differently Abled,Disaster Management,Drinking Water,Education & Literacy,Aged/Elderly,Environment & Forests,Health & Family Welfare,Human Rights,Labour & Employment,Land Resources,Minority Issues,New & Renewable Energy,Nutrition,Rural Development & Poverty Alleviation,Tribal Affairs,Urban Development & Poverty Alleviation,Vocational Training,Women's Development & Empowerment,Youth Affairs"
5,Achomang Multipurpose Cooperative Society Ltd,NL/5145,Nagaland, Kiphire ,"Mission Compound Ward Below Hopongkyu Memorial Hall, H/No 63, Kiphire 798611",798611,"Agriculture,Animal Husbandry, Dairying  &  Fisheries,Art & Culture,Children,Dalit Upliftment,Differently Abled,Disaster Management,Drinking Water,Aged/Elderly,Environment & Forests,Food Processing,Health & Family Welfare,HIV/AIDS,Housing,Human Rights,Information & Communication Technology,Labour & Employment,Land Resources,Legal Awareness & Aid,Micro Finance (SHGs),Micro Small & Medium Enterprises,Minority Issues,New & Renewable Energy,Nutrition,Panchayati Raj,Prisoner's Issues,Right to Information & Advocacy,Rural Development & Poverty Alleviation,Science & Technology,Sports,Tourism,Tribal Affairs,Urban Development & Poverty Alleviation,Vocational Training,Water Resources,Women's Development & Empowerment"
6,Acme Foundation,885,Nagaland, Wokha ,"Wokha Town, Nagaland797111",797111,"Civic Issues,Micro Small & Medium Enterprises,Rural Development & Poverty Alleviation,Vocational Training,Water Resources,Skill Development"
7,Act Of Kindness Society,HOME/SRC-7211,Nagaland, Dimapur ,"H.No 105, Near Super Kids Academynaharbari, Dimapur",,"Art & Culture,Children,Civic Issues,Differently Abled,Education & Literacy,Health & Family Welfare,Information & Communication Technology,Minority Issues,Nutrition,Rural Development & Poverty Alleviation,Sports,Tourism,Tribal Affairs,Vocational Training,Women's Development & Empowerment,Youth Affairs"
8,Action For Women Development And Empowerment,H/RS.-698,Nagaland, Kohima ,"6.Awdeopposite War Cemeterybelow East Gate Hotel, Midland, Kohima, Nagaland -  797001",797001,"Aged/Elderly,Children,Health & Family Welfare,Micro Small & Medium Enterprises,Vocational Training"
9,Agape Youth Welfare Organisation,RS 2709,Nagaland, Wokha ,Agape Youth Welfare Organisation Po Box 20 Nst Wokha Town Dist Wokha 797111 Nagaland,797111,"Aged/Elderly,Agriculture,Differently Abled,Education & Literacy,Environment & Forests,Health & Family Welfare,HIV/AIDS,Micro Finance (SHGs),Rural Development & Poverty Alleviation,Tourism,Urban Development & Poverty Alleviation,Vocational Training,Women's Development & Empowerment,Youth Affairs,Human Rights"
10,Aghiyilito Mpcs,NL/3661,Nagaland, Dimapur ,"Eralibill Village Near Post Office,H/No 132,Dimapur Nagaland 797115",797115,"Animal Husbandry, Dairying  &  Fisheries,Aged/Elderly,Agriculture,Art & Culture,Biotechnology,Civic Issues,Differently Abled,Disaster Management,Drinking Water,Education & Literacy,Environment & Forests,Food Processing,Health & Family Welfare,Housing,Human Rights,Legal Awareness & Aid,Labour & Employment,Land Resources,Micro Finance (SHGs),Minority Issues,Micro Small & Medium Enterprises,New & Renewable Energy,Nutrition,Rural Development & Poverty Alleviation,Sports"
1,1 Step Foundation,249/UD/SR/2022,Manipur, Ukhrul ,Talui Village Ukhrul District Manipur,,"Agriculture,Animal Husbandry, Dairying  &  Fisheries,Drinking Water,Education & Literacy,Environment & Forests,Food Processing,Labour & Employment,Micro Finance (SHGs),Micro Small & Medium Enterprises,New & Renewable Energy,Rural Development & Poverty Alleviation,Tourism,Tribal Affairs,Water Resources,Youth Affairs,Skill Development"
2,7 Sisters Foundation,167/M/SR/2000,Manipur, Imphal ,"Sermon Road, 5Th Avenue, Dewlahland",,"Agriculture,Art & Culture,Children,Civic Issues,Differently Abled,Education & Literacy,Aged/Elderly,Environment & Forests,Food Processing,Health & Family Welfare,HIV/AIDS,Human Rights,Labour & Employment,Land Resources,Micro Finance (SHGs),Micro Small & Medium Enterprises,Minority Issues,New & Renewable Energy,Rural Development & Poverty Alleviation,Sports,Tribal Affairs,Vocational Training,Water Resources,Youth Affairs"
3,A Imocha Singh Foundation,73/M/SR/1987,Manipur, Imphal ,Wangkhei Angom Leikai,,NaN
4,A Ray Of Hope,414/M/SR/1988,Manipur, Imphal West ,"Uripok Khumanthem Leikai,Imphal Westc/O Bedhajit Okram,Manipur",,"Drinking Water,Education & Literacy,Health & Family Welfare,HIV/AIDS,Sports,Vocational Training,Any Other"
5,Abbas Foundation,258/M/SR/1991,Manipur, Thoubal ,"Haoreibi Mayai Leikai, Thoubal District, Manipur State.",,"Animal Husbandry, Dairying  &  Fisheries,Children,Civic Issues,Dalit Upliftment,Differently Abled"
6,Abdul Aziz Memorial Trust,80 OF 2012,Manipur, Thoubal ,Lilong Turel Ahanbi Kaleikhong Makha,,"Agriculture,Education & Literacy,Aged/Elderly"
7,Abdul Razak Helpline,379 of 2013,Manipur, Imphal ,Kiyamgei Muslim Mayai Leikai Po Canchipur Ps Irilbung 795003,795003,"Animal Husbandry, Dairying  &  Fisheries,Aged/Elderly,Agriculture,Art & Culture,Biotechnology,Children,Civic Issues,Differently Abled,Disaster Management,Dalit Upliftment,Drinking Water,Education & Literacy,Environment & Forests,Food Processing,Health & Family Welfare,HIV/AIDS,Housing,Human Rights,Information & Communication Technology,Legal Awareness & Aid,Labour & Employment,Land Resources,Micro Finance (SHGs),Minority Issues,Micro Small & Medium Enterprises"
8,Abdulla And Manira Foundation,36 OF 2013,Manipur, Lilong ,Turel Ahanbi Helalkhonglilong,,NaN
9,Abungchiang Horticulture Development Co-Operative Society Limtited,40/ST/HCS/2012-13,Manipur, Imphal ,"Abungchiangvillage, (Nagaching) Po Noney, Tamenglong District, Manipur-795159",795159,"Animal Husbandry, Dairying  &  Fisheries,Art & Culture,Health & Family Welfare,HIV/AIDS,Legal Awareness & Aid,Micro Finance (SHGs),Micro Small & Medium Enterprises,Tribal Affairs,Vocational Training,Women's Development & Empowerment,Any Other,Agriculture"
10,Academy For The Development Of Environment Protection,179/Imphal District/1987,Manipur, Imphal ,Yaikskul Chingakham Leirak,,NaN
1, Lokdhara Pratishthan,E-12361 (THANE),"Thane), Bhiwandi (Maharashtra", Bhiwandi ,"At. Samatanagar, Borivali, Near Z.P. School Marathi, Post. Padgha, Tal. Bhiwandi",,NaN
2, Living Water Gospel Broadcast,D-64(BOM),"Bom), Mumbai (Maharashtra", Mumbai ,Nev Bhavana 422 Swatantrya Veer Savarkar Marg Prabhadevi ,,Any Other
3,Narayani Empowering India Foundation,U85100PN2015NPL153974,Maharashtra, Pune ,"S.No 169/1, Bldg-A11, Flat-12 Skf Employees Hsg. Scheme, Chinchwad Pune, Mh 411033 In",411033,NaN
4,01.Shri Vatavruksha Swami Adhyatmik Sanshodhan Sansthan Sonna Tq. Dist Parbhani,E-0000205(PBN),"Pbn), Parbhani (Maharashtra", Parbhani ,At. Sonna Post. Mandakhali Tq.Dist. Parbhani-431537,431537,"Rural Development & Poverty Alleviation,Agriculture,Children,Education & Literacy,Health & Family Welfare,Information & Communication Technology,Water Resources,Women's Development & Empowerment,Youth Affairs,Any Other"
5,0Jaykranti Bahu Uddeshiya Shikshan Prasarak Sevabhvi Pratistan Mandal,F9014,Maharashtra, Jalkot ,Atrampur Tanda Post Gutti Tq Jalkot Dist Latur,,NaN
6,1 Earth Social Foundation,E-8263/PUNE,Maharashtra, Shirur ,"House No. 295, Mukkam Post Mukhai,Near St. Stand, Taluka Shirur,",,"Education & Literacy,Health & Family Welfare"
7,1 Rupee Clinic Foundation,U85100MH2021NPL361664,Maharashtra, Thane ,"Dimond Homes Basment B, Opp Manas Society, Bhaskar, Thane, Thane, Maharashtra- 400099",400099,Health & Family Welfare
8,1008 Shree Bhagavan Mahavir Digambar Jain Charitable Trust,E-851,Maharashtra, Aurangabad ,"Saptshrungi Housing Society,Rx-3/9,House No.-15,Near Jagrut Hanuman Mandir,Bajajnagar, Aurangabad Pin Code-431136(Maharashtra)",431136,"Art & Culture,Children,Civic Issues,Dalit Upliftment,Differently Abled,Disaster Management,Education & Literacy,Aged/Elderly,Health & Family Welfare,Human Rights,Rural Development & Poverty Alleviation,Women's Development & Empowerment"
9,14 Trees Foundation,U93090PN2020NPL191410,Maharashtra, Pune ,"A-502, Swojas Anand, Anand Park, Aundh",,Environment & Forests
10,27 Rab Sab Education Foundation,U85300MH2022NPL391157,Maharashtra, Thane ,"301 Building No 7,Mira Bhayander Road,Mira Road S.O, Thane-401107",401107,NaN
1,3 Star Golteck Rural Development And Womenws Walfare Society,04/14/01/09111/06,Madhya Pradesh, Jabalpur ,H.No. 2535 H Type Colony Medical College Jabalpur (M.P.),,"Art & Culture,Children,Education & Literacy,Health & Family Welfare,Human Rights,Tourism,Vocational Training,Women's Development & Empowerment,Drinking Water,HIV/AIDS,Right to Information & Advocacy,Rural Development & Poverty Alleviation"
2,360 Gotriya Khatik Samaj Kalyan Samiti,07/33/01/05223/04,Madhya Pradesh, Ujjain ,"02 Khatik Samaj Dhramshala Evam Chatrawas Nagar, Near Kot Mata Temple, Fazalpura",,"Art & Culture,Education & Literacy,Women's Development & Empowerment,Youth Affairs,Any Other,Skill Development,Labour & Employment"
3,3S Security Services,879 ,Madhya Pradesh, Indore ,"01,Panda Road,Near Hotel Mashal,Tehsil-Rau,District-Indore (Madhyapradesh)",,"Labour & Employment,Vocational Training,Any Other"
4,A Commn Man For Information And Action Samiti,01/01/01/22542/10,Madhya Pradesh, Bhopal ,66 Jain Mandir Road Mangalwara Bhopal,,NaN
5,A Ray To Hope Foundation,05/22/03/14543/18,Madhya Pradesh, Rewa ,"23/445, Arjun Nagar, Rewa",,"Education & Literacy,Children,Differently Abled,Health & Family Welfare,Nutrition,Water Resources,Women's Development & Empowerment"
6,A Sociel Welfare Soicety  Nurture Equality Education And Vision,03/27/03/17305/14,Madhya Pradesh, Indore ,Correspondence Address:- 401-F Vijaya Apartment779/1 Manishpuri Saket Indore -452001 Mp India,452001,"Art & Culture,Children,Civic Issues,Education & Literacy,Human Rights,Information & Communication Technology,Labour & Employment,Minority Issues,Urban Development & Poverty Alleviation,Vocational Training,Youth Affairs"
7,A To Z Education Society,04/18/01/13996/11,Madhya Pradesh, Seoni ,"Mandla Road, Kabeer Ward 06Dundaseoni Seoni",,"Animal Husbandry, Dairying  &  Fisheries,Art & Culture,Biotechnology,Children,Civic Issues,Dalit Upliftment,Differently Abled,Disaster Management,Education & Literacy,Aged/Elderly,Environment & Forests,Health & Family Welfare,HIV/AIDS,Information & Communication Technology,Minority Issues,Nutrition,Rural Development & Poverty Alleviation,Science & Technology,Sports,Tourism,Urban Development & Poverty Alleviation,Vocational Training,Water Resources,Women's Development & Empowerment,Youth Affairs,Any Other"
8,A V S Shiksha Evam Samajotthan Samiti,06/09/10/09518/13,Madhya Pradesh, Sagar ,Naya Bazar Malthon,,NaN
9,Aabhas Kala Sewa Samiti,IND/3025/97,Madhya Pradesh, Indore ,"Artys, 148 Teja Ji Nagar Kasturbagram Khandwa Road Indore ",,Aged/Elderly
10,Aacharya Guruvar Vidhyasagar Organization For Educational Ar&D,06/13/01/12921/19,Madhya Pradesh, Tikamgarh ,"28 1 13, Mahaveer Vihar Colony, Kunwarpura Darwaja, Tikamgarh",,NaN
1,Aadhar Bahuuddeshiya Seva Sanstha,F-3334/77,Lakshadweep, Ujjain ,"Mumbai -400065, Maharashtra Rajya, Bharat.",400065,Water Resources
2,Dr.Koya Memorial Charitable & Educational Trust,359/4,Lakshadweep, Kavarathi ,"Darussalam,(Dr Koya Bhavan) Kavarathi Island, Lakshadweep",,"Agriculture,Art & Culture,Children,Civic Issues,Dalit Upliftment,Education & Literacy,Aged/Elderly,Food Processing,Housing,Micro Small & Medium Enterprises,Minority Issues,Rural Development & Poverty Alleviation,Sports,Tourism,Women's Development & Empowerment,Youth Affairs"
3,Jan Shikshan Sansthan Lakshadweep,S/R682/2022,Lakshadweep, Kavaratti ," Jan Shikshan Sansthan Lakshadweepward No.11 ,Near Secretariat And Lord Shiva Temple,Kavaratti Village,Kavaratti P Out Of Lakshdweeppin 682555",682555,Skill Development
4,Jan Shikshan Sansthan Lakshadweep,S/R682/2022,Lakshadweep, Kavaratti ,Jan Shikshan Sansthan Lakshadweepnear Secretariatkavarati Pout Of Lakshadweep,,"Agriculture,Animal Husbandry, Dairying  &  Fisheries,Art & Culture,Differently Abled,Disaster Management,Education & Literacy,Food Processing,Health & Family Welfare,Information & Communication Technology,Labour & Employment,Land Resources,Micro Finance (SHGs),Micro Small & Medium Enterprises,Rural Development & Poverty Alleviation,Tribal Affairs,Vocational Training,Women's Development & Empowerment,Youth Affairs"
5,Swarna Dhara Charitable Welfare Society,S0007783 OF 2019-2020,Lakshadweep, Jnjhoj ,"Jhghjmm,Kjhl,Ljh",,"Agriculture,Animal Husbandry, Dairying  &  Fisheries,Art & Culture,Biotechnology,Children,Civic Issues,Dalit Upliftment,Differently Abled,Disaster Management,Drinking Water,Education & Literacy,Aged/Elderly,Environment & Forests,Food Processing,Health & Family Welfare,Housing,Labour & Employment,Water Resources,Women's Development & Empowerment,Any Other,Skill Development,Human Rights,Information & Communication Technology,Micro Finance (SHGs),Micro Small & Medium Enterprises,Minority Issues,New & Renewable Energy,Nutrition,Rural Development & Poverty Alleviation,Science & Technology,Sports,Tourism,Tribal Affairs,Urban Development & Poverty Alleviation,Vocational Training,Youth Affairs"
6,Thanal Charitable Organization,557/2009,Lakshadweep, Kavaratti ,"Thanal Charitable Organization,Kavaratti Island,Ut Of Lakshadweeppin:682555",682555,"Aged/Elderly,Children,Health & Family Welfare,Legal Awareness & Aid,Labour & Employment,Micro Small & Medium Enterprises,Rural Development & Poverty Alleviation,New & Renewable Energy,Vocational Training,Water Resources,Women's Development & Empowerment"
7,Wake Up Lak Welfare Society,EKM/TC/207/2021,Lakshadweep, Kochi ,"Door No: Ews-726,Maveli Road, Kadavanthra Po, Near Suppluyco, Elamkulam Village, Kochi 682020",682020,"Agriculture,Civic Issues,Education & Literacy,Environment & Forests,Health & Family Welfare,Human Rights,Information & Communication Technology,Legal Awareness & Aid,Tourism,Skill Development"
1, Shri Raghavendra Swami Seva Samiti,GNO/SNO.261/98-99,Karnataka, Belagavi ,"Cts No 7286, Anjaneya Nagar, Malamaruti Badavane, Belagavi 590015",590015,NaN
2,1008 Bhagwan Shri Mahaveer Jain Minority Charitable Trust (R),MUD-4-00029-2015-16 CD MUDD165,Karnataka, Muddebihal ,Alamatti Roadmuddebihal-586212,586212,NaN
3,1M1B Foundation,U93000KA2012NPL065554,Karnataka, Bangalore ,"No. 29, Baron House, 3Rd Floor 80 Ft Road,, Kormangala 4Th Block Bangalore, Bangalore, Bangalore, Karnataka, India, 560034",560034,"Education & Literacy,Labour & Employment,Micro Small & Medium Enterprises,Vocational Training,Skill Development"
4,6Ty Plus Foundation,RJN-4-00411-2015-16,Karnataka, Bengaluru ,"No. Lr-39, 2Nd Cross, Lig Row Houses, Nandini Layout",,NaN
5,A Dharma Sastha Foundation ,INR-4-00009-2020-21,Karnataka, Bangalore ,No 51 19Th Cross Lakshmipuram Halasuru Bangalore North,,"Children,Education & Literacy,Aged/Elderly,Women's Development & Empowerment"
6,A G N Foundation,400270,Karnataka, Bangalore ,No 1445 Vajras No 6 South End A Cross 28Th Main Jayanagar 9Th Block ,,NaN
7,A H Memorial Educational Trust,150/80-81,Karnataka, Bangalore ,"Ca Site 7P 1A, Presidency School, 2Nd A Main, 3Rd A, Cross, East Of N.G.E.F Layout, Kasturinagar, Bengaluru, Karnataka 560043",560043,"Education & Literacy,Vocational Training,Any Other"
8,A Hundred Hands ,IN KA275887416941221,Karnataka, Bangalore  ,4 Ashley Roadoff Mg Roadbangalore 560025,560025,"Art & Culture,Differently Abled,Rural Development & Poverty Alleviation,Tourism,Tribal Affairs,Vocational Training"
9,A Little Change,485,Karnataka, Koramangala ,"No.31, 3Rd Floor, A Main, Jakkasandra Extn, Koramangala, 1St Blockbengaluru560034 ",560034,"Art & Culture,Children,Education & Literacy,Skill Development"
10,A One Educational Welfare Trust,BNG(U)BSKJ 136/2011-12,"U)Bskj 136/2011-12, Bangalore (Karnataka", Bangalore ,"No: 117, 6Th Main Road, 6Th Cross, Near Quba Masjid, Yarab Nagar, Banashankari, Bangalore560070",560070,NaN
1,Abchee Gonpa Tsogspa,103-UTL,Ladakh, Leh ,R/O Hanu Yokma P/O Khaltsi Leh U T Ladakhoffice Located At Hanu Yokma Zamchung Complex ,,Any Other
2,All Ladakh Youth Coordination Committee, 159/K/2015,Ladakh, Kargil ,Chochot Yokma Near Imam Bargah Chochot Leh Ladakh 194101,194101,"Any Other,Health & Family Welfare,Agriculture,Animal Husbandry, Dairying  &  Fisheries,Art & Culture,Children,Civic Issues,Drinking Water,Education & Literacy,Environment & Forests,HIV/AIDS,Human Rights,Labour & Employment,Minority Issues,Nutrition,Panchayati Raj,Rural Development & Poverty Alleviation,Sports,Tourism,Women's Development & Empowerment"
3,All Zangskar Gonpa Association,1700-S of 1990,Ladakh, Kargil ,"All Zangskar Gonpa Association, Duzing Photang, Maniringmo Padum Zanskarkargil (J",,NaN
4,Anjuman Imamia Leh Town,6052-S,Ladakh, Leh ,Main Bazar Leh,,"Art & Culture,Children,Civic Issues,Disaster Management,Education & Literacy,Food Processing,Health & Family Welfare,Human Rights,Land Resources,Panchayati Raj"
5,Arts Cultural And Educational Society,4945-S,Ladakh, Kargil ,Changra Garkone,,NaN
6,Association For Medicine Education And Development Amed Zanaskar,6581-S OF 2014,Ladakh, Kargil ,"Rainbow School Nerok Zanskar Nearby Govt, Degree College Zanskar,Distt. Kargil Ut Ladakh India 194302",194302,Education & Literacy
7,Az-Zahra (S) Orphanage Islamia School Kargil ,6390/S/13,Ladakh, Kargil ,"Near Kargil Filling Station, Kurbathang Kargilladakh (194103)",194103,"Children,Education & Literacy,Any Other,Rural Development & Poverty Alleviation"
8,"Bardan Cultural And Welfare Society, Bardan Gonpa",1341-S of 1987,Ladakh, Kargil ,"Bardan Gonpa, Zanskar, District Kargil( J",,NaN
9,Bodicharyavatar Society,3015,Ladakh, Leh ,Skidmang Changthangleh Ladakh,,Education & Literacy
10,Border Area Development Organisation Kargil,3407- S,Ladakh, Kargil ,Akwoou Complex Main Road Poyen Kargil Jammu And Kashmir 194103,194103,"Agriculture,Animal Husbandry, Dairying  &  Fisheries,Art & Culture,Biotechnology,Children,Civic Issues,Dalit Upliftment,Disaster Management,Drinking Water,Education & Literacy,Aged/Elderly,Environment & Forests,Food Processing,Health & Family Welfare,Housing,Information & Communication Technology,Land Resources,Micro Small & Medium Enterprises,Minority Issues,New & Renewable Energy,Panchayati Raj,Right to Information & Advocacy,Rural Development & Poverty Alleviation,Science & Technology,Sports,Tourism,Tribal Affairs,Urban Development & Poverty Alleviation,Vocational Training,Women's Development & Empowerment,Youth Affairs,Any Other"
1,A I  I T V T Trust,178/2021,Uttarakhand, Roorkee ,"Village Akbarpur Dhadhkee, Post Manglour Town Roorkee",,"Agriculture,Animal Husbandry, Dairying  &  Fisheries,Art & Culture,Biotechnology,Children,Civic Issues,Dalit Upliftment,Differently Abled,Disaster Management,Drinking Water,Education & Literacy,Aged/Elderly,Environment & Forests,Food Processing,Health & Family Welfare,HIV/AIDS,Housing,Human Rights,Information & Communication Technology,Labour & Employment,Land Resources,Legal Awareness & Aid,Micro Finance (SHGs),Micro Small & Medium Enterprises,Minority Issues,New & Renewable Energy,Nutrition,Panchayati Raj,Right to Information & Advocacy,Rural Development & Poverty Alleviation,Science & Technology,Scientific & Industrial Research,Tourism,Tribal Affairs,Urban Development & Poverty Alleviation,Vocational Training,Water Resources,Women's Development & Empowerment,Youth Affairs"
2,A Pro Edu And Welfare Society,230/2016-2017,Uttarakhand, Dehradun ,"Vijay Vihar, Post Office Road, Clementown",,"Education & Literacy,Environment & Forests,Rural Development & Poverty Alleviation,Women's Development & Empowerment"
3,Aa Foundation,No. 216 of 2018 listed in Book,Uttarakhand, Dehradun ,"C-104, Race Course",,"Children,Education & Literacy"
4,Aachal Parvtiy Sastha,UK06608112020005218,Uttarakhand, Kaladhungi ,Ward N0 06 Mangolla Dharakaladhungi Nainital,,"Drinking Water,Women's Development & Empowerment"
5,Aadarsh Baby Vidhyalya Samiti,148/1995-1996,Uttarakhand, Jaspur ,"Mo.-Bhoop Singhnear Shakko Wali Masjidjaspur, Udham Singh Nagar (Uttarakhand)244712",244712,Education & Literacy
6,Aadhaar Samajik Vikas Samiti,78/2014-15,Uttarakhand, Dehradun ,"75 A Friends Plaza, Rajpur Road, 2Nd Floor Dehradun",,"Children,Civic Issues,Differently Abled,Disaster Management,Drinking Water,Education & Literacy,Aged/Elderly,Environment & Forests,Health & Family Welfare,HIV/AIDS,Human Rights,Legal Awareness & Aid,Micro Finance (SHGs),Right to Information & Advocacy,Rural Development & Poverty Alleviation,Urban Development & Poverty Alleviation,Water Resources,Women's Development & Empowerment,Labour & Employment,Minority Issues,Prisoner's Issues,Information & Communication Technology,Agriculture,Art & Culture,Dalit Upliftment,Micro Small & Medium Enterprises,New & Renewable Energy,Tribal Affairs"
7,Aadhar Sanstha,390/2003,Uttarakhand, Dehradun ,"Line Jeevangarh, Resham Farm, Vikasnagar,Dehradun, 248198",248198,"Agriculture,Health & Family Welfare,Labour & Employment,Micro Finance (SHGs),Rural Development & Poverty Alleviation"
8,Aadhunik Shiksha Samiti,087/2016-2017,Uttarakhand, Jaspur ,"Aadhunik Shiksha Samiti Mohalla Gujratiyan, Post Jaspur, ",,NaN
9,Aadi Aatma Mission,233/2001-2002,Uttarakhand, Haridwar ,"Aadi Atma Mission, Satsang Bhawan, Guru Gaddi V Po, Daulatpur, Haridwar",,Any Other
10,Aadidev Mahadev Sewa Trust Haridwar,AAJTA0576GE20214,Uttarakhand, Bahadrabad ,"House No-386, Plot No-14, Radhika Puram Colony, Dadupur Govindpur, Tehsil And Haridwar.",,NaN
1,Kandratikuri Wood Craft Welfare Society,S/1/L/73031,West Bengal, Burdwan ,"Vill-Kandratikuri, Po- Damuri, Ps- Bud Bud, Dist- Burdwan (Purba) West Bengal Pin- 713403",713403,"Agriculture,Children,Drinking Water,Education & Literacy,Health & Family Welfare,Human Rights,Legal Awareness & Aid,Micro Finance (SHGs),Urban Development & Poverty Alleviation,Vocational Training,Women's Development & Empowerment,Any Other"
2, Barrackpore Diocesan Board Of Social Services,S/1L/27538 OF 2004-2005,West Bengal, Barrackpore ,"86, Middle Road, Barrackpore",,"Education & Literacy,Health & Family Welfare,Nutrition,Aged/Elderly"
3,Oldchild Foundation,U85300WB2020NPL242131,West Bengal, Bardhaman ,"1001, Sahimohalla, Kendwa Road, Po-Kulti, Asansol, P. Burdwan, Bardhaman, Bardhaman, West Bengal, India, 713343",713343,Health & Family Welfare
4, St Peters Vocational Training Centre,S/2L/41116 OF 2015-2016,West Bengal, Kolkata ,"Kulpi Road, P.O And P.S Baruipur,",,Education & Literacy
5,''Sita'' Jain Memorial Trust,190302101,West Bengal, Kolkata ,"14/2B , Nirode Behari Mullick Road, Kolkata700006",700006,Children
6,'Help Us Help Them,S/1L/30123,West Bengal, Kolkata ,9/3B Gariahat Road,,"Children,Education & Literacy"
7,1 No. Nutan Fulia Swapno Welfare Society,S/2L/11554,West Bengal, Santipur ,"Vill.- 1 No Nutan Fulia,P.O.- 2 No Nutan Fulia,P.S.- Santipur,Dist.- Nadia,West Bengal,Pin-741402",741402,"Children,Civic Issues,Differently Abled,Disaster Management,Drinking Water,Education & Literacy,Aged/Elderly,Environment & Forests,Health & Family Welfare,Human Rights"
8,10 D Educational Development Trust,IV-01541/13,West Bengal, Joynagar ,"257, N.S.B Road , Po- Joynagar Majilpurps- Joynagar ",,"Education & Literacy,Information & Communication Technology,Rural Development & Poverty Alleviation,Vocational Training,Water Resources,Micro Small & Medium Enterprises,Minority Issues,New & Renewable Energy,Any Other"
9,10 D Welfare And Development Trust,IV-00224 OF 2009,West Bengal, Baruipur ,"Sitakundu Main Road, Solgolia, Ataghara,Madarat, Baruipur, Kolkata 700144",700144,"Education & Literacy,Information & Communication Technology,Micro Small & Medium Enterprises,New & Renewable Energy,Panchayati Raj,Science & Technology,Vocational Training,Water Resources,Youth Affairs,Any Other"
10,10 D Welfare Trust,IV-00600-2013 SERIAL NO 03798 ,West Bengal, Ashokenagar ,"Vill Manik Nagar, Po- Maniktala, Ps- Ashokenagar",,"Education & Literacy,Health & Family Welfare,Labour & Employment,Micro Small & Medium Enterprises,Vocational Training,Skill Development"
1,'K.S.Abdullah Educational Trust,138/IV/1993,Kerala, Kasaragod ,Kasaragod Muslim Welfare Associationmalik Deenar Charitable Hospitalkasaragod Districtkeralapin 671122,671122,NaN
2,4Dxi Foundation,U93090KL2018NPL055362,Kerala, Ernakulam ,"Venus Arcade,Kaniyapilly Road,Chakkaraparambu, Vennala, ",,Education & Literacy
3,A K Cherian Memorial Charitable Soceity,P/469/2010,Kerala, Malakkara ,St.Thomas Hospital Buildingmalakkarapathanamthitta (Quilon)Kerala,,Any Other
4,A K G Smaraka Vayanasala And Grandhalayam Paz,234/1979,Kerala, Payangadi ,Near Rly Stationp O Payangadi R S,,Education & Literacy
5,A Kg Smaraka Vayanasala & Grandhalayam Cheruvathalamotta,484/2005,Kerala, Cheruvathalamotta ,"Cheruvathalamotta ,(Po) Chattukapara,Kannur",,NaN
6,A M Ebrahim Sahib Memorial Library,07MPA4836,Kerala, Muvattupuzha ,A M Ebrahim Sahib Memmorial Library Paipra Manary P O Muvattupuzha,,NaN
7,A N P Nair Memorial Educational Trust,41/1992,Kerala, Mavelikara ,A N P Nair Memorial Educational Trustchettikulangara Chettikulangara P O Mavelikaraalappuzhakerala -690106,690106,"Education & Literacy,Education & Literacy"
8,A V Kunhambu Smaraka Vayanasala And Grandhalayalam,592/2003,Kerala, Thalassery ,"Thirumeni Po, Thirumeni, Cherupuzha Via, Kannur District, Kerala",,NaN
9,A1 Poor Fund Foundation Of India,ER 324/85,Kerala, Punalal ,"Cross Complex, Punalal P.O., Thiruvananthapuram695 575",,"Animal Husbandry, Dairying  &  Fisheries,Art & Culture,Civic Issues,Dalit Upliftment,Disaster Management,Education & Literacy,Aged/Elderly,Health & Family Welfare,Human Rights,Legal Awareness & Aid,Minority Issues,Rural Development & Poverty Alleviation,Tribal Affairs,Vocational Training,Women's Development & Empowerment,Youth Affairs,Any Other"
10,Aaliyah Health And Educational Foundation,422/2008,Kerala, Kollam ,"Thenguvila House, Cherukulam P.O., Anchal, Kollam District, Kerala-691306",691306,NaN
1, Rural Development And Prosperity Initiative Society,FAI/14273/2021-2022,Uttar Pradesh, Ayodhya ,"Vill Post Gokula, Tehsil Milkipur, District Ayodhya Up",,"Art & Culture,Children,Civic Issues,Education & Literacy,Environment & Forests,Information & Communication Technology,Right to Information & Advocacy,Rural Development & Poverty Alleviation,Science & Technology,Scientific & Industrial Research,Sports,Urban Development & Poverty Alleviation,Water Resources,Women's Development & Empowerment,Youth Affairs,Any Other,Skill Development"
2, Shaikshik Samraddhi Sanstha,2631,Uttar Pradesh, Agra ,6 Roshan Vihardevri Road,,Education & Literacy
3,Jnjagruk Welfare Foundation,161995,Uttar Pradesh, Atrauli ,C/O Pavitra Devi (Owner Of The Premises) Moh Kherapatan,,"Children,Sports,Skill Development"
4,Vishwagyan Vatika Gurukul Foundation,U80904UP2022NPL168112,Uttar Pradesh, Varansi ,"B1/128-4,Dumrav Bagh Colony Assi ,Varanasi Varanasi Varanasi Up 221005 In",221005,"Education & Literacy,Agriculture,Animal Husbandry, Dairying  &  Fisheries,Art & Culture,Biotechnology,Children,Civic Issues,Dalit Upliftment,Differently Abled,Disaster Management,Drinking Water,Aged/Elderly,Environment & Forests,Food Processing,Health & Family Welfare,HIV/AIDS,Housing,Human Rights,Information & Communication Technology,Labour & Employment,Land Resources,Legal Awareness & Aid,Micro Finance (SHGs),Micro Small & Medium Enterprises,Minority Issues,New & Renewable Energy,Nutrition,Panchayati Raj,Prisoner's Issues,Right to Information & Advocacy,Rural Development & Poverty Alleviation,Science & Technology,Scientific & Industrial Research,Sports,Tourism,Tribal Affairs,Urban Development & Poverty Alleviation,Vocational Training,Water Resources,Women's Development & Empowerment,Youth Affairs,Any Other,Skill Development"
5,(Sutra )Social Upliftment Through Research & Action ,2547-2004-2005,Uttar Pradesh, Lucknow ,"Harihar Pur House,1-A,Hari Nagar Kasaila,Narayan Nagar,Ravindra Palli,Faizabad Road,Lucknow",,"Agriculture,Art & Culture,Education & Literacy,Micro Finance (SHGs),Micro Small & Medium Enterprises,Skill Development"
6,2Nd Innings,4/36/21,Uttar Pradesh, Ghazipur ,"Lahurapur,Bhojapurmaradahghazipurup233226",233226,"Animal Husbandry, Dairying  &  Fisheries,Children,Aged/Elderly,Environment & Forests,Women's Development & Empowerment,Dalit Upliftment,Disaster Management,Human Rights,Labour & Employment,Legal Awareness & Aid,Panchayati Raj,Sports,Youth Affairs,Skill Development"
7,3D Sewa Sansthan,2059-2014-2015,Uttar Pradesh, Bilgram ,Bilgram Hardoi,,NaN
8,4Caretruly Blessed Foundation ,U85300UP2022NPL163376,Uttar Pradesh, Kanpur ,"A No.40, H N. 25A Safipur Iind Herjinder Nagar Chakeri Kanpur Kanpur Kanpur Up 208007 India..",208007,"Agriculture,Animal Husbandry, Dairying  &  Fisheries,Art & Culture,Children,Education & Literacy,Food Processing,Health & Family Welfare,Rural Development & Poverty Alleviation,Science & Technology,Sports,Vocational Training,Women's Development & Empowerment,Youth Affairs,Any Other,Urban Development & Poverty Alleviation"
9,4Future Shine Foundation,U85300UP2022NPL167124,Uttar Pradesh, Agra ,E-202 Aparna Prem Second Floor Shastripuram Agra Uttar Pradesh India 282007,282007,"Children,Education & Literacy,Health & Family Welfare,Human Rights,Women's Development & Empowerment,Youth Affairs,Any Other,Skill Development"
10,4Teammavi Mohit Welfare Association,U85300UP2022NPL167451,Uttar Pradesh, Ghaziabad ,Teela Shahbazpur Loni Ghaziabad Uttar Pradesh India 201102,201102,"Children,Education & Literacy,Health & Family Welfare,Human Rights,Women's Development & Empowerment,Youth Affairs,Any Other,Skill Development"
1,Aadi Rang Foundation,IV-230,Tripura, Kulai ,"Shri Surajit Debbarmas/O Shri Jogindra Debbarma Of 149,Shambhuram Para, East Nalicharap.S.Ambassa",,Art & Culture
2,Aadimjati Khaokluk Samaj Seba Pamang Maharaj Society,6835,Tripura, Kowaifang ,"Kowaifang, P.O.: Kowaifang, P.S.: Baikhora,Santir Bazar, Dist.: South Tripura. Pin-799141",799141,NaN
3,Abalamban,1500,Tripura, Agartala ,"Abalamban,""Apnaghar"",Airport Road,Barjala(Near Trtc Workshop),Agartala,Tripura,Pin-799002",799002,"Environment & Forests,Vocational Training,Women's Development & Empowerment"
4,Abhel Hoda Kalyan Samity,5551,Tripura, Amarpur ,Taidu Bari,,"Agriculture,Animal Husbandry, Dairying  &  Fisheries,Art & Culture,Children,Civic Issues,Differently Abled,Environment & Forests,Health & Family Welfare,Legal Awareness & Aid,Micro Finance (SHGs),Minority Issues,Sports,Tribal Affairs,Vocational Training,Water Resources,Women's Development & Empowerment,Youth Affairs"
5,Abhigyan Ex Navodayan Foundation,8860,Tripura, Kamalpur ,"Ward No 3, Kamalpur, P.O.Kamalpurp.S.Kamalpur, Distdhalai, Pin799285",799285,"Art & Culture,Children,Drinking Water,Education & Literacy,Aged/Elderly,Environment & Forests,Nutrition,Rural Development & Poverty Alleviation,Sports,Vocational Training,Skill Development"
6,Abhimukh - Socio Cultural Organization,7845,Tripura, Udaipur ,"Chanban, P.O- R.K.Pur",,NaN
7,Abhoy Mission,1947 under 1860 Socities Act,Tripura, Agartala ,"Abhoy Mission, Ramnagar Road No. 1, P.O- Ramnagar, Agartala, Tripura - 799002.",799002,"Children,Differently Abled,Education & Literacy,Aged/Elderly,Vocational Training,Women's Development & Empowerment"
8,Abohomaan,8222 of 2019,Tripura, Kailashahar ,"Boulapassa, P.Okailashahar, Kailashahar, Unakoti District, Tripura",,NaN
9,Achin Baba Sangha,3231,Tripura, Udaipur ,Registered Address- Vill,,"Agriculture,Animal Husbandry, Dairying  &  Fisheries,Art & Culture,Differently Abled,Drinking Water,Education & Literacy,Environment & Forests,Health & Family Welfare,Labour & Employment,Micro Small & Medium Enterprises,Women's Development & Empowerment,Skill Development"
10,Adarsha Sangha,3196,Tripura, Dharmanagar ,"Vill-Dewanpasha, Po-Dewanpasha, Ps-Dharmanagar",,"Animal Husbandry, Dairying  &  Fisheries,Agriculture,Art & Culture,Children,Disaster Management,Drinking Water,Education & Literacy,Environment & Forests,Food Processing,Health & Family Welfare,HIV/AIDS,Information & Communication Technology,Legal Awareness & Aid,Labour & Employment,Micro Finance (SHGs),Micro Small & Medium Enterprises,New & Renewable Energy,Panchayati Raj,Rural Development & Poverty Alleviation,Science & Technology,Sports,Tribal Affairs,Urban Development & Poverty Alleviation,Vocational Training,Women's Development & Empowerment"
1,'Deep' Development For Environment Education Programme,82,Jharkhand, Godda ,"Deep , Gandhi Nagar, Godda ",,"Children,Civic Issues,Education & Literacy,Legal Awareness & Aid"
2,A.R.Associate.,10078/8040/2011,Jharkhand, Jamshedpur ,"Flatno.C/1, Govinda Block , Sri Krishna Udyan, Jawaharnagar, Mango,Jamshedpur",,Education & Literacy
3,Aabad Social Welfare Foundation,U85300JH2022NPL019769,Jharkhand, Jharkhand ,"Jhirky Kathara, Bokaro, Bokaro, Jharkhand, India, 829116",829116,"Agriculture,Art & Culture,Children,Education & Literacy,Environment & Forests,Food Processing,Housing,Human Rights,Water Resources,Women's Development & Empowerment,Skill Development"
4,Aabha Creative Organization,127/2015-16,Jharkhand, Hazaribag ,"Prem Nagar, Sindoor, Hazaribag ",,"Education & Literacy,Health & Family Welfare,Vocational Training"
5,Aadarsh Gramin Swarajya,8943/154/2014,Jharkhand, Chainpur ,Near Raja Garhkashyap Muhalla,,"Agriculture,Animal Husbandry, Dairying  &  Fisheries,Children,Drinking Water,Education & Literacy,Environment & Forests,Food Processing,Health & Family Welfare,HIV/AIDS,Human Rights,Information & Communication Technology,Land Resources,Legal Awareness & Aid,Micro Finance (SHGs),Micro Small & Medium Enterprises,Nutrition,Panchayati Raj,Right to Information & Advocacy,Rural Development & Poverty Alleviation,Tribal Affairs,Urban Development & Poverty Alleviation,Vocational Training,Water Resources,Women's Development & Empowerment"
6,Aadarsh Gramin Swarajya Sansthan,842/2011-12,Jharkhand, Chainpur ,Ganesh Kumarsecretaryaadarsh Gramin Swarajya Sansthan Vill Po Ps- Chainpur (Kashyap Muhlla)Pin- 822110,822110,"Agriculture,Children,Drinking Water,Education & Literacy,Food Processing,Health & Family Welfare,HIV/AIDS,Land Resources,Micro Finance (SHGs),Nutrition,Panchayati Raj,Right to Information & Advocacy,Rural Development & Poverty Alleviation,Tribal Affairs,Urban Development & Poverty Alleviation,Vocational Training,Water Resources,Women's Development & Empowerment,Youth Affairs"
7,Aadarsh Jansewa Society ,859,Jharkhand, Daltonganj ,"House No. 71, Villramsagar, P.Ophulang, P.S.Lesliganj Palamu Jharkhand",,"Health & Family Welfare,Rural Development & Poverty Alleviation"
8,Aadikala Manch,1378,Jharkhand, Simdega ,"C/O: Banphool Nayakvill- Bongram ,Po- Bongram, Ps- Kolebira",,Art & Culture
9,Aadim Development Society,134,Jharkhand, Saraikela Kharsawan ,"Vill- Katia, Po- Chandnl, Dist- Seraikela-Kharswan Jharkhand- 832401",832401,"Agriculture,Art & Culture,Children,Drinking Water,Health & Family Welfare,Human Rights,Sports,Women's Development & Empowerment"
10,Aadivasi Mamta Jiwan Darpan Sanstha,200,Jharkhand, Lohardaga ,Bhandra (Lohardaga),,"Animal Husbandry, Dairying  &  Fisheries,Dalit Upliftment,Drinking Water,Education & Literacy,Health & Family Welfare,Micro Small & Medium Enterprises,Minority Issues,Rural Development & Poverty Alleviation,Tourism,Tribal Affairs,Women's Development & Empowerment,Youth Affairs"
1,Brave Vision Sports Foundation,U85300TN2021NPL148796,Tamil Nadu, Seethapatty  ,S/O-Kumarasamy D.No-24K/18 Vanchiaman Petrol Bunk(Opp) Seethapatty Dindigul Tn 624619 In,624619,"Education & Literacy,Sports"
2,Panruti Ondrupatta Ilaigner Kazhakam,100/2014,Tamil Nadu, Panruti ,"25,Kamaraj Nagar",,"Drinking Water,Education & Literacy,Environment & Forests,Human Rights,Information & Communication Technology,Labour & Employment,Women's Development & Empowerment,Youth Affairs"
3,(Pazhani) Kiranur Sanmarga Gurukulam,12/1956,Tamil Nadu, Palani ," (Pazhani)Kiranursanmarga Gurukulamjothipuram,Keeranur,Palani(Tk)Dindigul(Dt)624617",624617,"Children,Education & Literacy,Aged/Elderly,Food Processing,Skill Development"
4,2 The Children Foundation,126,Tamil Nadu, Chennai ,"No.5, Gandhi Salai Lane,Pazhavanthangal,Alandur,Chennai-600114.",600114,"Agriculture,Children,Differently Abled,Education & Literacy,Aged/Elderly,Environment & Forests,Human Rights,Micro Small & Medium Enterprises,Rural Development & Poverty Alleviation,Urban Development & Poverty Alleviation,Vocational Training,Women's Development & Empowerment,Youth Affairs,Skill Development"
5,4 M Trust,178/2005,Tamil Nadu, Chennai ,"No-4, Buhari Building, Moores Road, Chennai-600006",600006,"Women's Development & Empowerment,Any Other"
6,63 Nayanars Charitable Trust,74/2021,Tamil Nadu, Tiruvannamalai ,"No.3, Girivalam Nagar Adiannamalai, Tiruvannamalai",,"Children,Civic Issues,Disaster Management,Education & Literacy,Food Processing,Rural Development & Poverty Alleviation,Any Other"
7,A C T Educational And Charitable Trust,3847/2007,Tamil Nadu, Chennai ,"No.2070, 1St Street, Vasantham Colony,Anna Nagar, Chennai-600040",600040,NaN
8,A D S Educational Trust,1479/2009,Tamil Nadu, Chennai ,"G4, Salmasanjana Castle, 185 Choolaimedu High Road, Choolaimedu",,Education & Literacy
9,A K Educational Trust,31/BK4/2014,Tamil Nadu, Theni ,"No.6, Bazzar Street, Periyakulam Road, Bommaiyakaranpatti Allinagaram, Theni-625531, Tamilnadu, India.",625531,"Children,Differently Abled,Education & Literacy,Human Rights,Rural Development & Poverty Alleviation,Water Resources,Women's Development & Empowerment,Skill Development,Agriculture,Health & Family Welfare"
10,A K Social Welfare Trust,21/2019,Tamil Nadu, Vriddhachalam ,"A K Social Welfare Trust187 Appar Street,Periyar Nagar South,Vriddhachalam-606001,Cuddalore Districttamilnadu",606001,"Agriculture,Animal Husbandry, Dairying  &  Fisheries,Art & Culture,Biotechnology,Children,Civic Issues,Dalit Upliftment,Differently Abled,Disaster Management,Drinking Water,Education & Literacy,Aged/Elderly,Environment & Forests,Food Processing,Health & Family Welfare,HIV/AIDS,Human Rights,Information & Communication Technology,Labour & Employment,Legal Awareness & Aid,Micro Finance (SHGs),Micro Small & Medium Enterprises,Minority Issues,Nutrition,Panchayati Raj,Scientific & Industrial Research,Urban Development & Poverty Alleviation,Vocational Training,Water Resources,Women's Development & Empowerment,Any Other"
1,Aarigaon Sanskrit Pathsala Managing Committee,1560/LD/2006,Sikkim, Gyalshing ,"Yangthang Block, Aarigaon, Po Langang, Gyalshing, West Sikkim- 737111",737111,NaN
2,Aho Yangtam Sanskrit Patshala,05/sp/sikkim,Sikkim, Gangtok ,Aho Yangtam Sanskrit Pathsala P.O Ranipool East Sikkim Gangtok 737135,737135,NaN
3,Ajambari Seva Sangh,1443,Sikkim, Gyalshing ,General Secretaryajambari Seva Sanghsakyoungwest Sikkim737111,737111,"Art & Culture,Education & Literacy,Environment & Forests,Children,Disaster Management,Sports,Tribal Affairs,Vocational Training"
4,Akhil Sikkim Asahaya Kalyan Samiti,717,Sikkim, Rongli ,"Villdalapchan, Porongli, Psrongli",,NaN
5,All Sikkim Muslim Women'S Welfare Association,2069,Sikkim, Gangtok ,Raushan Manzil Building Near Helipad Lower Burtuk Gangtok East Sikkim,,NaN
6,Arithang Neel Gagan Development Society,"1173, Vol - I",Sikkim," Vol - I, Gyalshing  ","Martam, Gyalshing, West Sikkim",,Legal Awareness & Aid
7,Arithang Social Welfare Association,"58 Vol.No. 1 Dated 9.10.1980, ",Sikkim," , Gangtok ","Arithang, Gangtok, East Sikkim",,Children
8,Arithang Tinziring Amar Jyoti Sewa Samiti,1585,Sikkim, Geyalsing ,"Arithang Tinziring, West Sikim",,NaN
9,Association For Social Health In India Sikkim,460,Sikkim, Gangtok ,"Lower Burtuk,Near Helipad Indira Byepass Road,Gangtok East Sikkim",,"Children,Health & Family Welfare,Women's Development & Empowerment,Youth Affairs"
10,Baptist Church In Sikkim,525,Sikkim, Gangtok ,"P.O. Namcheybong, Pakyong",,"Children,Education & Literacy,Any Other"
1,A B Skills,1994551,Jammu & Kashmir, Srinagar ,"51, Darulaslam, New Colony, Batamaloo",,"Vocational Training,Education & Literacy,Information & Communication Technology,Micro Small & Medium Enterprises,Rural Development & Poverty Alleviation,Civic Issues,Women's Development & Empowerment,Youth Affairs"
2,A P J Memorial Educational Trust,01/86,Jammu & Kashmir, Ganderbal ,"Drugtengoo, Preng Kangan",,"Education & Literacy,Children,Differently Abled,Disaster Management,Environment & Forests,Health & Family Welfare,Human Rights,Legal Awareness & Aid,Sports,Vocational Training,Women's Development & Empowerment,Skill Development"
3,A R Azad Memorial Foundation,5813-S of 2009,Jammu & Kashmir, Pulwama ,Head Office Koil Pulwama Kashmir J ,,"Agriculture,Animal Husbandry, Dairying  &  Fisheries,Art & Culture,Children,Civic Issues,Differently Abled,Disaster Management,Drinking Water,Education & Literacy,Aged/Elderly,Environment & Forests,Health & Family Welfare,Human Rights,Information & Communication Technology,Labour & Employment,Legal Awareness & Aid,Rural Development & Poverty Alleviation,Sports,Tourism,Urban Development & Poverty Alleviation,Water Resources,Women's Development & Empowerment,Youth Affairs"
4,A.K. Builders Sanitations,2279-S,Jammu & Kashmir, Srinagar , Registered Office Court Road Srinagar,,"Agriculture,Animal Husbandry, Dairying  &  Fisheries,Art & Culture,Children,Civic Issues,Differently Abled,Drinking Water,Education & Literacy,Aged/Elderly,Information & Communication Technology,Micro Finance (SHGs),Minority Issues,New & Renewable Energy,Tribal Affairs,Vocational Training,Women's Development & Empowerment"
5,A.N.I Group Ltd,6774-A-III-SGR,Jammu & Kashmir, Srinagar ,"Kursu Raj Baghsrinagar, Kashmir",,"Agriculture,Animal Husbandry, Dairying  &  Fisheries,Art & Culture,Civic Issues,Education & Literacy,Aged/Elderly,Food Processing,Information & Communication Technology,Micro Small & Medium Enterprises,Science & Technology,Vocational Training,Any Other"
6,Aab E Rawan,6957-S,Jammu & Kashmir, Srinagar ,Hawal Srinagar ,,"Art & Culture,Children,Differently Abled,Education & Literacy,Environment & Forests,Health & Family Welfare,Tourism,Youth Affairs,Skill Development"
7,Aabru Womens Welfare Society,5777-S ,Jammu & Kashmir, Srinagar ,"Bemina Hamdania Colony, ",,"Children,Differently Abled,Education & Literacy,Food Processing,HIV/AIDS,Human Rights,Women's Development & Empowerment,Art & Culture,Biotechnology,Disaster Management,Drinking Water,Health & Family Welfare,Minority Issues"
8,Aagaz-E- Hunar,848,Jammu & Kashmir, Tangmarg ,Chandilora Tangmarg Baramulla J,,"Art & Culture,Children,Education & Literacy,Aged/Elderly,Health & Family Welfare,Human Rights,Urban Development & Poverty Alleviation,Women's Development & Empowerment,Skill Development"
9,Aagosh Sultan Ul Arfeen Yateem Trust,337/PD/15,Jammu & Kashmir, Srinagar ,"Muslim Abad, Behind Arise Hyunai Showroom, Bye Pass, Bemina Srinagar, Kashmir",,"Agriculture,Art & Culture,Biotechnology,Education & Literacy,Environment & Forests,Health & Family Welfare,Human Rights,Information & Communication Technology,Right to Information & Advocacy,Scientific & Industrial Research,Women's Development & Empowerment,Skill Development"
10,Aal-E-Yaseen Human Resources Development Society,6382-S,Jammu & Kashmir, Srinagar ,"Dab Ganderbal ,Jammu And Kashmir 191131",191131,"Women's Development & Empowerment,Agriculture,Art & Culture,Children,Civic Issues,Disaster Management,Drinking Water,Education & Literacy,Aged/Elderly,Environment & Forests,Health & Family Welfare,Human Rights,Legal Awareness & Aid,Minority Issues,New & Renewable Energy,Sports,Tourism,Tribal Affairs,Urban Development & Poverty Alleviation,Vocational Training,Water Resources"
1,02 Spa Salon Private Limited,U85100TG2008PTC061011,Telangana, Hyderabad ,"8-2-293/82, Plot No 564/A32/2, Road No 92, Mla Colony, Jubilee Hills",,"Rural Development & Poverty Alleviation,Vocational Training,Women's Development & Empowerment"
2,100 Smiles Charity Foundation,1588,Telangana, Hyderabad ,"Flat No: 503, Sai Residency, Kondapur",,Education & Literacy
3,1St Guardian Association,1605,Telangana, Hyderabad ,"C/O Indian Institute Of Aerospace Technology And Management, No:158",,NaN
4,21 Century Planet Foundation,U85300TG2022NPL163203,Telangana, Hyderabad ,"Flat No. 401, The Legend Apartments, 3-4-136,770 , Barakatpura",,"Environment & Forests,Any Other"
5,2Change Foundation,U80904TG2022NPL159348,Telangana, Hyderabad ,"P No 101 102 103, F No 304, Swetha, Extension , Rk Puram, Null, Hyderabad Telangana ",,"Education & Literacy,Health & Family Welfare,Human Rights,Information & Communication Technology,Legal Awareness & Aid,Sports,Women's Development & Empowerment,Skill Development"
6,2Elms,63/2017,Telangana, Secunderabad ,"H.No.540/9, Plot No. 9, Jonnabanda, Old Alwal,Secunderabad - 500010",500010,NaN
7,7Fruits,39/2020,Telangana, Khammam ,"3-9-147, Mohan Road,",,"Dalit Upliftment,Disaster Management,Drinking Water,Education & Literacy,Vocational Training,Women's Development & Empowerment,Any Other,Skill Development"
8,90Millionsmiles Foundation,BK IV 31/2021,Telangana, Hyderabad ,"6-1-501/P/29, Mig Phase 1,Hayathnagar, Vanastalipuram S.O,K.V.Rangareddy, Telangana,India",,NaN
9,A & B Educational And Welfare Society,395/2008,Telangana, Nizamabad ,"Yaqubpura,Bodhan Road,Nizamabad",,Education & Literacy
10,A G Charitable Trust,4 OF 2022,Telangana, Mothkur ,"Door No:8-107, Mothkur Mandalam,Near Mro Office , Yadadri ,Bhuvanagiri-508277",508277,NaN
1,Project Implementing Commitee Kinnour,2506/82,Himachal Pradesh, Reckong Peo ,Project Implementing Commitee (Pic) Near Pnb Bank Reckong Peo Teh Kalpa Distt Kinnaur Himachal Pradesh Pin : 172107,172107,Women's Development & Empowerment
2,Aadarshni Welfare Society,1178/2018,Himachal Pradesh, Shimla ,"Lamba Cottage, Khalini, Shimla171002 (Hp)",171002,"Education & Literacy,Art & Culture,Children,Environment & Forests,Health & Family Welfare"
3,Aadhunik Education Society,668/94/C/H/RC,Himachal Pradesh, Dharmshala ,Aadhunik Public Schooltapovan Road Sidhpurdharmshala Distt-Kangra(H.P) Pin -176057,176057,Education & Literacy
4,Aakar Theatre Society,HPCD-1588,Himachal Pradesh, Mandi ,"Village- Sehli, Po- Sehli, Tehsil-Kotli, Dist.- Mandi, State- Himachal Pradesh, Pin: 175052",175052,Art & Culture
5,Aasra Foundation,1237/2018,Himachal Pradesh, Kangra ,Aasra Foundation C/O Sh Prakash Chand Village Ambari P.O. Malan Teh. Nagrota Bagwan Distt. Kangra Hp-176047,176047,"Children,Education & Literacy,Human Rights,Women's Development & Empowerment,Youth Affairs,Any Other"
6,Aasthawelfaresociety Nahan,119/96,Himachal Pradesh, Nahan ,Aastha Welfare Society Nahan Near Panchayat Bhawan Pucca Tank,,"Children,Differently Abled,Education & Literacy,Aged/Elderly,Vocational Training"
7,Aavishkaar Yaatraa ,394/2016,Himachal Pradesh, Palampur ,"Village Kamlehar, Mouza Kandbari",,Education & Literacy
8,Abhilashi Shiksha Samiti,48/2001,Himachal Pradesh, Mandi ,"Po Nerchowk,",,NaN
9,Abhinaya Durpan,396/2006,Himachal Pradesh, Shimla ,House No. 145/6Muslim Trust Buildinglower Bazar,,Art & Culture
10,Abhivibha Education And Environmental Development Welfare Society,278/2009,Himachal Pradesh, Shimla ,"Village Palyar,Po And Tehsil Sunni",,"Agriculture,Art & Culture,Children,Civic Issues,Dalit Upliftment,Differently Abled,Disaster Management,Drinking Water,Education & Literacy,Aged/Elderly,Environment & Forests,Health & Family Welfare,HIV/AIDS,Human Rights,Legal Awareness & Aid,New & Renewable Energy,Nutrition,Panchayati Raj,Right to Information & Advocacy,Rural Development & Poverty Alleviation,Sports,Tourism,Tribal Affairs,Urban Development & Poverty Alleviation,Vocational Training,Women's Development & Empowerment,Youth Affairs"
1,17000 Ft Foundation,U93000DL2012NPL2384152012-2013,Haryana, Guragaon ,"Q-139, South City-1, Gurgaon, Haryana, 122001",122001,"Education & Literacy,Tourism,Children,Rural Development & Poverty Alleviation"
2,37 Links Driver Welfare Society,HR019202002101,Haryana, Ballabhgarh ,"Plot No. 80, Sector58, Transport Nagar, Ballabhgarh, Faridabad (Hr)121004",121004,Any Other
3,3R Waste Foundation,U93000HR2016NPL066024,Haryana, Gurgaon ,"128, National Media Centre, Nh-8, Gurugram",,"Drinking Water,Environment & Forests,Micro Finance (SHGs),Urban Development & Poverty Alleviation,Vocational Training"
4,3Rd Bell Foundation,407-2021-2022,Haryana, Faridabad  ,H.No Fca -2760 S.G.M Nagar Faridabad-121001,121001,NaN
5,3Rzw Environment Foundation,AABCZ5990L,Haryana, Gurgaon ,"328 Eros Corporate Parkblock-K, Imt Manesargurugram, Haryana",,"Disaster Management,Education & Literacy,Environment & Forests,Micro Small & Medium Enterprises,New & Renewable Energy,Rural Development & Poverty Alleviation,Urban Development & Poverty Alleviation,Vocational Training,Women's Development & Empowerment"
6,A Better Chance Provider Charitable Trust,2015/11/25/20,Haryana, Bhiwani ,"House No. 355, Ram Nagar Colony, Bhiwani, Haryana",,"Agriculture,Art & Culture,Civic Issues,Drinking Water,Education & Literacy,Food Processing,Right to Information & Advocacy,Water Resources,Any Other,Skill Development"
7,A Foundation Trust,HR/GGN/2021/1815,Haryana, Gurgaon ,"S-235Ff Uppal, Southend, Sector-49",,"Art & Culture,Food Processing,Health & Family Welfare,Children,Education & Literacy,Environment & Forests,Human Rights,Vocational Training,Any Other,Skill Development"
8,A K Yuva Shakti Trust,1662,Haryana, Rohtak ,Village And Post Office Kharawar Tehsil Sampla District Rohtak Haryana,,"Children,Education & Literacy,Labour & Employment,Rural Development & Poverty Alleviation,Sports,Vocational Training,Youth Affairs,Any Other,Art & Culture,Women's Development & Empowerment"
9,A New Friends Club,HR/009/2022/00633,Haryana, Jind ,"Village Nidana, Distt. Jind-126114 (Haryana)",126114,"Agriculture,Education & Literacy,Human Rights,Information & Communication Technology,Legal Awareness & Aid,Right to Information & Advocacy,Rural Development & Poverty Alleviation,Women's Development & Empowerment"
10,A S Education And Welfare Society,00874,Haryana, Bhiwani ,Vpo Tigrana Distt Bhiwani Haryana 127021,127021,"Education & Literacy,Vocational Training"
1,.Swami Shri Manoharranand Manu Seva Sangh,E/1479/SURAT,Gujarat, Surat ,"At. :- Kaveri Sangam , Anaval Crossta. :- Mahuva , Dist.:- Surat",,"Education & Literacy,Aged/Elderly,Health & Family Welfare,Women's Development & Empowerment,Any Other"
2,1995Hope Of Light Association,U85300GJ2022NPL134966,Gujarat, Anand ,7/A Bhailal Residency Nr Sai Baba Mandir Village Karamsad (M) Taluka Anand Dist. Anand Gujarat India 388325,388325,"Children,Education & Literacy,Health & Family Welfare,Human Rights,Women's Development & Empowerment,Youth Affairs,Any Other,Skill Development"
3,1Million Entrepreneurs International Forum,U80903GJ2023NPL138272,Gujarat, Ahmedabad  ,"C-504,Parmeshwar-4,School,Bh Godrej Garden City,Jagatpur Ahmedabad Ahmedabad Gj 382470 India",382470,NaN
4,365 Foundation Rajkot,E â€“ 11222 â€“ RAJKOT,Gujarat, Rajkot ,â€œSohamâ€ Shree Ram Park Main Road Near Varudi Dairy Farm Behind Balaji Hall 150 Feet Ring Road,,NaN
5,451 Varsh Juna Patliya Virvadi Hanuman Charitable Trust,A/590/NAVSARI,Gujarat, Navsari ,"Beside Virvadi Temple,Dharagiri, Kabilpore S.O, Navsari,Gujarat, India396424",396424,NaN
6,84 Kp Pragati Mehsana,A/2741/Mehsana,Gujarat, Mehsana ,"6/7/8, Prabhu Complax , Third Floor, Near Rajkamal Petrol Pump Highway, Mehsana",,NaN
7,9 To 9 Destiny Group Charitable Trust,E/7299,Gujarat, Surat ,"D-110,Mahadev Nagar,Parvat Gam,Surat",,NaN
8,A S Foundation And Charitable Trust,F/5655/BK,Gujarat, Palanpur ,A S Foundation And Charitable Trust65 Shakti Nagar Near Brijashvar Colony Part:1 Palanpur Dist: Banshkantha Pin 385001 Gujarat,385001,Vocational Training
9,A V Vision Foundation,F/19382/AHMEDABAD,Gujarat, Ahmedabad ,"B-211, Rudra Arcade, B/S. Mayflower Hospital, Helmet Circle, Memnagar , Ahmedabad.",,Health & Family Welfare
10,A.V. Jasani T.B Hospital Trust,E-71 Rajkot,Gujarat, Rajkot ,"""Yogidham Gurukul"", Kalawad Road, Rajkot360005",360005,NaN
1,Aastha,1030/Goa/2010,Goa, Mapusa ,"Nr. Urban Health Centre, Ghateshwarnagar, Khorlim, Mapusa.",,"Differently Abled,Education & Literacy,Vocational Training"
2,Abhivyaktee,172/Goa/2001,Goa, Panaji ,Abhivyakteepanajic/O Sandip Deshpandea/3 Kamdhenudr D.V.Roadpanajigoa 403001,403001,Art & Culture
3,Adarsh Krishi Kharedi Vikri Prakriya Sahakari Saunstha Maryadit,5/486/1993/ARS2/MKT,Goa, Cancolim Bali ,Karwar Main Road Bali Cuncoligoa South- ,,"Agriculture,Food Processing,Rural Development & Poverty Alleviation"
4,Adarsh Vidya Prasarak Mandal,12/1964,Goa, Shiroda ,C/O Smt Kamlabai Hede High School.Shiroda-Ponda-Goa,,Education & Literacy
5,Adarsh Yuva Sangh Gaondongri Kotigao,94/Goa/2002,Goa, Goa ,"Gaondongrimkotigao, Canacona,",,NaN
6,Adventz Foundation,488/Goa/2011,Goa, Mormugao ,"Jai Kisaan Bhawan, Zuarinagar",,"Education & Literacy,Agriculture,Rural Development & Poverty Alleviation,Women's Development & Empowerment,Skill Development"
7,Aggressive Goans,54/GOA/2019,Goa, Ponda ,"Kapileshwari, Ponda Goa",,"Agriculture,Art & Culture,Education & Literacy,Environment & Forests,Human Rights,Labour & Employment,Legal Awareness & Aid,New & Renewable Energy,Panchayati Raj,Prisoner's Issues,Right to Information & Advocacy,Rural Development & Poverty Alleviation,Women's Development & Empowerment,Skill Development"
8,Aic-Gim Foundation,U93090GA2018NPL013511,Goa, Sanquelim ,C/O Goa Institute Of Management Poriem Sattari North Goa Ga 403000 In,403000,NaN
9,Akhil Gomantak Maratha Rajak Samaj,41/Goa/89,Goa, Porvorim ,"Sant Gadge Maharaj Sabhagraha, Gadge Baba Chowk, Pundalik Nagar, Alto Porvorim, Bardez Goa",,"Aged/Elderly,Women's Development & Empowerment,Youth Affairs"
10,Akhil Vishwa Jai Shriram Gosanvardhan Kendra Valpoi ,"1 Of Book No.IV, Vol I ",Goa," Vol I , Valpoi ","H,No:-61/1,Betkikarwada,Nanus Valpoitaluka- Sattari, District-North, State-Goa",,"Animal Husbandry, Dairying  &  Fisheries"
1,Aim Education Society ,11/2009,Daman & Diu, Moti Daman ,"Bhitwadi, Daman Wada,Near Moti Daman. 396220. Daman ",396220,"Education & Literacy,Information & Communication Technology"
2,Damini Women'S Foundation,06/2012,Daman & Diu, Daman ,"Hiren Park, Wing Bcross Lane 3, Tinbattidilipnagarnani Daman",,"Art & Culture,Children,Differently Abled,Education & Literacy,Aged/Elderly,Environment & Forests,Food Processing,Health & Family Welfare,Information & Communication Technology,Labour & Employment,Sports,Vocational Training,Women's Development & Empowerment,Youth Affairs"
3,Holy Name Church,HQ-II/C-64/SR/78,Daman & Diu, Moti Daman ,"At Post.Moti Damandist- Ut, Pin- 396220",396220,Education & Literacy
4,"Jan Shikshan Santhan, Diu",04/2021-22,Daman & Diu, Diu ,"Swaminarayan School, Fudam, Diu-362520",362520,"Skill Development,Education & Literacy,Science & Technology,Tourism,Vocational Training,Women's Development & Empowerment,Any Other"
5,Manav Kalyan Youth Welfare Union Trust,Soc/Col/Diu/2004-05/02,Daman & Diu, Vanakbara ,"H.No. 2335, Khajuriya Street, Main Road, Vanakbara - Diu.Pin-362570.",362570,NaN
6,Om Sai Kalyan Samiti Darbhanga,ggggggggggg5,Daman & Diu, Ara ,Yhjfgyghgh,,Any Other
7,Our Lady Of Remedios Church,HQ-II/C-72/SR/78,Daman & Diu, Moti Daman ,"At Post. Moti Damandist- Ut, Pin- 396220",396220,Education & Literacy
8,Our Lady Of The Sea Church,HQ-II/O-8/SR/78,Daman & Diu, Nani Daman ,"At Post.Nani Damandist- Ut, Pin- 396210",396210,Education & Literacy
9,Samast Yuva Mandal,03/2018-19,Daman & Diu, Diu ,"H.No,704, Jalaram Society, Vanakbara",,"Agriculture,Art & Culture,Disaster Management,Education & Literacy,Health & Family Welfare,Panchayati Raj,Sports,Youth Affairs"
10,Sanyukt Yuva Mandal,07/2012-13,Daman & Diu, Diu ,"H.No,704, Jalaram Society, Vanakbara",,"Agriculture,Art & Culture,Disaster Management,Education & Literacy,Health & Family Welfare,Information & Communication Technology,Panchayati Raj,Sports,Youth Affairs,Agriculture,Art & Culture,Disaster Management,Education & Literacy,Health & Family Welfare,Panchayati Raj,Sports,Youth Affairs"
1,Association For India International Mediation And Arbitration Services,U85300DL2020NPL366426,Delhi, South Delhi ,"F-2 Basement, Kailash Colony, Delhi South Delhi Dl 110048",110048,NaN
2,Association For Social Service And Rehabilitation Of The Aged Assra,42540 OF 2002,Delhi, New Delhi ,"Bb-9-G, Dda Flats, Munirka, Third Floor",,"Education & Literacy,Health & Family Welfare,Aged/Elderly,Differently Abled,Environment & Forests,Rural Development & Poverty Alleviation,Tribal Affairs,Vocational Training,Women's Development & Empowerment"
3,Kaivalya Plays Foundation,U85300DL2021NPL377030,Delhi, Delhi ,"A-41, Ifs Apartments, Phase-I Mayur Vihar -I Delhi -110091",110091,"Art & Culture,Any Other"
4,Rakshak For Human Alliance Foundation,276977,Delhi, Delhi ,"House No 8646 Ground Floor Gaushalla Road Landmark Gali Gopal Wali, New Rohtak Road, Karol Bagh New Delhi Central Delhi Dl 110005 In",110005,"Children,Education & Literacy,Aged/Elderly,Vocational Training,Women's Development & Empowerment,Any Other"
5,Shreedhara Human Welfare Foundation,U85300DL2019NPL348962,Delhi, Dwarka ,"Rz F-760/64 Raj Nagar, Palam Colony, New Delhi South West Delhi Dl 110077",110077,"Drinking Water,Education & Literacy,Food Processing,Labour & Employment,Women's Development & Empowerment,Environment & Forests"
6,Social Responsibility Council,U93000DL2015NPL278072,Delhi, New Delhi ,"114F/F,Pratap Bhawan,Bahadurshah Zafar Marg, Near Pyary Lal Bhawan Delhi Central Delhi 110002",110002,"Disaster Management,Drinking Water,Education & Literacy,Environment & Forests,Health & Family Welfare,Human Rights,Information & Communication Technology,Labour & Employment,Minority Issues,Panchayati Raj,Rural Development & Poverty Alleviation,Science & Technology,Tribal Affairs,Urban Development & Poverty Alleviation,Vocational Training,Water Resources,Women's Development & Empowerment,Youth Affairs,Skill Development"
7,Yatharthbodh Foundation,U85300DL2022NPL400259,Delhi, Nand Nagri ,490 1St Floor Janta Flat Gtb Enclave Nand Nagri Delhi East Delhi-110093,110093,"Agriculture,Art & Culture,Children,Education & Literacy,Health & Family Welfare,Labour & Employment,Rural Development & Poverty Alleviation,Women's Development & Empowerment,Skill Development"
8,21Vi Sadi Shiksha Trust,1418,Delhi, Delhi ,"Bh-207, Ground Floor, East Shalimar Bagh, Delhi-110088",110088,"Agriculture,Animal Husbandry, Dairying  &  Fisheries,Art & Culture,Dalit Upliftment,Differently Abled,Disaster Management,Education & Literacy,Environment & Forests,Health & Family Welfare,HIV/AIDS,Human Rights,Information & Communication Technology,Minority Issues,Rural Development & Poverty Alleviation,Women's Development & Empowerment,Youth Affairs,Any Other"
9,24X7 Care Foundation,S/2286/SDM/NW/2015,Delhi, New Delhi ,"H.No-69, 1 St Floor, Block-B, Pocket-5, Sector-4, Rohini, Delhi-110085",110085,"Children,Aged/Elderly,Health & Family Welfare,Women's Development & Empowerment"
10,321 Education Foundation,2415,Delhi, New Delhi ,"55-A, Jor Bagh",,Education & Literacy
1,Aadesh Digital Solutions Private Limited,U72900CH2019PTC042415,Chandigarh, Chandigarh ,"Sco 188-190, Sector 354-A",,NaN
2,Acharyakul Chandigarh,4293 of 2013,Chandigarh, Chandigarh ,"Acharyakul Chandigarhgandhi Smarak Bhawan, Sector16-A, Chandigarh (U.T.) 160015",160015,"Art & Culture,Children,Environment & Forests,Health & Family Welfare,Legal Awareness & Aid,Vocational Training,Women's Development & Empowerment,Youth Affairs"
3,Adarsh Shiksha Samiti Assandh,ROS-435,Chandigarh, Haryana ,"Haryana, Chandigarh",,NaN
4,Ahsas: Association For Health Systems Analysis & Strengthening,4748 of 2018,Chandigarh, Chandigarh ,"Department Of Community Medicine, School Of Public Health, Pgimer, Chandigarh",,"Health & Family Welfare,Any Other"
5,Alankartheatrechd,4225,Chandigarh, Chandigarh ,"H. No -3184 , Housing Board Complex, Ews Society , Sector -52 D , Chandigarh",,"Agriculture,Art & Culture,Children,Education & Literacy,Human Rights,Labour & Employment,Panchayati Raj,Urban Development & Poverty Alleviation,Women's Development & Empowerment"
6,Alliance Francaise Le Corbusier De Chandigarh,1146,Chandigarh, Chandigarh ,"Next To Hibiscus Garden , Sector-36 A Chandigarh",,"Art & Culture,Civic Issues,Education & Literacy"
7,Amrit Cancer Foundation,2374,Chandigarh, Chandigarh ,353 Sector 44-A,,Health & Family Welfare
8,Angel Smayra Care Foundation,124250,Chandigarh, Chandigarh ,"133/1, Khuda Jassu, Chandigarh",,"Education & Literacy,Differently Abled"
9,Appworx It Solutions Private Limited,U72900CH2012PTC033966,Chandigarh, Chandigarh ,"Netsmartz House, Plot Number 10, Rajiv Gandhi Technology Park, Chandigarh-160101",160101,NaN
10,Armaan Foundation Chandigarh,4291,Chandigarh, Chandigarh ,"Office 2682, Sector 40 C, Chandigarh, India",,"Art & Culture,Children,Education & Literacy,Aged/Elderly,Sports,Tourism,Urban Development & Poverty Alleviation,Vocational Training,Women's Development & Empowerment"
1,21St Century Education Society,XXI OF 1860 REGD NO 31903,Chhattisgarh, Janjgir ,Brilliant Public Schoolakaltara Roadjanjgir,,Education & Literacy
2,A K Vikassheel Shikshan Sansthan,27693,Chhattisgarh, Korba ,House No-675 Aaramashin New Kashi Nagar Niharika Korba Chhattisgarh ,,NaN
3,A New Hope & Strength Foundation Society,122202239340,Chhattisgarh, Surajpur ,"Hig-406, Sector-27, Naya Raipur",,"Animal Husbandry, Dairying  &  Fisheries,Art & Culture,Children,Dalit Upliftment,Differently Abled,Drinking Water,Education & Literacy,Aged/Elderly,Environment & Forests,Health & Family Welfare,Information & Communication Technology,Labour & Employment,Micro Small & Medium Enterprises,Minority Issues,New & Renewable Energy,Panchayati Raj,Rural Development & Poverty Alleviation,Scientific & Industrial Research,Sports,Tribal Affairs,Urban Development & Poverty Alleviation,Vocational Training"
4,A New Path Of Life Foundation,122201871554,Chhattisgarh, Raipur ,"250/1 Rampara Ward No. 16, Pamgarh, Mehandi, Janjgir-Champa, State Chhattisgarh, India, Pin- 495556",495556,"Agriculture,Animal Husbandry, Dairying  &  Fisheries,Art & Culture,Biotechnology,Children,Civic Issues,Dalit Upliftment,Disaster Management,Drinking Water,Education & Literacy,Environment & Forests,Food Processing,Health & Family Welfare,HIV/AIDS,Human Rights,Legal Awareness & Aid,Micro Finance (SHGs)"
5,A S B S Foundation,31668,Chhattisgarh, Bhilai ,"Shakuntala Vidhyalay Road, Gayatri Mandir Ward No 13, Ramnagar Bhilai, Dist- Durg",,"Women's Development & Empowerment,Vocational Training"
6,A Society For Education Welfare And Ability,6130,Chhattisgarh, Bhilai ,Lig 149 Old Deendayal Colony Junwani Road Bhilai Bhilaichhatishgarh490020,490020,"Education & Literacy,Health & Family Welfare,Information & Communication Technology,Vocational Training,Any Other"
7,Aabhar Green Energy & Tribal Development Foundation,U85190CT2022NPL012635,Chhattisgarh, Bilaspur ,Clc Plaza Shop No.Fs31 Mangla,,"Agriculture,Art & Culture,Disaster Management,Drinking Water,Education & Literacy,Environment & Forests,Human Rights,Minority Issues,Tribal Affairs,Vocational Training"
8,Aachalmahila Swa Sahayata Samuh,31229,Chhattisgarh, Kawardha ,"Ward No.16, Near Holicrass School, Shankar Ghat, Kawardha, District-Kabirdham (Chhattisgarh)",,"Food Processing,Health & Family Welfare,HIV/AIDS,Human Rights,Urban Development & Poverty Alleviation,Women's Development & Empowerment"
9,Aadarsh Chhabbinath Dubey Shikshan Samiti,461,Chhattisgarh, Surajpur ,"Near Shankar Mandir Ketka Road, Manpur Dist.-Surajpur",,Agriculture
10,Aadarsh Foundation,IN-DL53953647265344S,Chhattisgarh, Jashpur ,"Head Office : Palace Road, Banki Toli Jashpur Nagar, District-Jashpur",,NaN
1,Balwatika Society Helers Of Mary,6/94,Dadra & Nagar Haveli, Dadra And Nagar Haveli ,Balwatika Society Of Helpers Of Mary,,"Children,Education & Literacy,Women's Development & Empowerment"
2,Bharatiya Adim Jati Sevak Sangh,S-404,Dadra & Nagar Haveli, Silvassa ,"Bharatiya Adim Jati Sevak Sangh, Branch Khanvel, Dadra Nagar Haveli, (Ut)",,"Tribal Affairs,Vocational Training,Women's Development & Empowerment,Youth Affairs,Skill Development"
3,Bjj Memorial Educational Charitable Truct,2249/09,Dadra & Nagar Haveli, Silvassa ,"491/1/P, Bhoyapada, Nr. Alok City, Sayli",,Any Other
4,Church Of Sacred Heart Of Jesus,HQ-II/C-64/SR/77,Dadra & Nagar Haveli, Dapada ,"At Post. Dapada, Town-Silvassadist:Utpin. 396230",396230,Education & Literacy
5,Deshaj Pratisthan,20/DP/2013,Dadra & Nagar Haveli, Silvassa ,"House No. 306, Parzai, Gp-Kherdi, Ut Of Dadraand Nagar Haveli Daman And Diu",,"Art & Culture,Children,Civic Issues,Education & Literacy,Health & Family Welfare,Land Resources,Rural Development & Poverty Alleviation,Tribal Affairs,Women's Development & Empowerment,Youth Affairs"
6,Gyanmata Eudcational Society,2/82,Dadra & Nagar Haveli, Silvassa ,"Premal Deep, Zanda Chowk",,"Children,Education & Literacy"
7,Human Rights Mission,15/HRM/2017,Dadra & Nagar Haveli, Silvassa ,"Plot No. 126, Kilvani Naka,Near Jalaram Temple,Silvassa",,Human Rights
8,Humanists India Foundation,U85300DN2022NPL005726,Dadra & Nagar Haveli, Silvassa ,"A407, Tirupati Residency, Nr. Balaji Mandir, Amli Char Rasta Silvassa Dadra ",,"Labour & Employment,Agriculture,Civic Issues,Education & Literacy,Environment & Forests,Food Processing,Human Rights,Legal Awareness & Aid,Nutrition,Urban Development & Poverty Alleviation,Women's Development & Empowerment,Youth Affairs,Skill Development"
9,Indian Red Cross Society,constituted under Act XV,Dadra & Nagar Haveli, Silvassa ,"Indian Red Cross Society,Dadra ",,"Aged/Elderly,Children,Differently Abled,Education & Literacy,Health & Family Welfare"
10,Jan Shikshan Sansthan Dnhs,13/JSSDandNHS/2009,Dadra & Nagar Haveli, Silvassa ,"Jan Shikshan Sansthanramsadan, Beside Central Library,Opposite Town Hall, Vapi Road,Silvassa - 369 230 Ut Of Dadra And Nagar Haveliu.T. Of Dadra ",,"Education & Literacy,Vocational Training,Women's Development & Empowerment"
1,Bright Future For Peoples And Rural Area Development Of Assam,RS/MRG/245/G/02,Assam, Morigaon ,"Old Ubi Bank Building, 2Nd Floor, Bhuragaon Natun Bazar, P.O. Bhuragaon, P.S. Bhuragaon, Marigaon, 782121",782121,"Agriculture,Animal Husbandry, Dairying  &  Fisheries,Art & Culture,Biotechnology,Children,Civic Issues,Dalit Upliftment,Differently Abled,Disaster Management,Drinking Water,Education & Literacy,Aged/Elderly,Environment & Forests,Food Processing,Health & Family Welfare,HIV/AIDS,Housing,Human Rights,Information & Communication Technology,Labour & Employment,Land Resources,Legal Awareness & Aid,Micro Finance (SHGs),Micro Small & Medium Enterprises,Minority Issues,New & Renewable Energy,Nutrition,Panchayati Raj,Prisoner's Issues,Right to Information & Advocacy,Rural Development & Poverty Alleviation,Science & Technology,Scientific & Industrial Research,Sports,Tourism,Tribal Affairs,Urban Development & Poverty Alleviation,Vocational Training,Water Resources,Women's Development & Empowerment,Youth Affairs,Any Other,Skill Development"
2,A Chik Baptist Convention,29,Assam, Bongaigaon ,"Bagpara, P.O Khagarpur, Dist: Bongaigaon",,"Any Other,Agriculture,Children,Education & Literacy,Health & Family Welfare,Women's Development & Empowerment,Youth Affairs"
3,A Ray Of Hope Society,NCH/259//B/13,Assam, Haflong ,"C/O:Madhu Sudhan Sarkar,Haflong Bazarpo/Ps:Haflong",,Youth Affairs
4,A Social For Human Resource Organisation And Improvements,RS/NAL/246/G/13 OF 2010-2011,Assam, Nalbari ,"Rup Nagar, Nalbari Gaon, Po- Gopalbazar,",,Civic Issues
5,Aadhaar Shiksha Trust,9214,Assam, Guwahati ,"C/O Mini Boro, House No 21, Ulubari, Kachari Basti, Guwahati 781007",781007,Education & Literacy
6,Aaditri Foundation,RS/KAM(M)/263/T/345,"M)/263/T/345, Guwahati (Assam", Guwahati ,"H.No-01, August Kanti Path, Beltola, P.O. Khanapara, P.S. Dispur, Guwahati, District- Kamrup Metro, Assam, ",,NaN
7,Aadya Srishti Kala Mandir Cultural Society,RS/TSK/244/F/13 of 2018-2019,Assam, Tinsukia ,"S. Dahutia Road ,Borpathar , Tinsukia , Tinsukia",,"Art & Culture,Children,Education & Literacy,Environment & Forests,Rural Development & Poverty Alleviation,Women's Development & Empowerment,Youth Affairs,Health & Family Welfare,Legal Awareness & Aid"
8,Aagan,RS/KJR/253/T/23 OF 2019 - 2020,Assam, Kokrajhar ,"Hathimata Road, Ward No: 8, Opposite Surat Press, Kokrajhar, Assam.",,"Agriculture,Education & Literacy,Environment & Forests,Health & Family Welfare,Rural Development & Poverty Alleviation"
9,Aagan Charitable Trust,1497/IV/75,Assam, Kokrajha ,Santinagarpo- Dotmadist-Kokrajharassam,,NaN
10,Aaina,KAM(M)263/C/672-2012-13,"M)263/C/672-2012-13, Guwahati (Assam", Guwahati ,"H.No.26, Pragati Path, Chandan Nagar, Ghoramara, P.O.Beltola,Guwahati-28",,Women's Development & Empowerment
1,Maitreya Project,956,Bihar, Gaya ,"Bodhgaya, Gaya-Biharpin-824231",824231,NaN
2,Raja Bhaiya Foundation,U80901BR2022NPL056293,Bihar, Vaishali ,"Vil-Afajalpur, P.O-Chakmaruf, Panc- Misraulia Afajalpur, Vaishali",,"Aged/Elderly,Rural Development & Poverty Alleviation,Skill Development,Education & Literacy"
3,Siksha Aarogyam Foundation,U85300BR2022NPL057204,Bihar, Gardanibagh ,C/O Sri Virendra Mohan Pd New Yarpur Behind Jhun Mahal Gardanibagh Patna Patna Br 800001 In,800001,NaN
4,21St Century Rural Development Institute.,78/1989-90,Bihar, Jhanjharpur ,"Village And Postsukhet, Viajhanjarpur, Districtmadhubani, Bihar847404",847404,NaN
5,24X7Ministry,4109/2010,Bihar, Patna ,"Aprajita Building, First Floor, Opp. A.N. College, Near Axis Bankboring Road",,Children
6,360 Research Foundation,7834/2017,Bihar, Narkatiaganj ,"Tumakadiya, Post Office:- Rajpur (Madan), Pin Code- 845455, Police Station:- Shikarpur, District:- West Champaran, Bihar, India",845455,"Science & Technology,Agriculture,Biotechnology,Children,Disaster Management,Drinking Water,Education & Literacy,Environment & Forests,Micro Small & Medium Enterprises,New & Renewable Energy,Rural Development & Poverty Alleviation,Scientific & Industrial Research,Any Other"
7, 3H Foundation,058489,Bihar, Muzaffarpur  ,"C/O Rukhsana Khatoon,Vill-Muzaffarpur Tola Ward No33,Block-Musahri Muzaffarpur Muzaffarpur Br 842002 In",842002,"Dalit Upliftment,Education & Literacy,Health & Family Welfare,Art & Culture,Women's Development & Empowerment,Children,Differently Abled,Disaster Management,Aged/Elderly,Environment & Forests,Human Rights,Labour & Employment,Legal Awareness & Aid,Rural Development & Poverty Alleviation,Science & Technology,Vocational Training,Skill Development"
8,A Brilliant Charitable And Development Trust,DEED NO.- 18,Bihar, Jehanabad ,"Purni Bijli Colony, P.O. P.S.Jehanabad",,"Art & Culture,Education & Literacy,Aged/Elderly,HIV/AIDS,Skill Development"
9,A Center For Cultural Educational & Social Sufferers(Access),491/91-92,Bihar, Patna ,"R.O.: C/O Yatindra Mohan Shandilya,Jagat Narayan Lal Road, Kadamkuan; H.O.: C/O Sanjeev Medicals, Opp. Sbi, Ashok Rajpath, Mahendru,Patna- 6;Branches:(A) Ankita Arvind, H202, Smondo-3, Neotown, Electronic City, Phase-1, Bangalore-560100(B) Dr. M K Mishra, Ward No. 2, Nawa Toli, Sana Road, Jaspur Nagar, Chhattisgarh-496331(C) Yogita Yamini,5/201,Shalimar Sterling,Raisen Road,Bhopal-462022",560100,"Agriculture,Vocational Training,Women's Development & Empowerment,Art & Culture,Biotechnology,Differently Abled,Dalit Upliftment,Education & Literacy,Aged/Elderly,Health & Family Welfare,Legal Awareness & Aid,Nutrition,Rural Development & Poverty Alleviation,Human Rights,Prisoner's Issues,Urban Development & Poverty Alleviation,Any Other"
10,A Future Of Children In Bodhgaya Society ,51/2004,Bihar, Gaya ,Vill Durgapur Monia ,,Education & Literacy
1,(Ankita) Association For Needy And Kindle The Illiterate Through Action,16/1994,Andhra Pradesh, Machilipatnam ,"Flat No-101, Plot Nos-919, 921, Sri Saidatta Residency, Defence Colony, Sinnikpuri Post, Secunderabad-500 094, Telangana State, India.",,"Rural Development & Poverty Alleviation,Agriculture,Education & Literacy,Environment & Forests,HIV/AIDS,Tribal Affairs,Water Resources,Women's Development & Empowerment"
2,22Nd Batch Of Jnvp,5/2019,Andhra Pradesh, Tadepalligudem ,"4-431, Ramannagudem Road, Pedatadepalli, Tadepalligudem, West Godavari District, Andhra Pradesh, 534101",534101,NaN
3,3F Swabhimaan Foundation,38/2015,Andhra Pradesh, Racherla ,3F Swabhimaan Foundationracherla Villagepentapadu (Mandal)West Godavari Dist.Andhrapradesh-534166Mobil:9951824777,534166,"Children,Aged/Elderly,Vocational Training"
4,3T Foundation,BK4/5/2022,Andhra Pradesh, Rajanagaram ,111-3-181 Ramalayam Street Narendrapuram Rajanagaram Eastgodavari-533294,533294,"Children,Education & Literacy,Women's Development & Empowerment,Environment & Forests,Water Resources,Panchayati Raj,Rural Development & Poverty Alleviation"
5,A & A Educational And It Solutions,106 OF 2013 ,Andhra Pradesh, Vizianagaram ,"Plot No. 170, Venkateswara Colony,Padmavati Nagar,Vizianagaram",,"Food Processing,Science & Technology,Vocational Training,Any Other"
6,A G R A,987/1995,Andhra Pradesh, Anantapur ,13-2-264Ramachandra Nagaranantapur - 515 001Andhra Pradesh,,"Agriculture,Art & Culture,Biotechnology,Children,Drinking Water,Education & Literacy,Aged/Elderly,Environment & Forests,Food Processing,Health & Family Welfare,HIV/AIDS,Human Rights,Legal Awareness & Aid,Micro Small & Medium Enterprises,Panchayati Raj,Rural Development & Poverty Alleviation,Science & Technology,Tribal Affairs,Women's Development & Empowerment"
7,A N R Helping Hands Welfare Association,627 OF 2019,Andhra Pradesh, Visakhapatnam ,"14-19-8, Bhanoji Thota Bc Road New Gajuwaka",,NaN
8,A S N Raju Society For Social Welfare And Rural Development,245 OF 2018,Andhra Pradesh, Bhimavaram ,"Asn Raju Society For Social Welfare And Rural Development, D.No: 2-1-50, Flat No: 502, Svr Towers, Juvvalapalem Road, Bhimavaram, West Godavari District, Andhra Pradesh, India",,"Agriculture,Animal Husbandry, Dairying  &  Fisheries,Biotechnology,Children,Dalit Upliftment,Differently Abled,Drinking Water,Education & Literacy,Aged/Elderly,Environment & Forests,Food Processing,Health & Family Welfare,HIV/AIDS,Housing,Labour & Employment,Legal Awareness & Aid,Micro Finance (SHGs),Micro Small & Medium Enterprises,New & Renewable Energy,Nutrition,Rural Development & Poverty Alleviation,Science & Technology,Scientific & Industrial Research,Sports,Tourism,Urban Development & Poverty Alleviation,Vocational Training,Water Resources,Women's Development & Empowerment,Youth Affairs"
9,A South India Rural Womens Association For Development,10 OF 1996,Andhra Pradesh, Kandukur ,Brundavanam Kandukur,,Women's Development & Empowerment
10,Aadarana,B.K.IV.185/2022,Andhra Pradesh, Tirupati ,"Flat No.104, First Floor, Garuda Gate Way Apartment, Upparapalli Check Post, Tirupati Rural, Tirupati District, Andhra Pradesh, India, Pin:517502",517502,"Children,Education & Literacy,Health & Family Welfare,Human Rights,Rural Development & Poverty Alleviation,Vocational Training,Women's Development & Empowerment,Skill Development"
1,Aalo Yijo Women Welfare Society,NO.SR/ITA/5390,Arunachal Pradesh, Aalo ,"Aalo Yijo Colony, Aalo West Siang Dist. Arunachal Pradesh",,NaN
2,Aane Siang Society,SR/ITA/4660,Arunachal Pradesh, Jomlo Mobuk ,"Jomlo Mobuk, District: Siang, Arunachal Pradesh-791003",791003,"Art & Culture,Education & Literacy,Aged/Elderly,Health & Family Welfare,Vocational Training,Women's Development & Empowerment"
3,Aarro Welfare Society,SR/ITA/1389,Arunachal Pradesh, Yingkiong ,Yahung Tekseng Simar Colony Yingkiong Po/Ps Yingkiong -791002District Upper Siang Arunachal Pradesh,791002,"Art & Culture,Environment & Forests,Health & Family Welfare,HIV/AIDS"
4,Abo Tani Orphan Hopes For Life Foundation,SR/ITA/7377,Arunachal Pradesh, Papum Pare ,"Doimukh,Papum Pare Pin-791112Arunachal Pradesh",791112,NaN
5,Abo Tani Philanthropic Mission,SR/ITA/2971,Arunachal Pradesh, Aalo ,Near St Xaviers International School. Old Agri Farm. Bogdo. Po.Ps Aalo,,"Agriculture,Animal Husbandry, Dairying  &  Fisheries,Art & Culture,Children,Disaster Management,Education & Literacy,Environment & Forests,Science & Technology,Vocational Training,Women's Development & Empowerment"
6,Abo-Tani Educational & Cultural Society,SR/ITA/277,Arunachal Pradesh, Daporijo ,"Daporijo, Upper Subansiri District, Arunachal Pradesh",,"Agriculture,Children,Disaster Management,Drinking Water,Health & Family Welfare,Information & Communication Technology,Legal Awareness & Aid,Micro Finance (SHGs),Micro Small & Medium Enterprises,Right to Information & Advocacy,Rural Development & Poverty Alleviation,Science & Technology,Tourism,Tribal Affairs,Urban Development & Poverty Alleviation,Vocational Training,Water Resources,Women's Development & Empowerment,Youth Affairs,Any Other"
7,Abotani Ashram Welfare Association,084-SR/ITA/162,Arunachal Pradesh, Naharlagun ,"Gextn., Dam Site, Near St Thomas School P.O.- Naharlagun, Distt. - Papumpare-791110Arunachal Pradesh.",791110,"Art & Culture,Civic Issues,Youth Affairs,Education & Literacy,Vocational Training"
8,Abralow Memorial Multipurpose Society,SR-ITA-2247,Arunachal Pradesh, Roing ,"Abralow Memorial Multipurpose Society Head Office : Hunli, Correspondence / Branch Office : Ezengo, Roing ,District : Lower Dibang Valley ,Arunachal Pradesh, Pin-792110",792110,"Animal Husbandry, Dairying  &  Fisheries,Aged/Elderly,Agriculture,Art & Culture,Biotechnology,Children,Civic Issues,Differently Abled,Disaster Management,Dalit Upliftment,Drinking Water,Education & Literacy,Environment & Forests,Food Processing,Health & Family Welfare,HIV/AIDS,Housing,Human Rights,Information & Communication Technology,Legal Awareness & Aid,Labour & Employment,Land Resources,Micro Finance (SHGs),Minority Issues,Micro Small & Medium Enterprises"
9,Abu Talang Memorial Society,SR/ITA/3172,Arunachal Pradesh, Itanagar ,"H.Q P Sector, Near Qtr N. 58 (Type Iii)Po Itanagardist Papum Parestate Arunachal Pradeshpin No 791111",791111,"Agriculture,Animal Husbandry, Dairying  &  Fisheries,Art & Culture,Biotechnology,Children,Civic Issues,Disaster Management,Drinking Water,Education & Literacy,Health & Family Welfare,Human Rights,Information & Communication Technology,Micro Finance (SHGs),Right to Information & Advocacy,Vocational Training,Water Resources,Women's Development & Empowerment,Youth Affairs,Any Other"
10,Achukuru Welfare Society,SR/ITA/888,Arunachal Pradesh, Ziro ,"Ziro, P.O. Ziro",,"Children,Differently Abled,Aged/Elderly,Rural Development & Poverty Alleviation,Tourism,Vocational Training,Women's Development & Empowerment,Any Other"
SrNo,Name,,,,Address,,SectorWorking
1,A & N Kayaking & Caneoing Association,1544,Andaman & Nicobar Islands, Port Blair ,C/O State Olympic Associationnetaji Stadiumport Blair,,Sports
2,A S Music And Dance A Cultural Organization,1534,Andaman & Nicobar Islands, Port Blair ,"As Music And Dance A Cultural Organization,8,Air Lane Delanipur Port Blair,South Andaman.744102",744102,NaN
3,Abhishweta Foundation,20211011RS00016,Andaman & Nicobar Islands, Port Blair ,"Room No.604(1)-Mb550, Near Urban Health Centre, Dairy Farm, Port Blair City, Andaman And Nicobar Islands 744103.",744103,"Science & Technology,Art & Culture,Biotechnology,Education & Literacy,Health & Family Welfare,Scientific & Industrial Research,Skill Development,Information & Communication Technology,Water Resources"
4,Adityanatyaacademy,888,Andaman & Nicobar Islands, Port Blair ,"31 M.G. Road,Opp. Sun Sea Resort,Middle Point.",,"Art & Culture,Children,Education & Literacy,Skill Development"
5,Anandodhara,1355,Andaman & Nicobar Islands, Port Blair ,C/O Baakprotima (Sbi Building)Junglighatport Blair-744103South Andamanpin-744103,744103,Art & Culture
6,Andaman & Nicobar Kho-Kho Association,1211,Andaman & Nicobar Islands, Port Blair ,State Olympic Associationnetaji Stadium,,Sports
7,Andaman & Nicobar Taekwondo Association,995,Andaman & Nicobar Islands, Port Blair ,Andaman Nicobar State Olympic Associationnetaji Stadium,,Sports
8,Andaman And Nicobar Chemist And Druggist Association,20221011RS00032,Andaman & Nicobar Islands, Port Blair ,"No. 2, Babu Line, Aberdeen Bazar,Port Blair,South Andaman,Andaman ",,"Art & Culture,Differently Abled,Disaster Management,Education & Literacy,Environment & Forests,Health & Family Welfare,HIV/AIDS,Micro Small & Medium Enterprises,Nutrition,Science & Technology,Sports,Vocational Training,Any Other,Skill Development"
9,Andaman And Nicobar Chess Association,689,Andaman & Nicobar Islands, Port Blair ,"Andaman Nicobar Chess Association11 Km Road, Prem Nagar Near Electricity Site Office, Port Blair 744102,South Andamanandaman And Nicobar Islands",744102,Sports
10,Andaman And Nicobar Football Association,27,Andaman & Nicobar Islands, Kadamtala ,C/O Sapna Balapresidentex-Zilla Parishad Member,,Sports
1,A I  I T V T Trust,178/2021,Uttarakhand, Roorkee ,"Village Akbarpur Dhadhkee, Post Manglour Town Roorkee",,"Agriculture,Animal Husbandry, Dairying  &  Fisheries,Art & Culture,Biotechnology,Children,Civic Issues,Dalit Upliftment,Differently Abled,Disaster Management,Drinking Water,Education & Literacy,Aged/Elderly,Environment & Forests,Food Processing,Health & Family Welfare,HIV/AIDS,Housing,Human Rights,Information & Communication Technology,Labour & Employment,Land Resources,Legal Awareness & Aid,Micro Finance (SHGs),Micro Small & Medium Enterprises,Minority Issues,New & Renewable Energy,Nutrition,Panchayati Raj,Right to Information & Advocacy,Rural Development & Poverty Alleviation,Science & Technology,Scientific & Industrial Research,Tourism,Tribal Affairs,Urban Development & Poverty Alleviation,Vocational Training,Water Resources,Women's Development & Empowerment,Youth Affairs"
2,A Pro Edu And Welfare Society,230/2016-2017,Uttarakhand, Dehradun ,"Vijay Vihar, Post Office Road, Clementown",,"Education & Literacy,Environment & Forests,Rural Development & Poverty Alleviation,Women's Development & Empowerment"
3,Aa Foundation,No. 216 of 2018 listed in Book,Uttarakhand, Dehradun ,"C-104, Race Course",,"Children,Education & Literacy"
4,Aachal Parvtiy Sastha,UK06608112020005218,Uttarakhand, Kaladhungi ,Ward N0 06 Mangolla Dharakaladhungi Nainital,,"Drinking Water,Women's Development & Empowerment"
5,Aadarsh Baby Vidhyalya Samiti,148/1995-1996,Uttarakhand, Jaspur ,"Mo.-Bhoop Singhnear Shakko Wali Masjidjaspur, Udham Singh Nagar (Uttarakhand)244712",244712,Education & Literacy
6,Aadhaar Samajik Vikas Samiti,78/2014-15,Uttarakhand, Dehradun ,"75 A Friends Plaza, Rajpur Road, 2Nd Floor Dehradun",,"Children,Civic Issues,Differently Abled,Disaster Management,Drinking Water,Education & Literacy,Aged/Elderly,Environment & Forests,Health & Family Welfare,HIV/AIDS,Human Rights,Legal Awareness & Aid,Micro Finance (SHGs),Right to Information & Advocacy,Rural Development & Poverty Alleviation,Urban Development & Poverty Alleviation,Water Resources,Women's Development & Empowerment,Labour & Employment,Minority Issues,Prisoner's Issues,Information & Communication Technology,Agriculture,Art & Culture,Dalit Upliftment,Micro Small & Medium Enterprises,New & Renewable Energy,Tribal Affairs"
7,Aadhar Sanstha,390/2003,Uttarakhand, Dehradun ,"Line Jeevangarh, Resham Farm, Vikasnagar,Dehradun, 248198",248198,"Agriculture,Health & Family Welfare,Labour & Employment,Micro Finance (SHGs),Rural Development & Poverty Alleviation"
8,Aadhunik Shiksha Samiti,087/2016-2017,Uttarakhand, Jaspur ,"Aadhunik Shiksha Samiti Mohalla Gujratiyan, Post Jaspur, ",,NaN
9,Aadi Aatma Mission,233/2001-2002,Uttarakhand, Haridwar ,"Aadi Atma Mission, Satsang Bhawan, Guru Gaddi V Po, Daulatpur, Haridwar",,Any Other
10,Aadidev Mahadev Sewa Trust Haridwar,AAJTA0576GE20214,Uttarakhand, Bahadrabad ,"House No-386, Plot No-14, Radhika Puram Colony, Dadupur Govindpur, Tehsil And Haridwar.",,NaN
1,Aarigaon Sanskrit Pathsala Managing Committee,1560/LD/2006,Sikkim, Gyalshing ,"Yangthang Block, Aarigaon, Po Langang, Gyalshing, West Sikkim- 737111",737111,NaN
2,Aho Yangtam Sanskrit Patshala,05/sp/sikkim,Sikkim, Gangtok ,Aho Yangtam Sanskrit Pathsala P.O Ranipool East Sikkim Gangtok 737135,737135,NaN
3,Ajambari Seva Sangh,1443,Sikkim, Gyalshing ,General Secretaryajambari Seva Sanghsakyoungwest Sikkim737111,737111,"Art & Culture,Education & Literacy,Environment & Forests,Children,Disaster Management,Sports,Tribal Affairs,Vocational Training"
4,Akhil Sikkim Asahaya Kalyan Samiti,717,Sikkim, Rongli ,"Villdalapchan, Porongli, Psrongli",,NaN
5,All Sikkim Muslim Women'S Welfare Association,2069,Sikkim, Gangtok ,Raushan Manzil Building Near Helipad Lower Burtuk Gangtok East Sikkim,,NaN
6,Arithang Neel Gagan Development Society,"1173, Vol - I",Sikkim," Vol - I, Gyalshing  ","Martam, Gyalshing, West Sikkim",,Legal Awareness & Aid
7,Arithang Social Welfare Association,"58 Vol.No. 1 Dated 9.10.1980, ",Sikkim," , Gangtok ","Arithang, Gangtok, East Sikkim",,Children
8,Arithang Tinziring Amar Jyoti Sewa Samiti,1585,Sikkim, Geyalsing ,"Arithang Tinziring, West Sikim",,NaN
9,Association For Social Health In India Sikkim,460,Sikkim, Gangtok ,"Lower Burtuk,Near Helipad Indira Byepass Road,Gangtok East Sikkim",,"Children,Health & Family Welfare,Women's Development & Empowerment,Youth Affairs"
10,Baptist Church In Sikkim,525,Sikkim, Gangtok ,"P.O. Namcheybong, Pakyong",,"Children,Education & Literacy,Any Other"
1,1008 Sant Baba Hari Singh Nekiwale Charitable Society,564,Punjab, Hoshiarpur ,Villae Panjaurdistt Hoshiarpur-Punjab144404,144404,Any Other
2,2Qadam Foundation,399/2022,Punjab, Bhatiwal Kalan ,"Village-518, Mander Patti, Bhatiwal Kalan, Sangrur, Punjab- 148026.",148026,"Agriculture,Art & Culture,Children,Drinking Water,Education & Literacy,Aged/Elderly,Environment & Forests,Food Processing,Health & Family Welfare,Science & Technology,Sports,Women's Development & Empowerment,Skill Development"
3,A S High School Trust And Management Society,32,Punjab, Khanna ,A S Sr Sec School Khanna,,"Children,Education & Literacy"
4,Aaas Foundation,DIC/BTL51 2019-2020,Punjab, Pathankot ,"Vill Lahri Bawian, Post Office Sarnatehsil And District Pathankot Punjab 145025",145025,"Agriculture,Art & Culture,Education & Literacy,Environment & Forests,Health & Family Welfare,Rural Development & Poverty Alleviation,Sports,Vocational Training,Women's Development & Empowerment"
5,Aadiwasi Guru Gyan Nath Pooran Sanghrash Dal Foundation,U85300PB2020NPL052024,Punjab, Amritsar ,"C/O Gian Ashram,Jagat Guru Valmikimandir, Gyan Ashram Bhagwan Valmiki Tirath, Amritsar, Amritsar, Punjab, India, 143001",143001,"Dalit Upliftment,Aged/Elderly,Human Rights,Labour & Employment"
6,Aagaz(Society For The People By The People),253,Punjab, Amritsar ,"109, Amarkot, Opp Khalsa College For Women, Amritsar, Punjab",,"Dalit Upliftment,Education & Literacy,Health & Family Welfare,Information & Communication Technology,Legal Awareness & Aid,Minority Issues,Rural Development & Poverty Alleviation,Sports,Vocational Training,Women's Development & Empowerment,Youth Affairs"
7,Aapi Charitable Foundation,607,Punjab, Jalandhar ,"Mohalla Kalhan Kartarpur,Jalandhar-144801",144801,"Health & Family Welfare,Education & Literacy"
8,Aas Ehssas Welfare Society (Regd.),AAKAA4567FE20221,Punjab, Ludhiana ,Kitchlu Nagar,,Any Other
9,Aas Welfare Society,20,Punjab, Mohali ,"184, Phase-9, Tehsil Mohali, Distt. S.A.S. Nagar, Punjab",,"Children,Education & Literacy,Health & Family Welfare,Rural Development & Poverty Alleviation,Vocational Training,Women's Development & Empowerment,Youth Affairs,Any Other"
10,Aasra Foundations,245,Punjab, Muktsar ,"Aasra Foundations,Jalalabad Road,Muktsar",,Education & Literacy
1, Rural Development And Prosperity Initiative Society,FAI/14273/2021-2022,Uttar Pradesh, Ayodhya ,"Vill Post Gokula, Tehsil Milkipur, District Ayodhya Up",,"Art & Culture,Children,Civic Issues,Education & Literacy,Environment & Forests,Information & Communication Technology,Right to Information & Advocacy,Rural Development & Poverty Alleviation,Science & Technology,Scientific & Industrial Research,Sports,Urban Development & Poverty Alleviation,Water Resources,Women's Development & Empowerment,Youth Affairs,Any Other,Skill Development"
2, Shaikshik Samraddhi Sanstha,2631,Uttar Pradesh, Agra ,6 Roshan Vihardevri Road,,Education & Literacy
3,Jnjagruk Welfare Foundation,161995,Uttar Pradesh, Atrauli ,C/O Pavitra Devi (Owner Of The Premises) Moh Kherapatan,,"Children,Sports,Skill Development"
4,Vishwagyan Vatika Gurukul Foundation,U80904UP2022NPL168112,Uttar Pradesh, Varansi ,"B1/128-4,Dumrav Bagh Colony Assi ,Varanasi Varanasi Varanasi Up 221005 In",221005,"Education & Literacy,Agriculture,Animal Husbandry, Dairying  &  Fisheries,Art & Culture,Biotechnology,Children,Civic Issues,Dalit Upliftment,Differently Abled,Disaster Management,Drinking Water,Aged/Elderly,Environment & Forests,Food Processing,Health & Family Welfare,HIV/AIDS,Housing,Human Rights,Information & Communication Technology,Labour & Employment,Land Resources,Legal Awareness & Aid,Micro Finance (SHGs),Micro Small & Medium Enterprises,Minority Issues,New & Renewable Energy,Nutrition,Panchayati Raj,Prisoner's Issues,Right to Information & Advocacy,Rural Development & Poverty Alleviation,Science & Technology,Scientific & Industrial Research,Sports,Tourism,Tribal Affairs,Urban Development & Poverty Alleviation,Vocational Training,Water Resources,Women's Development & Empowerment,Youth Affairs,Any Other,Skill Development"
5,(Sutra )Social Upliftment Through Research & Action ,2547-2004-2005,Uttar Pradesh, Lucknow ,"Harihar Pur House,1-A,Hari Nagar Kasaila,Narayan Nagar,Ravindra Palli,Faizabad Road,Lucknow",,"Agriculture,Art & Culture,Education & Literacy,Micro Finance (SHGs),Micro Small & Medium Enterprises,Skill Development"
6,2Nd Innings,4/36/21,Uttar Pradesh, Ghazipur ,"Lahurapur,Bhojapurmaradahghazipurup233226",233226,"Animal Husbandry, Dairying  &  Fisheries,Children,Aged/Elderly,Environment & Forests,Women's Development & Empowerment,Dalit Upliftment,Disaster Management,Human Rights,Labour & Employment,Legal Awareness & Aid,Panchayati Raj,Sports,Youth Affairs,Skill Development"
7,3D Sewa Sansthan,2059-2014-2015,Uttar Pradesh, Bilgram ,Bilgram Hardoi,,NaN
8,4Caretruly Blessed Foundation ,U85300UP2022NPL163376,Uttar Pradesh, Kanpur ,"A No.40, H N. 25A Safipur Iind Herjinder Nagar Chakeri Kanpur Kanpur Kanpur Up 208007 India..",208007,"Agriculture,Animal Husbandry, Dairying  &  Fisheries,Art & Culture,Children,Education & Literacy,Food Processing,Health & Family Welfare,Rural Development & Poverty Alleviation,Science & Technology,Sports,Vocational Training,Women's Development & Empowerment,Youth Affairs,Any Other,Urban Development & Poverty Alleviation"
9,4Future Shine Foundation,U85300UP2022NPL167124,Uttar Pradesh, Agra ,E-202 Aparna Prem Second Floor Shastripuram Agra Uttar Pradesh India 282007,282007,"Children,Education & Literacy,Health & Family Welfare,Human Rights,Women's Development & Empowerment,Youth Affairs,Any Other,Skill Development"
10,4Teammavi Mohit Welfare Association,U85300UP2022NPL167451,Uttar Pradesh, Ghaziabad ,Teela Shahbazpur Loni Ghaziabad Uttar Pradesh India 201102,201102,"Children,Education & Literacy,Health & Family Welfare,Human Rights,Women's Development & Empowerment,Youth Affairs,Any Other,Skill Development"
1,02 Spa Salon Private Limited,U85100TG2008PTC061011,Telangana, Hyderabad ,"8-2-293/82, Plot No 564/A32/2, Road No 92, Mla Colony, Jubilee Hills",,"Rural Development & Poverty Alleviation,Vocational Training,Women's Development & Empowerment"
2,100 Smiles Charity Foundation,1588,Telangana, Hyderabad ,"Flat No: 503, Sai Residency, Kondapur",,Education & Literacy
3,1St Guardian Association,1605,Telangana, Hyderabad ,"C/O Indian Institute Of Aerospace Technology And Management, No:158",,NaN
4,21 Century Planet Foundation,U85300TG2022NPL163203,Telangana, Hyderabad ,"Flat No. 401, The Legend Apartments, 3-4-136,770 , Barakatpura",,"Environment & Forests,Any Other"
5,2Change Foundation,U80904TG2022NPL159348,Telangana, Hyderabad ,"P No 101 102 103, F No 304, Swetha, Extension , Rk Puram, Null, Hyderabad Telangana ",,"Education & Literacy,Health & Family Welfare,Human Rights,Information & Communication Technology,Legal Awareness & Aid,Sports,Women's Development & Empowerment,Skill Development"
6,2Elms,63/2017,Telangana, Secunderabad ,"H.No.540/9, Plot No. 9, Jonnabanda, Old Alwal,Secunderabad - 500010",500010,NaN
7,7Fruits,39/2020,Telangana, Khammam ,"3-9-147, Mohan Road,",,"Dalit Upliftment,Disaster Management,Drinking Water,Education & Literacy,Vocational Training,Women's Development & Empowerment,Any Other,Skill Development"
8,90Millionsmiles Foundation,BK IV 31/2021,Telangana, Hyderabad ,"6-1-501/P/29, Mig Phase 1,Hayathnagar, Vanastalipuram S.O,K.V.Rangareddy, Telangana,India",,NaN
9,A & B Educational And Welfare Society,395/2008,Telangana, Nizamabad ,"Yaqubpura,Bodhan Road,Nizamabad",,Education & Literacy
10,A G Charitable Trust,4 OF 2022,Telangana, Mothkur ,"Door No:8-107, Mothkur Mandalam,Near Mro Office , Yadadri ,Bhuvanagiri-508277",508277,NaN
1,Aadi Rang Foundation,IV-230,Tripura, Kulai ,"Shri Surajit Debbarmas/O Shri Jogindra Debbarma Of 149,Shambhuram Para, East Nalicharap.S.Ambassa",,Art & Culture
2,Aadimjati Khaokluk Samaj Seba Pamang Maharaj Society,6835,Tripura, Kowaifang ,"Kowaifang, P.O.: Kowaifang, P.S.: Baikhora,Santir Bazar, Dist.: South Tripura. Pin-799141",799141,NaN
3,Abalamban,1500,Tripura, Agartala ,"Abalamban,""Apnaghar"",Airport Road,Barjala(Near Trtc Workshop),Agartala,Tripura,Pin-799002",799002,"Environment & Forests,Vocational Training,Women's Development & Empowerment"
4,Abhel Hoda Kalyan Samity,5551,Tripura, Amarpur ,Taidu Bari,,"Agriculture,Animal Husbandry, Dairying  &  Fisheries,Art & Culture,Children,Civic Issues,Differently Abled,Environment & Forests,Health & Family Welfare,Legal Awareness & Aid,Micro Finance (SHGs),Minority Issues,Sports,Tribal Affairs,Vocational Training,Water Resources,Women's Development & Empowerment,Youth Affairs"
5,Abhigyan Ex Navodayan Foundation,8860,Tripura, Kamalpur ,"Ward No 3, Kamalpur, P.O.Kamalpurp.S.Kamalpur, Distdhalai, Pin799285",799285,"Art & Culture,Children,Drinking Water,Education & Literacy,Aged/Elderly,Environment & Forests,Nutrition,Rural Development & Poverty Alleviation,Sports,Vocational Training,Skill Development"
6,Abhimukh - Socio Cultural Organization,7845,Tripura, Udaipur ,"Chanban, P.O- R.K.Pur",,NaN
7,Abhoy Mission,1947 under 1860 Socities Act,Tripura, Agartala ,"Abhoy Mission, Ramnagar Road No. 1, P.O- Ramnagar, Agartala, Tripura - 799002.",799002,"Children,Differently Abled,Education & Literacy,Aged/Elderly,Vocational Training,Women's Development & Empowerment"
8,Abohomaan,8222 of 2019,Tripura, Kailashahar ,"Boulapassa, P.Okailashahar, Kailashahar, Unakoti District, Tripura",,NaN
9,Achin Baba Sangha,3231,Tripura, Udaipur ,Registered Address- Vill,,"Agriculture,Animal Husbandry, Dairying  &  Fisheries,Art & Culture,Differently Abled,Drinking Water,Education & Literacy,Environment & Forests,Health & Family Welfare,Labour & Employment,Micro Small & Medium Enterprises,Women's Development & Empowerment,Skill Development"
10,Adarsha Sangha,3196,Tripura, Dharmanagar ,"Vill-Dewanpasha, Po-Dewanpasha, Ps-Dharmanagar",,"Animal Husbandry, Dairying  &  Fisheries,Agriculture,Art & Culture,Children,Disaster Management,Drinking Water,Education & Literacy,Environment & Forests,Food Processing,Health & Family Welfare,HIV/AIDS,Information & Communication Technology,Legal Awareness & Aid,Labour & Employment,Micro Finance (SHGs),Micro Small & Medium Enterprises,New & Renewable Energy,Panchayati Raj,Rural Development & Poverty Alleviation,Science & Technology,Sports,Tribal Affairs,Urban Development & Poverty Alleviation,Vocational Training,Women's Development & Empowerment"
1,   Radhakanta Es Institute Of Computer Technology,40241200175,Orissa, Baleswar ,"At/Po/Ps- Simulia, Dist- Balasore",,Vocational Training
2,24Mahakal Help Foundation,U853200R2020NPL034578,Orissa, Jagatsinghpur ,"Santara, Kujang,Jagatsinghpur,Odisha,754141",754141,"Children,Environment & Forests,Health & Family Welfare,Human Rights,Rural Development & Poverty Alleviation,Women's Development & Empowerment,Youth Affairs,Drinking Water,HIV/AIDS,Sports,Vocational Training"
3,2Nd Universe,41711401490,Orissa, Rourkela ,B 55 Koelnagar Rourkela,,"Children,Education & Literacy,Aged/Elderly,Micro Finance (SHGs),Women's Development & Empowerment"
4,360 Degree Social And Educational Trust,41132211801,Orissa, Bhubaneswar ,"House No- S2/438(B), Lane No- 15, Satya Sai Enclave, Po- Khandagiri, Khorda",,Education & Literacy
5,3Rd Eye Foundation,039980,Orissa, Bhubaneswar ,"Flat No.401, Shanti Nivas, Bomikhal, Rasulgarh,Bhubaneswar-751010",751010,"Art & Culture,Biotechnology,Children,Civic Issues,Dalit Upliftment,Differently Abled,Disaster Management,Drinking Water,Education & Literacy,Aged/Elderly,Environment & Forests,Food Processing,Health & Family Welfare,HIV/AIDS,Housing,Human Rights,Nutrition,Science & Technology,Urban Development & Poverty Alleviation,Vocational Training,Women's Development & Empowerment,Youth Affairs,Any Other,Skill Development"
6,3Rd Eye Foundation,41081900647,Orissa, Bhubaneswar ,"401,Shanti Nivas,Bomikhalnear Esplanade Mall,Rasulgarh",,"Micro Small & Medium Enterprises,Housing,Education & Literacy,Information & Communication Technology,Legal Awareness & Aid,Any Other"
7,4A Art Education Training And Entertainment Foundation,U80900OR2019NPL031616,Orissa, Bhubaneswar ,"Flat No-G10 / B6, Hitech Plaza Appartmen, Madhipur,Bhubaneswar, Khordha, Orissa, India, 751002",751002,"Art & Culture,Education & Literacy,Environment & Forests,Human Rights,Information & Communication Technology,Legal Awareness & Aid,Women's Development & Empowerment,Any Other,Skill Development"
8,5T Foundation,U85300OR2021NPL036958,Orissa, Bhubaneswar ,"Plot No. 453/11, Nuasahi, Nayapalli",,NaN
9,7 Wonders Welfare Trust,1081904747,Orissa, Bhubaneswar ,"Plot No-36/2059, Basanti Nilay, Santha Tulasi Sarovara, Near Nh-16, Pahala, Bhubaneswar.",,"Agriculture,Animal Husbandry, Dairying  &  Fisheries,Art & Culture,Biotechnology,Children,Civic Issues,Dalit Upliftment,Differently Abled,Disaster Management,Drinking Water,Education & Literacy,Aged/Elderly,Environment & Forests,Food Processing,Health & Family Welfare,HIV/AIDS,Human Rights,Information & Communication Technology,Micro Finance (SHGs),Panchayati Raj,Science & Technology,Sports,Tribal Affairs,Urban Development & Poverty Alleviation,Vocational Training,Women's Development & Empowerment,Youth Affairs"
10,A C O R D,4732/101,Orissa, Dhenkanal ,"At-Gudianalipo/Dist-Dhenkanal,Pin-759001,Odisha",759001,"Education & Literacy,Aged/Elderly,Environment & Forests,HIV/AIDS,Sports,Tribal Affairs,Vocational Training,Women's Development & Empowerment,Youth Affairs"
1,Mizo Hmechhe Insuihkhawm Pawl Tlangmawi Branch,NO 5 OF 1977,Mizoram, Tlangmawi ,Mhip Tlangmawi Branchtlangmawichamphai Dist,,NaN
2,Sazep Bran Mizo Hmeichhe Insuihkhawm Pawl,No. 5 of 1977,Mizoram, Champhai ,Sazep Branch,,Women's Development & Empowerment
3,7 Mountain Bamboo & Natural Materials,MSR 1402 of 08.04.2021,Mizoram, Mizoram ,"C/O King Marketing, House No F/F45World Bank Road, Near Bridgefalkland796017Aizawl, Mizoram",796017,NaN
4,Adullam Society,MSR 394 of 11.10.2011,Mizoram, Aizawl ,"Zuangtui,Ii, Vengsang, Aizawl",,"Women's Development & Empowerment,Animal Husbandry, Dairying  &  Fisheries,Children,Civic Issues,Drinking Water,Education & Literacy,Aged/Elderly,Environment & Forests,Health & Family Welfare,Human Rights,Micro Finance (SHGs),Nutrition,Right to Information & Advocacy,Tribal Affairs,Vocational Training"
5,Adventist Hospital Society,SR/MZ_39,Mizoram, Aizawl ,"Seventh Day Tlang, Vaivakawn , Aizawl,Mizoram796009",796009,NaN
6,Agape Moral Reformation Organisation,SR-40 of 1990,Mizoram, Aizawl ,Ropaiabawk Chawlhhmun,,HIV/AIDS
7,Ainawn Society,MSR 765 OF 02.09.2016,Mizoram, Aizawl ,"H.No. B/12Mrf Tyre Showroom Buildingdawrpui Vengtharaizawl, Mizoram-796001",796001,"Agriculture,Food Processing,Any Other"
8,Aizawl Common Service Centre Society,MSR 971 OF 25.09.2018,Mizoram, Aizawl ,"Lk C-8 B, Durtlang Leitan Aizawl",,"Information & Communication Technology,Any Other"
9,Aizawl Diocesan Education Society,SR/MZ-87 OF 2003-04,Mizoram, Aizawl ,"Bishops House,Ramthar Veng",,"Children,Education & Literacy,Vocational Training"
10,Aizawl Football Club,No. S.R. 21 of 1987,Mizoram, Aizawl ,".No.188, Dawrpui West, Aizawl, Mizoram",,Sports
1,Abiogenesis  Socety,Regd No H/RS-2445,Nagaland, Dimapur ,"Abiogenesis Society,Mamias Bliss, 6,Angami Khel,Nuton Bosti",,"Animal Husbandry, Dairying  &  Fisheries,Aged/Elderly,Agriculture,Art & Culture,Children,Civic Issues,Disaster Management,Education & Literacy,Environment & Forests,Health & Family Welfare,HIV/AIDS,Human Rights,Information & Communication Technology,Micro Finance (SHGs),Minority Issues,Micro Small & Medium Enterprises,New & Renewable Energy,Nutrition,Right to Information & Advocacy,Rural Development & Poverty Alleviation,Sports,Tribal Affairs,Tourism,Vocational Training,Women's Development & Empowerment"
2,Abundant Life Foundation,HOME/SRC-6661/2014,Nagaland, Dimapur ,Abundant Life Foundationunited North Blockburma Camp,,"Children,Civic Issues,Differently Abled,Education & Literacy,Aged/Elderly,Health & Family Welfare,HIV/AIDS,Micro Finance (SHGs),Sports,Tribal Affairs,Urban Development & Poverty Alleviation,Vocational Training,Women's Development & Empowerment,Youth Affairs"
3,Achemlong Welfare Society,H/RS-2750 ,Nagaland, Noklak ,"Achemlong Welfare Societyc/O Pongombelow D.C. Office, Noklaknagaland 798626",798626,"Children,Education & Literacy"
4,Achiku Society Ltd,H/RS-3689,Nagaland, Atoizu ,Atoizu Townzunheboto Dist,,"Agriculture,Animal Husbandry, Dairying  &  Fisheries,Art & Culture,Children,Civic Issues,Differently Abled,Disaster Management,Drinking Water,Education & Literacy,Aged/Elderly,Environment & Forests,Health & Family Welfare,Human Rights,Labour & Employment,Land Resources,Minority Issues,New & Renewable Energy,Nutrition,Rural Development & Poverty Alleviation,Tribal Affairs,Urban Development & Poverty Alleviation,Vocational Training,Women's Development & Empowerment,Youth Affairs"
5,Achomang Multipurpose Cooperative Society Ltd,NL/5145,Nagaland, Kiphire ,"Mission Compound Ward Below Hopongkyu Memorial Hall, H/No 63, Kiphire 798611",798611,"Agriculture,Animal Husbandry, Dairying  &  Fisheries,Art & Culture,Children,Dalit Upliftment,Differently Abled,Disaster Management,Drinking Water,Aged/Elderly,Environment & Forests,Food Processing,Health & Family Welfare,HIV/AIDS,Housing,Human Rights,Information & Communication Technology,Labour & Employment,Land Resources,Legal Awareness & Aid,Micro Finance (SHGs),Micro Small & Medium Enterprises,Minority Issues,New & Renewable Energy,Nutrition,Panchayati Raj,Prisoner's Issues,Right to Information & Advocacy,Rural Development & Poverty Alleviation,Science & Technology,Sports,Tourism,Tribal Affairs,Urban Development & Poverty Alleviation,Vocational Training,Water Resources,Women's Development & Empowerment"
6,Acme Foundation,885,Nagaland, Wokha ,"Wokha Town, Nagaland797111",797111,"Civic Issues,Micro Small & Medium Enterprises,Rural Development & Poverty Alleviation,Vocational Training,Water Resources,Skill Development"
7,Act Of Kindness Society,HOME/SRC-7211,Nagaland, Dimapur ,"H.No 105, Near Super Kids Academynaharbari, Dimapur",,"Art & Culture,Children,Civic Issues,Differently Abled,Education & Literacy,Health & Family Welfare,Information & Communication Technology,Minority Issues,Nutrition,Rural Development & Poverty Alleviation,Sports,Tourism,Tribal Affairs,Vocational Training,Women's Development & Empowerment,Youth Affairs"
8,Action For Women Development And Empowerment,H/RS.-698,Nagaland, Kohima ,"6.Awdeopposite War Cemeterybelow East Gate Hotel, Midland, Kohima, Nagaland -  797001",797001,"Aged/Elderly,Children,Health & Family Welfare,Micro Small & Medium Enterprises,Vocational Training"
9,Agape Youth Welfare Organisation,RS 2709,Nagaland, Wokha ,Agape Youth Welfare Organisation Po Box 20 Nst Wokha Town Dist Wokha 797111 Nagaland,797111,"Aged/Elderly,Agriculture,Differently Abled,Education & Literacy,Environment & Forests,Health & Family Welfare,HIV/AIDS,Micro Finance (SHGs),Rural Development & Poverty Alleviation,Tourism,Urban Development & Poverty Alleviation,Vocational Training,Women's Development & Empowerment,Youth Affairs,Human Rights"
10,Aghiyilito Mpcs,NL/3661,Nagaland, Dimapur ,"Eralibill Village Near Post Office,H/No 132,Dimapur Nagaland 797115",797115,"Animal Husbandry, Dairying  &  Fisheries,Aged/Elderly,Agriculture,Art & Culture,Biotechnology,Civic Issues,Differently Abled,Disaster Management,Drinking Water,Education & Literacy,Environment & Forests,Food Processing,Health & Family Welfare,Housing,Human Rights,Legal Awareness & Aid,Labour & Employment,Land Resources,Micro Finance (SHGs),Minority Issues,Micro Small & Medium Enterprises,New & Renewable Energy,Nutrition,Rural Development & Poverty Alleviation,Sports"
1,1 Step Foundation,249/UD/SR/2022,Manipur, Ukhrul ,Talui Village Ukhrul District Manipur,,"Agriculture,Animal Husbandry, Dairying  &  Fisheries,Drinking Water,Education & Literacy,Environment & Forests,Food Processing,Labour & Employment,Micro Finance (SHGs),Micro Small & Medium Enterprises,New & Renewable Energy,Rural Development & Poverty Alleviation,Tourism,Tribal Affairs,Water Resources,Youth Affairs,Skill Development"
2,7 Sisters Foundation,167/M/SR/2000,Manipur, Imphal ,"Sermon Road, 5Th Avenue, Dewlahland",,"Agriculture,Art & Culture,Children,Civic Issues,Differently Abled,Education & Literacy,Aged/Elderly,Environment & Forests,Food Processing,Health & Family Welfare,HIV/AIDS,Human Rights,Labour & Employment,Land Resources,Micro Finance (SHGs),Micro Small & Medium Enterprises,Minority Issues,New & Renewable Energy,Rural Development & Poverty Alleviation,Sports,Tribal Affairs,Vocational Training,Water Resources,Youth Affairs"
3,A Imocha Singh Foundation,73/M/SR/1987,Manipur, Imphal ,Wangkhei Angom Leikai,,NaN
4,A Ray Of Hope,414/M/SR/1988,Manipur, Imphal West ,"Uripok Khumanthem Leikai,Imphal Westc/O Bedhajit Okram,Manipur",,"Drinking Water,Education & Literacy,Health & Family Welfare,HIV/AIDS,Sports,Vocational Training,Any Other"
5,Abbas Foundation,258/M/SR/1991,Manipur, Thoubal ,"Haoreibi Mayai Leikai, Thoubal District, Manipur State.",,"Animal Husbandry, Dairying  &  Fisheries,Children,Civic Issues,Dalit Upliftment,Differently Abled"
6,Abdul Aziz Memorial Trust,80 OF 2012,Manipur, Thoubal ,Lilong Turel Ahanbi Kaleikhong Makha,,"Agriculture,Education & Literacy,Aged/Elderly"
7,Abdul Razak Helpline,379 of 2013,Manipur, Imphal ,Kiyamgei Muslim Mayai Leikai Po Canchipur Ps Irilbung 795003,795003,"Animal Husbandry, Dairying  &  Fisheries,Aged/Elderly,Agriculture,Art & Culture,Biotechnology,Children,Civic Issues,Differently Abled,Disaster Management,Dalit Upliftment,Drinking Water,Education & Literacy,Environment & Forests,Food Processing,Health & Family Welfare,HIV/AIDS,Housing,Human Rights,Information & Communication Technology,Legal Awareness & Aid,Labour & Employment,Land Resources,Micro Finance (SHGs),Minority Issues,Micro Small & Medium Enterprises"
8,Abdulla And Manira Foundation,36 OF 2013,Manipur, Lilong ,Turel Ahanbi Helalkhonglilong,,NaN
9,Abungchiang Horticulture Development Co-Operative Society Limtited,40/ST/HCS/2012-13,Manipur, Imphal ,"Abungchiangvillage, (Nagaching) Po Noney, Tamenglong District, Manipur-795159",795159,"Animal Husbandry, Dairying  &  Fisheries,Art & Culture,Health & Family Welfare,HIV/AIDS,Legal Awareness & Aid,Micro Finance (SHGs),Micro Small & Medium Enterprises,Tribal Affairs,Vocational Training,Women's Development & Empowerment,Any Other,Agriculture"
10,Academy For The Development Of Environment Protection,179/Imphal District/1987,Manipur, Imphal ,Yaikskul Chingakham Leirak,,NaN
1, Lokdhara Pratishthan,E-12361 (THANE),"Thane), Bhiwandi (Maharashtra", Bhiwandi ,"At. Samatanagar, Borivali, Near Z.P. School Marathi, Post. Padgha, Tal. Bhiwandi",,NaN
2, Living Water Gospel Broadcast,D-64(BOM),"Bom), Mumbai (Maharashtra", Mumbai ,Nev Bhavana 422 Swatantrya Veer Savarkar Marg Prabhadevi ,,Any Other
3,Narayani Empowering India Foundation,U85100PN2015NPL153974,Maharashtra, Pune ,"S.No 169/1, Bldg-A11, Flat-12 Skf Employees Hsg. Scheme, Chinchwad Pune, Mh 411033 In",411033,NaN
4,01.Shri Vatavruksha Swami Adhyatmik Sanshodhan Sansthan Sonna Tq. Dist Parbhani,E-0000205(PBN),"Pbn), Parbhani (Maharashtra", Parbhani ,At. Sonna Post. Mandakhali Tq.Dist. Parbhani-431537,431537,"Rural Development & Poverty Alleviation,Agriculture,Children,Education & Literacy,Health & Family Welfare,Information & Communication Technology,Water Resources,Women's Development & Empowerment,Youth Affairs,Any Other"
5,0Jaykranti Bahu Uddeshiya Shikshan Prasarak Sevabhvi Pratistan Mandal,F9014,Maharashtra, Jalkot ,Atrampur Tanda Post Gutti Tq Jalkot Dist Latur,,NaN
6,1 Earth Social Foundation,E-8263/PUNE,Maharashtra, Shirur ,"House No. 295, Mukkam Post Mukhai,Near St. Stand, Taluka Shirur,",,"Education & Literacy,Health & Family Welfare"
7,1 Rupee Clinic Foundation,U85100MH2021NPL361664,Maharashtra, Thane ,"Dimond Homes Basment B, Opp Manas Society, Bhaskar, Thane, Thane, Maharashtra- 400099",400099,Health & Family Welfare
8,1008 Shree Bhagavan Mahavir Digambar Jain Charitable Trust,E-851,Maharashtra, Aurangabad ,"Saptshrungi Housing Society,Rx-3/9,House No.-15,Near Jagrut Hanuman Mandir,Bajajnagar, Aurangabad Pin Code-431136(Maharashtra)",431136,"Art & Culture,Children,Civic Issues,Dalit Upliftment,Differently Abled,Disaster Management,Education & Literacy,Aged/Elderly,Health & Family Welfare,Human Rights,Rural Development & Poverty Alleviation,Women's Development & Empowerment"
9,14 Trees Foundation,U93090PN2020NPL191410,Maharashtra, Pune ,"A-502, Swojas Anand, Anand Park, Aundh",,Environment & Forests
10,27 Rab Sab Education Foundation,U85300MH2022NPL391157,Maharashtra, Thane ,"301 Building No 7,Mira Bhayander Road,Mira Road S.O, Thane-401107",401107,NaN
1,3 Star Golteck Rural Development And Womenws Walfare Society,04/14/01/09111/06,Madhya Pradesh, Jabalpur ,H.No. 2535 H Type Colony Medical College Jabalpur (M.P.),,"Art & Culture,Children,Education & Literacy,Health & Family Welfare,Human Rights,Tourism,Vocational Training,Women's Development & Empowerment,Drinking Water,HIV/AIDS,Right to Information & Advocacy,Rural Development & Poverty Alleviation"
2,360 Gotriya Khatik Samaj Kalyan Samiti,07/33/01/05223/04,Madhya Pradesh, Ujjain ,"02 Khatik Samaj Dhramshala Evam Chatrawas Nagar, Near Kot Mata Temple, Fazalpura",,"Art & Culture,Education & Literacy,Women's Development & Empowerment,Youth Affairs,Any Other,Skill Development,Labour & Employment"
3,3S Security Services,879 ,Madhya Pradesh, Indore ,"01,Panda Road,Near Hotel Mashal,Tehsil-Rau,District-Indore (Madhyapradesh)",,"Labour & Employment,Vocational Training,Any Other"
4,A Commn Man For Information And Action Samiti,01/01/01/22542/10,Madhya Pradesh, Bhopal ,66 Jain Mandir Road Mangalwara Bhopal,,NaN
5,A Ray To Hope Foundation,05/22/03/14543/18,Madhya Pradesh, Rewa ,"23/445, Arjun Nagar, Rewa",,"Education & Literacy,Children,Differently Abled,Health & Family Welfare,Nutrition,Water Resources,Women's Development & Empowerment"
6,A Sociel Welfare Soicety  Nurture Equality Education And Vision,03/27/03/17305/14,Madhya Pradesh, Indore ,Correspondence Address:- 401-F Vijaya Apartment779/1 Manishpuri Saket Indore -452001 Mp India,452001,"Art & Culture,Children,Civic Issues,Education & Literacy,Human Rights,Information & Communication Technology,Labour & Employment,Minority Issues,Urban Development & Poverty Alleviation,Vocational Training,Youth Affairs"
7,A To Z Education Society,04/18/01/13996/11,Madhya Pradesh, Seoni ,"Mandla Road, Kabeer Ward 06Dundaseoni Seoni",,"Animal Husbandry, Dairying  &  Fisheries,Art & Culture,Biotechnology,Children,Civic Issues,Dalit Upliftment,Differently Abled,Disaster Management,Education & Literacy,Aged/Elderly,Environment & Forests,Health & Family Welfare,HIV/AIDS,Information & Communication Technology,Minority Issues,Nutrition,Rural Development & Poverty Alleviation,Science & Technology,Sports,Tourism,Urban Development & Poverty Alleviation,Vocational Training,Water Resources,Women's Development & Empowerment,Youth Affairs,Any Other"
8,A V S Shiksha Evam Samajotthan Samiti,06/09/10/09518/13,Madhya Pradesh, Sagar ,Naya Bazar Malthon,,NaN
9,Aabhas Kala Sewa Samiti,IND/3025/97,Madhya Pradesh, Indore ,"Artys, 148 Teja Ji Nagar Kasturbagram Khandwa Road Indore ",,Aged/Elderly
10,Aacharya Guruvar Vidhyasagar Organization For Educational Ar&D,06/13/01/12921/19,Madhya Pradesh, Tikamgarh ,"28 1 13, Mahaveer Vihar Colony, Kunwarpura Darwaja, Tikamgarh",,NaN
1,1 Roti Gau Mata Ke Naam Trust,31Jaipur2020,Rajasthan, Jaipur ,"Plot No. 2, Bhadu Farm House Lane, Opp. Kamla Devi Budhiya School, 200 Ft. Bypass, Ajmer Road, Heerapura, Jaipur-302021",302021,NaN
2,100Medals Targeted Foundation,U85300RJ2021NPL077070,Rajasthan, Jaipur ,"Flat No. 04, Primrose 1, Park Apartments Vatika, Infotech City, Villagethikaria, Jaipur, Rajasthan302026",302026,Sports
3,109 Chandan Parshpadmawati Trust,17/2012/JODHPUR,Rajasthan, Jodhpur ,"Maa Padmawati Nagar, Chandan Vatka, Tanawada Fanta, Salawas Road",,Any Other
4,2.2K Digital Edusport Association ,U85100RJ2022NPL080017,Rajasthan, Bharatpur ,"C/O Saty Lekha, Jag Dish Singh,, Anirudh Nagar,, Bharatpur, Bharatpur, Rajasthan-321001",321001,"Sports,Skill Development,Education & Literacy,Rural Development & Poverty Alleviation,Any Other,Agriculture,Animal Husbandry, Dairying  &  Fisheries,Art & Culture,Biotechnology,Dalit Upliftment,Differently Abled,Disaster Management,Drinking Water,Aged/Elderly,Environment & Forests,Health & Family Welfare,Human Rights,Information & Communication Technology,Legal Awareness & Aid,Micro Small & Medium Enterprises,Minority Issues,New & Renewable Energy,Nutrition,Panchayati Raj,Science & Technology,Tribal Affairs,Water Resources,Women's Development & Empowerment,Youth Affairs"
5,3M Dot Bands Theatre Family Society,379/JAIPUR/2003-04,Rajasthan, Jaipur ,837Frontier Colonyadarsh Nagar,,"Art & Culture,Any Other"
6,A Bless Of Creator Society,68/jaipur/2009-10,Rajasthan, Jaipur ,"C-12,Lal Kothi Shopping Centre ,Between Hotal Jaipur Palace And Laxmi Mandri Cinema ,Tonk Phatak  ,Jaipur-302015",302015,"Aged/Elderly,Agriculture,Children,Civic Issues,Differently Abled,Disaster Management,Dalit Upliftment,Drinking Water,Education & Literacy,Environment & Forests,HIV/AIDS,Human Rights,Information & Communication Technology,Legal Awareness & Aid,Labour & Employment,Micro Finance (SHGs),Minority Issues,Micro Small & Medium Enterprises,Right to Information & Advocacy,Rural Development & Poverty Alleviation,Scientific & Industrial Research,Science & Technology,Tribal Affairs,Tourism,Women's Development & Empowerment"
7,A Fundamental Organization For Rurali Development Society,108/UDAIPUR/2009-10,Rajasthan, Raomadra ,"Village Post-Rao Madra Via Nandeshma, Tehsil-Gogunda, Udaipur, Rajasthan-313708",313708,"Agriculture,Art & Culture,Children,Dalit Upliftment,Education & Literacy,Environment & Forests,Information & Communication Technology,Micro Small & Medium Enterprises,Minority Issues,New & Renewable Energy,Vocational Training,Women's Development & Empowerment"
8,A Hand For Help Development Society,184/Jaipur/12-13,Rajasthan, Jaipur ,"A Hand For Help Development Society, 41 Jyoti Vihar Vistar, Mansarover, Jaipur",,"Civic Issues,Education & Literacy,Environment & Forests,Labour & Employment,Rural Development & Poverty Alleviation,Urban Development & Poverty Alleviation,Water Resources,Any Other"
9,A P Jain Bal And Mahila Vikas Samiti,54/ALWAR/1987-88,Rajasthan, Tijara ,"Ward No 05, Shri Ram Colony, Near Tehsil, Tijara, Alwar, Rajasthan ",,NaN
10,A.P.B.S.Trust,469514,Rajasthan, Jodhpur ,"Neem Ki Gali,Veer Mohalla,Jodhpur Rajasthan-342001",342001,"Agriculture,Art & Culture,Children,Civic Issues,Disaster Management,Education & Literacy,Human Rights,Land Resources,Women's Development & Empowerment,Animal Husbandry, Dairying  &  Fisheries,Biotechnology,Dalit Upliftment,Differently Abled,Drinking Water,Aged/Elderly,Environment & Forests,Food Processing,Health & Family Welfare,HIV/AIDS,Housing,Information & Communication Technology,Labour & Employment,Legal Awareness & Aid,Micro Finance (SHGs),Micro Small & Medium Enterprises,Minority Issues,Tourism,Urban Development & Poverty Alleviation,Water Resources,Youth Affairs"
1,Brave Vision Sports Foundation,U85300TN2021NPL148796,Tamil Nadu, Seethapatty  ,S/O-Kumarasamy D.No-24K/18 Vanchiaman Petrol Bunk(Opp) Seethapatty Dindigul Tn 624619 In,624619,"Education & Literacy,Sports"
2,Panruti Ondrupatta Ilaigner Kazhakam,100/2014,Tamil Nadu, Panruti ,"25,Kamaraj Nagar",,"Drinking Water,Education & Literacy,Environment & Forests,Human Rights,Information & Communication Technology,Labour & Employment,Women's Development & Empowerment,Youth Affairs"
3,(Pazhani) Kiranur Sanmarga Gurukulam,12/1956,Tamil Nadu, Palani ," (Pazhani)Kiranursanmarga Gurukulamjothipuram,Keeranur,Palani(Tk)Dindigul(Dt)624617",624617,"Children,Education & Literacy,Aged/Elderly,Food Processing,Skill Development"
4,2 The Children Foundation,126,Tamil Nadu, Chennai ,"No.5, Gandhi Salai Lane,Pazhavanthangal,Alandur,Chennai-600114.",600114,"Agriculture,Children,Differently Abled,Education & Literacy,Aged/Elderly,Environment & Forests,Human Rights,Micro Small & Medium Enterprises,Rural Development & Poverty Alleviation,Urban Development & Poverty Alleviation,Vocational Training,Women's Development & Empowerment,Youth Affairs,Skill Development"
5,4 M Trust,178/2005,Tamil Nadu, Chennai ,"No-4, Buhari Building, Moores Road, Chennai-600006",600006,"Women's Development & Empowerment,Any Other"
6,63 Nayanars Charitable Trust,74/2021,Tamil Nadu, Tiruvannamalai ,"No.3, Girivalam Nagar Adiannamalai, Tiruvannamalai",,"Children,Civic Issues,Disaster Management,Education & Literacy,Food Processing,Rural Development & Poverty Alleviation,Any Other"
7,A C T Educational And Charitable Trust,3847/2007,Tamil Nadu, Chennai ,"No.2070, 1St Street, Vasantham Colony,Anna Nagar, Chennai-600040",600040,NaN
8,A D S Educational Trust,1479/2009,Tamil Nadu, Chennai ,"G4, Salmasanjana Castle, 185 Choolaimedu High Road, Choolaimedu",,Education & Literacy
9,A K Educational Trust,31/BK4/2014,Tamil Nadu, Theni ,"No.6, Bazzar Street, Periyakulam Road, Bommaiyakaranpatti Allinagaram, Theni-625531, Tamilnadu, India.",625531,"Children,Differently Abled,Education & Literacy,Human Rights,Rural Development & Poverty Alleviation,Water Resources,Women's Development & Empowerment,Skill Development,Agriculture,Health & Family Welfare"
10,A K Social Welfare Trust,21/2019,Tamil Nadu, Vriddhachalam ,"A K Social Welfare Trust187 Appar Street,Periyar Nagar South,Vriddhachalam-606001,Cuddalore Districttamilnadu",606001,"Agriculture,Animal Husbandry, Dairying  &  Fisheries,Art & Culture,Biotechnology,Children,Civic Issues,Dalit Upliftment,Differently Abled,Disaster Management,Drinking Water,Education & Literacy,Aged/Elderly,Environment & Forests,Food Processing,Health & Family Welfare,HIV/AIDS,Human Rights,Information & Communication Technology,Labour & Employment,Legal Awareness & Aid,Micro Finance (SHGs),Micro Small & Medium Enterprises,Minority Issues,Nutrition,Panchayati Raj,Scientific & Industrial Research,Urban Development & Poverty Alleviation,Vocational Training,Water Resources,Women's Development & Empowerment,Any Other"
1,Aadhar Bahuuddeshiya Seva Sanstha,F-3334/77,Lakshadweep, Ujjain ,"Mumbai -400065, Maharashtra Rajya, Bharat.",400065,Water Resources
2,Dr.Koya Memorial Charitable & Educational Trust,359/4,Lakshadweep, Kavarathi ,"Darussalam,(Dr Koya Bhavan) Kavarathi Island, Lakshadweep",,"Agriculture,Art & Culture,Children,Civic Issues,Dalit Upliftment,Education & Literacy,Aged/Elderly,Food Processing,Housing,Micro Small & Medium Enterprises,Minority Issues,Rural Development & Poverty Alleviation,Sports,Tourism,Women's Development & Empowerment,Youth Affairs"
3,Jan Shikshan Sansthan Lakshadweep,S/R682/2022,Lakshadweep, Kavaratti ," Jan Shikshan Sansthan Lakshadweepward No.11 ,Near Secretariat And Lord Shiva Temple,Kavaratti Village,Kavaratti P Out Of Lakshdweeppin 682555",682555,Skill Development
4,Jan Shikshan Sansthan Lakshadweep,S/R682/2022,Lakshadweep, Kavaratti ,Jan Shikshan Sansthan Lakshadweepnear Secretariatkavarati Pout Of Lakshadweep,,"Agriculture,Animal Husbandry, Dairying  &  Fisheries,Art & Culture,Differently Abled,Disaster Management,Education & Literacy,Food Processing,Health & Family Welfare,Information & Communication Technology,Labour & Employment,Land Resources,Micro Finance (SHGs),Micro Small & Medium Enterprises,Rural Development & Poverty Alleviation,Tribal Affairs,Vocational Training,Women's Development & Empowerment,Youth Affairs"
5,Swarna Dhara Charitable Welfare Society,S0007783 OF 2019-2020,Lakshadweep, Jnjhoj ,"Jhghjmm,Kjhl,Ljh",,"Agriculture,Animal Husbandry, Dairying  &  Fisheries,Art & Culture,Biotechnology,Children,Civic Issues,Dalit Upliftment,Differently Abled,Disaster Management,Drinking Water,Education & Literacy,Aged/Elderly,Environment & Forests,Food Processing,Health & Family Welfare,Housing,Labour & Employment,Water Resources,Women's Development & Empowerment,Any Other,Skill Development,Human Rights,Information & Communication Technology,Micro Finance (SHGs),Micro Small & Medium Enterprises,Minority Issues,New & Renewable Energy,Nutrition,Rural Development & Poverty Alleviation,Science & Technology,Sports,Tourism,Tribal Affairs,Urban Development & Poverty Alleviation,Vocational Training,Youth Affairs"
6,Thanal Charitable Organization,557/2009,Lakshadweep, Kavaratti ,"Thanal Charitable Organization,Kavaratti Island,Ut Of Lakshadweeppin:682555",682555,"Aged/Elderly,Children,Health & Family Welfare,Legal Awareness & Aid,Labour & Employment,Micro Small & Medium Enterprises,Rural Development & Poverty Alleviation,New & Renewable Energy,Vocational Training,Water Resources,Women's Development & Empowerment"
7,Wake Up Lak Welfare Society,EKM/TC/207/2021,Lakshadweep, Kochi ,"Door No: Ews-726,Maveli Road, Kadavanthra Po, Near Suppluyco, Elamkulam Village, Kochi 682020",682020,"Agriculture,Civic Issues,Education & Literacy,Environment & Forests,Health & Family Welfare,Human Rights,Information & Communication Technology,Legal Awareness & Aid,Tourism,Skill Development"
1,'K.S.Abdullah Educational Trust,138/IV/1993,Kerala, Kasaragod ,Kasaragod Muslim Welfare Associationmalik Deenar Charitable Hospitalkasaragod Districtkeralapin 671122,671122,NaN
2,4Dxi Foundation,U93090KL2018NPL055362,Kerala, Ernakulam ,"Venus Arcade,Kaniyapilly Road,Chakkaraparambu, Vennala, ",,Education & Literacy
3,A K Cherian Memorial Charitable Soceity,P/469/2010,Kerala, Malakkara ,St.Thomas Hospital Buildingmalakkarapathanamthitta (Quilon)Kerala,,Any Other
4,A K G Smaraka Vayanasala And Grandhalayam Paz,234/1979,Kerala, Payangadi ,Near Rly Stationp O Payangadi R S,,Education & Literacy
5,A Kg Smaraka Vayanasala & Grandhalayam Cheruvathalamotta,484/2005,Kerala, Cheruvathalamotta ,"Cheruvathalamotta ,(Po) Chattukapara,Kannur",,NaN
6,A M Ebrahim Sahib Memorial Library,07MPA4836,Kerala, Muvattupuzha ,A M Ebrahim Sahib Memmorial Library Paipra Manary P O Muvattupuzha,,NaN
7,A N P Nair Memorial Educational Trust,41/1992,Kerala, Mavelikara ,A N P Nair Memorial Educational Trustchettikulangara Chettikulangara P O Mavelikaraalappuzhakerala -690106,690106,"Education & Literacy,Education & Literacy"
8,A V Kunhambu Smaraka Vayanasala And Grandhalayalam,592/2003,Kerala, Thalassery ,"Thirumeni Po, Thirumeni, Cherupuzha Via, Kannur District, Kerala",,NaN
9,A1 Poor Fund Foundation Of India,ER 324/85,Kerala, Punalal ,"Cross Complex, Punalal P.O., Thiruvananthapuram695 575",,"Animal Husbandry, Dairying  &  Fisheries,Art & Culture,Civic Issues,Dalit Upliftment,Disaster Management,Education & Literacy,Aged/Elderly,Health & Family Welfare,Human Rights,Legal Awareness & Aid,Minority Issues,Rural Development & Poverty Alleviation,Tribal Affairs,Vocational Training,Women's Development & Empowerment,Youth Affairs,Any Other"
10,Aaliyah Health And Educational Foundation,422/2008,Kerala, Kollam ,"Thenguvila House, Cherukulam P.O., Anchal, Kollam District, Kerala-691306",691306,NaN
1, Shri Raghavendra Swami Seva Samiti,GNO/SNO.261/98-99,Karnataka, Belagavi ,"Cts No 7286, Anjaneya Nagar, Malamaruti Badavane, Belagavi 590015",590015,NaN
2,1008 Bhagwan Shri Mahaveer Jain Minority Charitable Trust (R),MUD-4-00029-2015-16 CD MUDD165,Karnataka, Muddebihal ,Alamatti Roadmuddebihal-586212,586212,NaN
3,1M1B Foundation,U93000KA2012NPL065554,Karnataka, Bangalore ,"No. 29, Baron House, 3Rd Floor 80 Ft Road,, Kormangala 4Th Block Bangalore, Bangalore, Bangalore, Karnataka, India, 560034",560034,"Education & Literacy,Labour & Employment,Micro Small & Medium Enterprises,Vocational Training,Skill Development"
4,6Ty Plus Foundation,RJN-4-00411-2015-16,Karnataka, Bengaluru ,"No. Lr-39, 2Nd Cross, Lig Row Houses, Nandini Layout",,NaN
5,A Dharma Sastha Foundation ,INR-4-00009-2020-21,Karnataka, Bangalore ,No 51 19Th Cross Lakshmipuram Halasuru Bangalore North,,"Children,Education & Literacy,Aged/Elderly,Women's Development & Empowerment"
6,A G N Foundation,400270,Karnataka, Bangalore ,No 1445 Vajras No 6 South End A Cross 28Th Main Jayanagar 9Th Block ,,NaN
7,A H Memorial Educational Trust,150/80-81,Karnataka, Bangalore ,"Ca Site 7P 1A, Presidency School, 2Nd A Main, 3Rd A, Cross, East Of N.G.E.F Layout, Kasturinagar, Bengaluru, Karnataka 560043",560043,"Education & Literacy,Vocational Training,Any Other"
8,A Hundred Hands ,IN KA275887416941221,Karnataka, Bangalore  ,4 Ashley Roadoff Mg Roadbangalore 560025,560025,"Art & Culture,Differently Abled,Rural Development & Poverty Alleviation,Tourism,Tribal Affairs,Vocational Training"
9,A Little Change,485,Karnataka, Koramangala ,"No.31, 3Rd Floor, A Main, Jakkasandra Extn, Koramangala, 1St Blockbengaluru560034 ",560034,"Art & Culture,Children,Education & Literacy,Skill Development"
10,A One Educational Welfare Trust,BNG(U)BSKJ 136/2011-12,"U)Bskj 136/2011-12, Bangalore (Karnataka", Bangalore ,"No: 117, 6Th Main Road, 6Th Cross, Near Quba Masjid, Yarab Nagar, Banashankari, Bangalore560070",560070,NaN
1,Kandratikuri Wood Craft Welfare Society,S/1/L/73031,West Bengal, Burdwan ,"Vill-Kandratikuri, Po- Damuri, Ps- Bud Bud, Dist- Burdwan (Purba) West Bengal Pin- 713403",713403,"Agriculture,Children,Drinking Water,Education & Literacy,Health & Family Welfare,Human Rights,Legal Awareness & Aid,Micro Finance (SHGs),Urban Development & Poverty Alleviation,Vocational Training,Women's Development & Empowerment,Any Other"
2, Barrackpore Diocesan Board Of Social Services,S/1L/27538 OF 2004-2005,West Bengal, Barrackpore ,"86, Middle Road, Barrackpore",,"Education & Literacy,Health & Family Welfare,Nutrition,Aged/Elderly"
3,Oldchild Foundation,U85300WB2020NPL242131,West Bengal, Bardhaman ,"1001, Sahimohalla, Kendwa Road, Po-Kulti, Asansol, P. Burdwan, Bardhaman, Bardhaman, West Bengal, India, 713343",713343,Health & Family Welfare
4, St Peters Vocational Training Centre,S/2L/41116 OF 2015-2016,West Bengal, Kolkata ,"Kulpi Road, P.O And P.S Baruipur,",,Education & Literacy
5,''Sita'' Jain Memorial Trust,190302101,West Bengal, Kolkata ,"14/2B , Nirode Behari Mullick Road, Kolkata700006",700006,Children
6,'Help Us Help Them,S/1L/30123,West Bengal, Kolkata ,9/3B Gariahat Road,,"Children,Education & Literacy"
7,1 No. Nutan Fulia Swapno Welfare Society,S/2L/11554,West Bengal, Santipur ,"Vill.- 1 No Nutan Fulia,P.O.- 2 No Nutan Fulia,P.S.- Santipur,Dist.- Nadia,West Bengal,Pin-741402",741402,"Children,Civic Issues,Differently Abled,Disaster Management,Drinking Water,Education & Literacy,Aged/Elderly,Environment & Forests,Health & Family Welfare,Human Rights"
8,10 D Educational Development Trust,IV-01541/13,West Bengal, Joynagar ,"257, N.S.B Road , Po- Joynagar Majilpurps- Joynagar ",,"Education & Literacy,Information & Communication Technology,Rural Development & Poverty Alleviation,Vocational Training,Water Resources,Micro Small & Medium Enterprises,Minority Issues,New & Renewable Energy,Any Other"
9,10 D Welfare And Development Trust,IV-00224 OF 2009,West Bengal, Baruipur ,"Sitakundu Main Road, Solgolia, Ataghara,Madarat, Baruipur, Kolkata 700144",700144,"Education & Literacy,Information & Communication Technology,Micro Small & Medium Enterprises,New & Renewable Energy,Panchayati Raj,Science & Technology,Vocational Training,Water Resources,Youth Affairs,Any Other"
10,10 D Welfare Trust,IV-00600-2013 SERIAL NO 03798 ,West Bengal, Ashokenagar ,"Vill Manik Nagar, Po- Maniktala, Ps- Ashokenagar",,"Education & Literacy,Health & Family Welfare,Labour & Employment,Micro Small & Medium Enterprises,Vocational Training,Skill Development"
1,A B Skills,1994551,Jammu & Kashmir, Srinagar ,"51, Darulaslam, New Colony, Batamaloo",,"Vocational Training,Education & Literacy,Information & Communication Technology,Micro Small & Medium Enterprises,Rural Development & Poverty Alleviation,Civic Issues,Women's Development & Empowerment,Youth Affairs"
2,A P J Memorial Educational Trust,01/86,Jammu & Kashmir, Ganderbal ,"Drugtengoo, Preng Kangan",,"Education & Literacy,Children,Differently Abled,Disaster Management,Environment & Forests,Health & Family Welfare,Human Rights,Legal Awareness & Aid,Sports,Vocational Training,Women's Development & Empowerment,Skill Development"
3,A R Azad Memorial Foundation,5813-S of 2009,Jammu & Kashmir, Pulwama ,Head Office Koil Pulwama Kashmir J ,,"Agriculture,Animal Husbandry, Dairying  &  Fisheries,Art & Culture,Children,Civic Issues,Differently Abled,Disaster Management,Drinking Water,Education & Literacy,Aged/Elderly,Environment & Forests,Health & Family Welfare,Human Rights,Information & Communication Technology,Labour & Employment,Legal Awareness & Aid,Rural Development & Poverty Alleviation,Sports,Tourism,Urban Development & Poverty Alleviation,Water Resources,Women's Development & Empowerment,Youth Affairs"
4,A.K. Builders Sanitations,2279-S,Jammu & Kashmir, Srinagar , Registered Office Court Road Srinagar,,"Agriculture,Animal Husbandry, Dairying  &  Fisheries,Art & Culture,Children,Civic Issues,Differently Abled,Drinking Water,Education & Literacy,Aged/Elderly,Information & Communication Technology,Micro Finance (SHGs),Minority Issues,New & Renewable Energy,Tribal Affairs,Vocational Training,Women's Development & Empowerment"
5,A.N.I Group Ltd,6774-A-III-SGR,Jammu & Kashmir, Srinagar ,"Kursu Raj Baghsrinagar, Kashmir",,"Agriculture,Animal Husbandry, Dairying  &  Fisheries,Art & Culture,Civic Issues,Education & Literacy,Aged/Elderly,Food Processing,Information & Communication Technology,Micro Small & Medium Enterprises,Science & Technology,Vocational Training,Any Other"
6,Aab E Rawan,6957-S,Jammu & Kashmir, Srinagar ,Hawal Srinagar ,,"Art & Culture,Children,Differently Abled,Education & Literacy,Environment & Forests,Health & Family Welfare,Tourism,Youth Affairs,Skill Development"
7,Aabru Womens Welfare Society,5777-S ,Jammu & Kashmir, Srinagar ,"Bemina Hamdania Colony, ",,"Children,Differently Abled,Education & Literacy,Food Processing,HIV/AIDS,Human Rights,Women's Development & Empowerment,Art & Culture,Biotechnology,Disaster Management,Drinking Water,Health & Family Welfare,Minority Issues"
8,Aagaz-E- Hunar,848,Jammu & Kashmir, Tangmarg ,Chandilora Tangmarg Baramulla J,,"Art & Culture,Children,Education & Literacy,Aged/Elderly,Health & Family Welfare,Human Rights,Urban Development & Poverty Alleviation,Women's Development & Empowerment,Skill Development"
9,Aagosh Sultan Ul Arfeen Yateem Trust,337/PD/15,Jammu & Kashmir, Srinagar ,"Muslim Abad, Behind Arise Hyunai Showroom, Bye Pass, Bemina Srinagar, Kashmir",,"Agriculture,Art & Culture,Biotechnology,Education & Literacy,Environment & Forests,Health & Family Welfare,Human Rights,Information & Communication Technology,Right to Information & Advocacy,Scientific & Industrial Research,Women's Development & Empowerment,Skill Development"
10,Aal-E-Yaseen Human Resources Development Society,6382-S,Jammu & Kashmir, Srinagar ,"Dab Ganderbal ,Jammu And Kashmir 191131",191131,"Women's Development & Empowerment,Agriculture,Art & Culture,Children,Civic Issues,Disaster Management,Drinking Water,Education & Literacy,Aged/Elderly,Environment & Forests,Health & Family Welfare,Human Rights,Legal Awareness & Aid,Minority Issues,New & Renewable Energy,Sports,Tourism,Tribal Affairs,Urban Development & Poverty Alleviation,Vocational Training,Water Resources"
1,Project Implementing Commitee Kinnour,2506/82,Himachal Pradesh, Reckong Peo ,Project Implementing Commitee (Pic) Near Pnb Bank Reckong Peo Teh Kalpa Distt Kinnaur Himachal Pradesh Pin : 172107,172107,Women's Development & Empowerment
2,Aachhri Integrated Rural Development And Social Welfare Society,1384/2020,Himachal Pradesh, Kullu ,House No. 146 Ward No. 07 Village Shishamati Po Dhalpur Tehsil And District Kulllu,,NaN
3,Aadarshni Welfare Society,1178/2018,Himachal Pradesh, Shimla ,"Lamba Cottage, Khalini, Shimla171002 (Hp)",171002,"Education & Literacy,Art & Culture,Children,Environment & Forests,Health & Family Welfare"
4,Aadhunik Education Society,668/94/C/H/RC,Himachal Pradesh, Dharmshala ,Aadhunik Public Schooltapovan Road Sidhpurdharmshala Distt-Kangra(H.P) Pin -176057,176057,Education & Literacy
5,Aakar Theatre Society,HPCD-1588,Himachal Pradesh, Mandi ,"Village- Sehli, Po- Sehli, Tehsil-Kotli, Dist.- Mandi, State- Himachal Pradesh, Pin: 175052",175052,Art & Culture
6,Aasra Foundation,1237/2018,Himachal Pradesh, Kangra ,Aasra Foundation C/O Sh Prakash Chand Village Ambari P.O. Malan Teh. Nagrota Bagwan Distt. Kangra Hp-176047,176047,"Children,Education & Literacy,Human Rights,Women's Development & Empowerment,Youth Affairs,Any Other"
7,Aasthawelfaresociety Nahan,119/96,Himachal Pradesh, Nahan ,Aastha Welfare Society Nahan Near Panchayat Bhawan Pucca Tank,,"Children,Differently Abled,Education & Literacy,Aged/Elderly,Vocational Training"
8,Aavishkaar Yaatraa ,394/2016,Himachal Pradesh, Palampur ,"Village Kamlehar, Mouza Kandbari",,Education & Literacy
9,Abhilashi Shiksha Samiti,48/2001,Himachal Pradesh, Mandi ,"Po Nerchowk,",,NaN
10,Abhinaya Durpan,396/2006,Himachal Pradesh, Shimla ,House No. 145/6Muslim Trust Buildinglower Bazar,,Art & Culture
1,17000 Ft Foundation,U93000DL2012NPL2384152012-2013,Haryana, Guragaon ,"Q-139, South City-1, Gurgaon, Haryana, 122001",122001,"Education & Literacy,Tourism,Children,Rural Development & Poverty Alleviation"
2,37 Links Driver Welfare Society,HR019202002101,Haryana, Ballabhgarh ,"Plot No. 80, Sector58, Transport Nagar, Ballabhgarh, Faridabad (Hr)121004",121004,Any Other
3,3R Waste Foundation,U93000HR2016NPL066024,Haryana, Gurgaon ,"128, National Media Centre, Nh-8, Gurugram",,"Drinking Water,Environment & Forests,Micro Finance (SHGs),Urban Development & Poverty Alleviation,Vocational Training"
4,3Rd Bell Foundation,407-2021-2022,Haryana, Faridabad  ,H.No Fca -2760 S.G.M Nagar Faridabad-121001,121001,NaN
5,3Rzw Environment Foundation,AABCZ5990L,Haryana, Gurgaon ,"328 Eros Corporate Parkblock-K, Imt Manesargurugram, Haryana",,"Disaster Management,Education & Literacy,Environment & Forests,Micro Small & Medium Enterprises,New & Renewable Energy,Rural Development & Poverty Alleviation,Urban Development & Poverty Alleviation,Vocational Training,Women's Development & Empowerment"
6,A Better Chance Provider Charitable Trust,2015/11/25/20,Haryana, Bhiwani ,"House No. 355, Ram Nagar Colony, Bhiwani, Haryana",,"Agriculture,Art & Culture,Civic Issues,Drinking Water,Education & Literacy,Food Processing,Right to Information & Advocacy,Water Resources,Any Other,Skill Development"
7,A Foundation Trust,HR/GGN/2021/1815,Haryana, Gurgaon ,"S-235Ff Uppal, Southend, Sector-49",,"Art & Culture,Food Processing,Health & Family Welfare,Children,Education & Literacy,Environment & Forests,Human Rights,Vocational Training,Any Other,Skill Development"
8,A K Yuva Shakti Trust,1662,Haryana, Rohtak ,Village And Post Office Kharawar Tehsil Sampla District Rohtak Haryana,,"Children,Education & Literacy,Labour & Employment,Rural Development & Poverty Alleviation,Sports,Vocational Training,Youth Affairs,Any Other,Art & Culture,Women's Development & Empowerment"
9,A New Friends Club,HR/009/2022/00633,Haryana, Jind ,"Village Nidana, Distt. Jind-126114 (Haryana)",126114,"Agriculture,Education & Literacy,Human Rights,Information & Communication Technology,Legal Awareness & Aid,Right to Information & Advocacy,Rural Development & Poverty Alleviation,Women's Development & Empowerment"
10,A S Education And Welfare Society,00874,Haryana, Bhiwani ,Vpo Tigrana Distt Bhiwani Haryana 127021,127021,"Education & Literacy,Vocational Training"
1,.Swami Shri Manoharranand Manu Seva Sangh,E/1479/SURAT,Gujarat, Surat ,"At. :- Kaveri Sangam , Anaval Crossta. :- Mahuva , Dist.:- Surat",,"Education & Literacy,Aged/Elderly,Health & Family Welfare,Women's Development & Empowerment,Any Other"
2,1995Hope Of Light Association,U85300GJ2022NPL134966,Gujarat, Anand ,7/A Bhailal Residency Nr Sai Baba Mandir Village Karamsad (M) Taluka Anand Dist. Anand Gujarat India 388325,388325,"Children,Education & Literacy,Health & Family Welfare,Human Rights,Women's Development & Empowerment,Youth Affairs,Any Other,Skill Development"
3,1Million Entrepreneurs International Forum,U80903GJ2023NPL138272,Gujarat, Ahmedabad  ,"C-504,Parmeshwar-4,School,Bh Godrej Garden City,Jagatpur Ahmedabad Ahmedabad Gj 382470 India",382470,NaN
4,365 Foundation Rajkot,E â€“ 11222 â€“ RAJKOT,Gujarat, Rajkot ,â€œSohamâ€ Shree Ram Park Main Road Near Varudi Dairy Farm Behind Balaji Hall 150 Feet Ring Road,,NaN
5,451 Varsh Juna Patliya Virvadi Hanuman Charitable Trust,A/590/NAVSARI,Gujarat, Navsari ,"Beside Virvadi Temple,Dharagiri, Kabilpore S.O, Navsari,Gujarat, India396424",396424,NaN
6,4Leg Rescue Foundation,E/22963/AHMEDABAD,Gujarat, Ahmedabad ,"55, Giriraj Society, Part 2, Nr. Hp Petrol Pump,K.K.Nagar Road, Ghatlodia, Ahmedabad382481",382481,"Animal Husbandry, Dairying  &  Fisheries"
7,84 Kp Pragati Mehsana,A/2741/Mehsana,Gujarat, Mehsana ,"6/7/8, Prabhu Complax , Third Floor, Near Rajkamal Petrol Pump Highway, Mehsana",,NaN
8,9 To 9 Destiny Group Charitable Trust,E/7299,Gujarat, Surat ,"D-110,Mahadev Nagar,Parvat Gam,Surat",,NaN
9,A S Foundation And Charitable Trust,F/5655/BK,Gujarat, Palanpur ,A S Foundation And Charitable Trust65 Shakti Nagar Near Brijashvar Colony Part:1 Palanpur Dist: Banshkantha Pin 385001 Gujarat,385001,Vocational Training
10,A V Vision Foundation,F/19382/AHMEDABAD,Gujarat, Ahmedabad ,"B-211, Rudra Arcade, B/S. Mayflower Hospital, Helmet Circle, Memnagar , Ahmedabad.",,Health & Family Welfare
1,Abchee Gonpa Tsogspa,103-UTL,Ladakh, Leh ,R/O Hanu Yokma P/O Khaltsi Leh U T Ladakhoffice Located At Hanu Yokma Zamchung Complex ,,Any Other
2,All Ladakh Youth Coordination Committee, 159/K/2015,Ladakh, Kargil ,Chochot Yokma Near Imam Bargah Chochot Leh Ladakh 194101,194101,"Any Other,Health & Family Welfare,Agriculture,Animal Husbandry, Dairying  &  Fisheries,Art & Culture,Children,Civic Issues,Drinking Water,Education & Literacy,Environment & Forests,HIV/AIDS,Human Rights,Labour & Employment,Minority Issues,Nutrition,Panchayati Raj,Rural Development & Poverty Alleviation,Sports,Tourism,Women's Development & Empowerment"
3,All Zangskar Gonpa Association,1700-S of 1990,Ladakh, Kargil ,"All Zangskar Gonpa Association, Duzing Photang, Maniringmo Padum Zanskarkargil (J",,NaN
4,Anjuman Imamia Leh Town,6052-S,Ladakh, Leh ,Main Bazar Leh,,"Art & Culture,Children,Civic Issues,Disaster Management,Education & Literacy,Food Processing,Health & Family Welfare,Human Rights,Land Resources,Panchayati Raj"
5,Arts Cultural And Educational Society,4945-S,Ladakh, Kargil ,Changra Garkone,,NaN
6,Association For Medicine Education And Development Amed Zanaskar,6581-S OF 2014,Ladakh, Kargil ,"Rainbow School Nerok Zanskar Nearby Govt, Degree College Zanskar,Distt. Kargil Ut Ladakh India 194302",194302,Education & Literacy
7,Az-Zahra (S) Orphanage Islamia School Kargil ,6390/S/13,Ladakh, Kargil ,"Near Kargil Filling Station, Kurbathang Kargilladakh (194103)",194103,"Children,Education & Literacy,Any Other,Rural Development & Poverty Alleviation"
8,"Bardan Cultural And Welfare Society, Bardan Gonpa",1341-S of 1987,Ladakh, Kargil ,"Bardan Gonpa, Zanskar, District Kargil( J",,NaN
9,Bodicharyavatar Society,3015,Ladakh, Leh ,Skidmang Changthangleh Ladakh,,Education & Literacy
10,Border Area Development Organisation Kargil,3407- S,Ladakh, Kargil ,Akwoou Complex Main Road Poyen Kargil Jammu And Kashmir 194103,194103,"Agriculture,Animal Husbandry, Dairying  &  Fisheries,Art & Culture,Biotechnology,Children,Civic Issues,Dalit Upliftment,Disaster Management,Drinking Water,Education & Literacy,Aged/Elderly,Environment & Forests,Food Processing,Health & Family Welfare,Housing,Information & Communication Technology,Land Resources,Micro Small & Medium Enterprises,Minority Issues,New & Renewable Energy,Panchayati Raj,Right to Information & Advocacy,Rural Development & Poverty Alleviation,Science & Technology,Sports,Tourism,Tribal Affairs,Urban Development & Poverty Alleviation,Vocational Training,Women's Development & Empowerment,Youth Affairs,Any Other"
1,Association For India International Mediation And Arbitration Services,U85300DL2020NPL366426,Delhi, South Delhi ,"F-2 Basement, Kailash Colony, Delhi South Delhi Dl 110048",110048,NaN
2,Association For Social Service And Rehabilitation Of The Aged Assra,42540 OF 2002,Delhi, New Delhi ,"Bb-9-G, Dda Flats, Munirka, Third Floor",,"Education & Literacy,Health & Family Welfare,Aged/Elderly,Differently Abled,Environment & Forests,Rural Development & Poverty Alleviation,Tribal Affairs,Vocational Training,Women's Development & Empowerment"
3,Kaivalya Plays Foundation,U85300DL2021NPL377030,Delhi, Delhi ,"A-41, Ifs Apartments, Phase-I Mayur Vihar -I Delhi -110091",110091,"Art & Culture,Any Other"
4,Rakshak For Human Alliance Foundation,276977,Delhi, Delhi ,"House No 8646 Ground Floor Gaushalla Road Landmark Gali Gopal Wali, New Rohtak Road, Karol Bagh New Delhi Central Delhi Dl 110005 In",110005,"Children,Education & Literacy,Aged/Elderly,Vocational Training,Women's Development & Empowerment,Any Other"
5,Shreedhara Human Welfare Foundation,U85300DL2019NPL348962,Delhi, Dwarka ,"Rz F-760/64 Raj Nagar, Palam Colony, New Delhi South West Delhi Dl 110077",110077,"Drinking Water,Education & Literacy,Food Processing,Labour & Employment,Women's Development & Empowerment,Environment & Forests"
6,Social Responsibility Council,U93000DL2015NPL278072,Delhi, New Delhi ,"114F/F,Pratap Bhawan,Bahadurshah Zafar Marg, Near Pyary Lal Bhawan Delhi Central Delhi 110002",110002,"Disaster Management,Drinking Water,Education & Literacy,Environment & Forests,Health & Family Welfare,Human Rights,Information & Communication Technology,Labour & Employment,Minority Issues,Panchayati Raj,Rural Development & Poverty Alleviation,Science & Technology,Tribal Affairs,Urban Development & Poverty Alleviation,Vocational Training,Water Resources,Women's Development & Empowerment,Youth Affairs,Skill Development"
7,Yatharthbodh Foundation,U85300DL2022NPL400259,Delhi, Nand Nagri ,490 1St Floor Janta Flat Gtb Enclave Nand Nagri Delhi East Delhi-110093,110093,"Agriculture,Art & Culture,Children,Education & Literacy,Health & Family Welfare,Labour & Employment,Rural Development & Poverty Alleviation,Women's Development & Empowerment,Skill Development"
8,21Vi Sadi Shiksha Trust,1418,Delhi, Delhi ,"Bh-207, Ground Floor, East Shalimar Bagh, Delhi-110088",110088,"Agriculture,Animal Husbandry, Dairying  &  Fisheries,Art & Culture,Dalit Upliftment,Differently Abled,Disaster Management,Education & Literacy,Environment & Forests,Health & Family Welfare,HIV/AIDS,Human Rights,Information & Communication Technology,Minority Issues,Rural Development & Poverty Alleviation,Women's Development & Empowerment,Youth Affairs,Any Other"
9,24X7 Care Foundation,S/2286/SDM/NW/2015,Delhi, New Delhi ,"H.No-69, 1 St Floor, Block-B, Pocket-5, Sector-4, Rohini, Delhi-110085",110085,"Children,Aged/Elderly,Health & Family Welfare,Women's Development & Empowerment"
10,321 Education Foundation,2415,Delhi, New Delhi ,"55-A, Jor Bagh",,Education & Literacy
1,'Deep' Development For Environment Education Programme,82,Jharkhand, Godda ,"Deep , Gandhi Nagar, Godda ",,"Children,Civic Issues,Education & Literacy,Legal Awareness & Aid"
2,A.R.Associate.,10078/8040/2011,Jharkhand, Jamshedpur ,"Flatno.C/1, Govinda Block , Sri Krishna Udyan, Jawaharnagar, Mango,Jamshedpur",,Education & Literacy
3,Aabad Social Welfare Foundation,U85300JH2022NPL019769,Jharkhand, Jharkhand ,"Jhirky Kathara, Bokaro, Bokaro, Jharkhand, India, 829116",829116,"Agriculture,Art & Culture,Children,Education & Literacy,Environment & Forests,Food Processing,Housing,Human Rights,Water Resources,Women's Development & Empowerment,Skill Development"
4,Aabha Creative Organization,127/2015-16,Jharkhand, Hazaribag ,"Prem Nagar, Sindoor, Hazaribag ",,"Education & Literacy,Health & Family Welfare,Vocational Training"
5,Aadarsh Gramin Swarajya,8943/154/2014,Jharkhand, Chainpur ,Near Raja Garhkashyap Muhalla,,"Agriculture,Animal Husbandry, Dairying  &  Fisheries,Children,Drinking Water,Education & Literacy,Environment & Forests,Food Processing,Health & Family Welfare,HIV/AIDS,Human Rights,Information & Communication Technology,Land Resources,Legal Awareness & Aid,Micro Finance (SHGs),Micro Small & Medium Enterprises,Nutrition,Panchayati Raj,Right to Information & Advocacy,Rural Development & Poverty Alleviation,Tribal Affairs,Urban Development & Poverty Alleviation,Vocational Training,Water Resources,Women's Development & Empowerment"
6,Aadarsh Gramin Swarajya Sansthan,842/2011-12,Jharkhand, Chainpur ,Ganesh Kumarsecretaryaadarsh Gramin Swarajya Sansthan Vill Po Ps- Chainpur (Kashyap Muhlla)Pin- 822110,822110,"Agriculture,Children,Drinking Water,Education & Literacy,Food Processing,Health & Family Welfare,HIV/AIDS,Land Resources,Micro Finance (SHGs),Nutrition,Panchayati Raj,Right to Information & Advocacy,Rural Development & Poverty Alleviation,Tribal Affairs,Urban Development & Poverty Alleviation,Vocational Training,Water Resources,Women's Development & Empowerment,Youth Affairs"
7,Aadarsh Jansewa Society ,859,Jharkhand, Daltonganj ,"House No. 71, Villramsagar, P.Ophulang, P.S.Lesliganj Palamu Jharkhand",,"Health & Family Welfare,Rural Development & Poverty Alleviation"
8,Aadikala Manch,1378,Jharkhand, Simdega ,"C/O: Banphool Nayakvill- Bongram ,Po- Bongram, Ps- Kolebira",,Art & Culture
9,Aadim Development Society,134,Jharkhand, Saraikela Kharsawan ,"Vill- Katia, Po- Chandnl, Dist- Seraikela-Kharswan Jharkhand- 832401",832401,"Agriculture,Art & Culture,Children,Drinking Water,Health & Family Welfare,Human Rights,Sports,Women's Development & Empowerment"
10,Aadivasi Mamta Jiwan Darpan Sanstha,200,Jharkhand, Lohardaga ,Bhandra (Lohardaga),,"Animal Husbandry, Dairying  &  Fisheries,Dalit Upliftment,Drinking Water,Education & Literacy,Health & Family Welfare,Micro Small & Medium Enterprises,Minority Issues,Rural Development & Poverty Alleviation,Tourism,Tribal Affairs,Women's Development & Empowerment,Youth Affairs"
1,Aim Education Society ,11/2009,Daman & Diu, Moti Daman ,"Bhitwadi, Daman Wada,Near Moti Daman. 396220. Daman ",396220,"Education & Literacy,Information & Communication Technology"
2,Damini Women'S Foundation,06/2012,Daman & Diu, Daman ,"Hiren Park, Wing Bcross Lane 3, Tinbattidilipnagarnani Daman",,"Art & Culture,Children,Differently Abled,Education & Literacy,Aged/Elderly,Environment & Forests,Food Processing,Health & Family Welfare,Information & Communication Technology,Labour & Employment,Sports,Vocational Training,Women's Development & Empowerment,Youth Affairs"
3,Holy Name Church,HQ-II/C-64/SR/78,Daman & Diu, Moti Daman ,"At Post.Moti Damandist- Ut, Pin- 396220",396220,Education & Literacy
4,"Jan Shikshan Santhan, Diu",04/2021-22,Daman & Diu, Diu ,"Swaminarayan School, Fudam, Diu-362520",362520,"Skill Development,Education & Literacy,Science & Technology,Tourism,Vocational Training,Women's Development & Empowerment,Any Other"
5,Manav Kalyan Youth Welfare Union Trust,Soc/Col/Diu/2004-05/02,Daman & Diu, Vanakbara ,"H.No. 2335, Khajuriya Street, Main Road, Vanakbara - Diu.Pin-362570.",362570,NaN
6,Om Sai Kalyan Samiti Darbhanga,ggggggggggg5,Daman & Diu, Ara ,Yhjfgyghgh,,Any Other
7,Our Lady Of Remedios Church,HQ-II/C-72/SR/78,Daman & Diu, Moti Daman ,"At Post. Moti Damandist- Ut, Pin- 396220",396220,Education & Literacy
8,Our Lady Of The Sea Church,HQ-II/O-8/SR/78,Daman & Diu, Nani Daman ,"At Post.Nani Damandist- Ut, Pin- 396210",396210,Education & Literacy
9,Samast Yuva Mandal,03/2018-19,Daman & Diu, Diu ,"H.No,704, Jalaram Society, Vanakbara",,"Agriculture,Art & Culture,Disaster Management,Education & Literacy,Health & Family Welfare,Panchayati Raj,Sports,Youth Affairs"
10,Sanyukt Yuva Mandal,07/2012-13,Daman & Diu, Diu ,"H.No,704, Jalaram Society, Vanakbara",,"Agriculture,Art & Culture,Disaster Management,Education & Literacy,Health & Family Welfare,Information & Communication Technology,Panchayati Raj,Sports,Youth Affairs,Agriculture,Art & Culture,Disaster Management,Education & Literacy,Health & Family Welfare,Panchayati Raj,Sports,Youth Affairs"
1,Adil Gandhian Society,TSR 1/2004/2/of2004.,Meghalaya, Tura ,"Araimile,New Tura, West Garo Hills,Meghalaya",,"HIV/AIDS,Health & Family Welfare,Rural Development & Poverty Alleviation,Women's Development & Empowerment,Agriculture,Differently Abled"
2,Agency For Sustainable Development Initiatives,NEW REGN.NO SR/AFSDI-30-18 OF ,Meghalaya, Shillong ,"C/O K.J.P.Synod Sepngichurch Housemission Compoundmeghalaya, Shillong-793002",793002,"Children,Differently Abled,Disaster Management,Education & Literacy,Environment & Forests,Food Processing,Health & Family Welfare,HIV/AIDS,Human Rights,Legal Awareness & Aid,Labour & Employment,Micro Finance (SHGs),Rural Development & Poverty Alleviation,Tribal Affairs,Vocational Training,Women's Development & Empowerment,Any Other"
3,All Meghalaya Minorities Students' Union,TSR.1/2005/Pt-/1997 ,Meghalaya, Shillong ,H.Q :-New Bhaitbarip.O :- New Bhaitbarip.S :- Phulbari,,"Agriculture,Animal Husbandry, Dairying  &  Fisheries,Art & Culture,Children,Civic Issues,Education & Literacy,Human Rights,Information & Communication Technology,Labour & Employment,Legal Awareness & Aid,Minority Issues,Prisoner's Issues,Youth Affairs,Any Other"
4,Annie Margaret Barr Childrens Village,SW/SD/3/87/Pt/4875-4968,Meghalaya, Shillong ,"Mawsynjri, Kharang",,"Children,Any Other"
5,Anti Corruption & Human Development Organisation,TSR. 1/2005/Pt-1/2095 OF 2018,Meghalaya, Chibinang ,"Chibinang (Plain Belt) Tura, West Garo Hills, Meghalaya,794104",794104,NaN
6,Archdiocese Of Shillong,SR/TAS-416/88 of 1988,Meghalaya, Shillong ,Archbishop Houselaitumkhrahshillong 793003Meghalaya,793003,"Education & Literacy,Health & Family Welfare,Nutrition,Vocational Training,Youth Affairs,Education & Literacy,Health & Family Welfare,Nutrition,Vocational Training,Youth Affairs"
7,Asha Rehabilitation Centre Shillong,SR/ARC-632/98 OF 1998,Meghalaya, Shillong ,"Asha Rehabilitation Centrec/O 58 Gorkha Training Centre,Happy Valley",,Differently Abled
8,Asorphi Education Society,NO.SR/AES-6/18 of 2018,Meghalaya, Shillong ,"Pynursla , East Khasi Hills, Meghalaya-793110",793110,"Agriculture,Education & Literacy,Sports,Tourism,Youth Affairs,Skill Development"
9,Auxilium Tribal Women And Children Welfare Society,MEG-RoS/2019/00058,Meghalaya, Shillong ,"Auxilium Tribal Women And Children Welfare Societyauxilium Convent, Nongthymmai â€“ Shillong 793014East Khasi Hills - Meghalaya",793014,NaN
10,Auxilium Welfare Society Mawtnum Nongpoh,MEG-RoS/2019/00348,Meghalaya, Nongpoh ,Auxilium Welfare Society Mawtnum Nongpoh,,"Children,Education & Literacy,Vocational Training"
1,Aadesh Digital Solutions Private Limited,U72900CH2019PTC042415,Chandigarh, Chandigarh ,"Sco 188-190, Sector 354-A",,NaN
2,Acharyakul Chandigarh,4293 of 2013,Chandigarh, Chandigarh ,"Acharyakul Chandigarhgandhi Smarak Bhawan, Sector16-A, Chandigarh (U.T.) 160015",160015,"Art & Culture,Children,Environment & Forests,Health & Family Welfare,Legal Awareness & Aid,Vocational Training,Women's Development & Empowerment,Youth Affairs"
3,Adarsh Shiksha Samiti Assandh,ROS-435,Chandigarh, Haryana ,"Haryana, Chandigarh",,NaN
4,Ahsas: Association For Health Systems Analysis & Strengthening,4748 of 2018,Chandigarh, Chandigarh ,"Department Of Community Medicine, School Of Public Health, Pgimer, Chandigarh",,"Health & Family Welfare,Any Other"
5,Alankartheatrechd,4225,Chandigarh, Chandigarh ,"H. No -3184 , Housing Board Complex, Ews Society , Sector -52 D , Chandigarh",,"Agriculture,Art & Culture,Children,Education & Literacy,Human Rights,Labour & Employment,Panchayati Raj,Urban Development & Poverty Alleviation,Women's Development & Empowerment"
6,Alliance Francaise Le Corbusier De Chandigarh,1146,Chandigarh, Chandigarh ,"Next To Hibiscus Garden , Sector-36 A Chandigarh",,"Art & Culture,Civic Issues,Education & Literacy"
7,Amrit Cancer Foundation,2374,Chandigarh, Chandigarh ,353 Sector 44-A,,Health & Family Welfare
8,Angel Smayra Care Foundation,124250,Chandigarh, Chandigarh ,"133/1, Khuda Jassu, Chandigarh",,"Education & Literacy,Differently Abled"
9,Appworx It Solutions Private Limited,U72900CH2012PTC033966,Chandigarh, Chandigarh ,"Netsmartz House, Plot Number 10, Rajiv Gandhi Technology Park, Chandigarh-160101",160101,NaN
10,Armaan Foundation Chandigarh,4291,Chandigarh, Chandigarh ,"Office 2682, Sector 40 C, Chandigarh, India",,"Art & Culture,Children,Education & Literacy,Aged/Elderly,Sports,Tourism,Urban Development & Poverty Alleviation,Vocational Training,Women's Development & Empowerment"
1,Aalamaram Social Service Society,149,Puducherry, Lawspet ,"No.30, Arjunan Street, Kannady Gardern, ",,Education & Literacy
2,Aanantha Kudil Charitable Trust,725,Puducherry, Puducherry ,"No 98, Edaiyanchavady Road, Karuvadikuppam, Lawspet Post,Puducherry",,"Agriculture,Animal Husbandry, Dairying  &  Fisheries,Art & Culture,Biotechnology,Children,Civic Issues,Dalit Upliftment,Differently Abled"
3,Aathmalayaa Educational Public Trust,0134 (05/17-18/T-0134),"05/17-18/T-0134), Karaikal (Puducherry", Karaikal ,"School Road, Aathmalayaa Nagar,Keezhakasakudy,Karaikal",,Education & Literacy
4,Abdul Gaffar Abdul Kareem Sait Educational Trust ,611/2018,Puducherry, Puducherry ,"568, M.G. Road,Puducherry605001.",605001,NaN
5,Achariya Educational Public Trust,229/2000,Puducherry, Pudhcherry ,"No5, Vasantha Nagar,Villianur, Puducherry.",,NaN
6,Adecom Network,108,Puducherry, Puducherry ,"Plot. No.26 , Fourth Cross Street, Extn., Mothilal Nagar, Moolakulam, Pondicherry -605 010",,"Right to Information & Advocacy,Rural Development & Poverty Alleviation,Women's Development & Empowerment,Children,Dalit Upliftment,Environment & Forests,Legal Awareness & Aid,Panchayati Raj,Vocational Training,Human Rights,Skill Development"
7,Agathe Illam Orphanage,DOC NO. 2079 OF 2015 BOOK IV,Puducherry, Pondicherry ,"No. 47/1, Fifth Cross Street, Moogambigai Nagar",,NaN
8,Agathin Aram Arivom Foundation,378 of 2020,Puducherry, Puducherry ,"No.14, First Floor, Vallalar Salai, Rajarajeswari Nagar, Near Andhra Maha Sabha, Puducherry.",,"Children,Differently Abled,Disaster Management,Education & Literacy,Environment & Forests,Skill Development,Health & Family Welfare"
9,Aic-Pondicherry Engineering College Foundation,U73200PY2018NPL008321,Puducherry, Pondicherry ,"Aic-Pondicherry Engineering College Foundationpondicherry Engineering College Campus,,Pillichavady, Puducherry, Pondicherry, Pondicherry, India,605014",605014,"Science & Technology,Information & Communication Technology"
10,Akshadha Foundation,1465/2021,Puducherry, Puducherry ,"No. 5, Kamaraj Salai, Pooranankuppam, Puducherry 605 007",,"Education & Literacy,Aged/Elderly"
1,Bright Future For Peoples And Rural Area Development Of Assam,RS/MRG/245/G/02,Assam, Morigaon ,"Old Ubi Bank Building, 2Nd Floor, Bhuragaon Natun Bazar, P.O. Bhuragaon, P.S. Bhuragaon, Marigaon, 782121",782121,"Agriculture,Animal Husbandry, Dairying  &  Fisheries,Art & Culture,Biotechnology,Children,Civic Issues,Dalit Upliftment,Differently Abled,Disaster Management,Drinking Water,Education & Literacy,Aged/Elderly,Environment & Forests,Food Processing,Health & Family Welfare,HIV/AIDS,Housing,Human Rights,Information & Communication Technology,Labour & Employment,Land Resources,Legal Awareness & Aid,Micro Finance (SHGs),Micro Small & Medium Enterprises,Minority Issues,New & Renewable Energy,Nutrition,Panchayati Raj,Prisoner's Issues,Right to Information & Advocacy,Rural Development & Poverty Alleviation,Science & Technology,Scientific & Industrial Research,Sports,Tourism,Tribal Affairs,Urban Development & Poverty Alleviation,Vocational Training,Water Resources,Women's Development & Empowerment,Youth Affairs,Any Other,Skill Development"
2,A Chik Baptist Convention,29,Assam, Bongaigaon ,"Bagpara, P.O Khagarpur, Dist: Bongaigaon",,"Any Other,Agriculture,Children,Education & Literacy,Health & Family Welfare,Women's Development & Empowerment,Youth Affairs"
3,A Ray Of Hope Society,NCH/259//B/13,Assam, Haflong ,"C/O:Madhu Sudhan Sarkar,Haflong Bazarpo/Ps:Haflong",,Youth Affairs
4,A Social For Human Resource Organisation And Improvements,RS/NAL/246/G/13 OF 2010-2011,Assam, Nalbari ,"Rup Nagar, Nalbari Gaon, Po- Gopalbazar,",,Civic Issues
5,Aadhaar Shiksha Trust,9214,Assam, Guwahati ,"C/O Mini Boro, House No 21, Ulubari, Kachari Basti, Guwahati 781007",781007,Education & Literacy
6,Aaditri Foundation,RS/KAM(M)/263/T/345,"M)/263/T/345, Guwahati (Assam", Guwahati ,"H.No-01, August Kanti Path, Beltola, P.O. Khanapara, P.S. Dispur, Guwahati, District- Kamrup Metro, Assam, ",,NaN
7,Aadya Srishti Kala Mandir Cultural Society,RS/TSK/244/F/13 of 2018-2019,Assam, Tinsukia ,"S. Dahutia Road ,Borpathar , Tinsukia , Tinsukia",,"Art & Culture,Children,Education & Literacy,Environment & Forests,Rural Development & Poverty Alleviation,Women's Development & Empowerment,Youth Affairs,Health & Family Welfare,Legal Awareness & Aid"
8,Aagan,RS/KJR/253/T/23 OF 2019 - 2020,Assam, Kokrajhar ,"Hathimata Road, Ward No: 8, Opposite Surat Press, Kokrajhar, Assam.",,"Agriculture,Education & Literacy,Environment & Forests,Health & Family Welfare,Rural Development & Poverty Alleviation"
9,Aagan Charitable Trust,1497/IV/75,Assam, Kokrajha ,Santinagarpo- Dotmadist-Kokrajharassam,,NaN
10,Aaina,KAM(M)263/C/672-2012-13,"M)263/C/672-2012-13, Guwahati (Assam", Guwahati ,"H.No.26, Pragati Path, Chandan Nagar, Ghoramara, P.O.Beltola,Guwahati-28",,Women's Development & Empowerment
1,Aalo Yijo Women Welfare Society,NO.SR/ITA/5390,Arunachal Pradesh, Aalo ,"Aalo Yijo Colony, Aalo West Siang Dist. Arunachal Pradesh",,NaN
2,Aane Siang Society,SR/ITA/4660,Arunachal Pradesh, Jomlo Mobuk ,"Jomlo Mobuk, District: Siang, Arunachal Pradesh-791003",791003,"Art & Culture,Education & Literacy,Aged/Elderly,Health & Family Welfare,Vocational Training,Women's Development & Empowerment"
3,Aarro Welfare Society,SR/ITA/1389,Arunachal Pradesh, Yingkiong ,Yahung Tekseng Simar Colony Yingkiong Po/Ps Yingkiong -791002District Upper Siang Arunachal Pradesh,791002,"Art & Culture,Environment & Forests,Health & Family Welfare,HIV/AIDS"
4,Abo Tani Orphan Hopes For Life Foundation,SR/ITA/7377,Arunachal Pradesh, Papum Pare ,"Doimukh,Papum Pare Pin-791112Arunachal Pradesh",791112,NaN
5,Abo Tani Philanthropic Mission,SR/ITA/2971,Arunachal Pradesh, Aalo ,Near St Xaviers International School. Old Agri Farm. Bogdo. Po.Ps Aalo,,"Agriculture,Animal Husbandry, Dairying  &  Fisheries,Art & Culture,Children,Disaster Management,Education & Literacy,Environment & Forests,Science & Technology,Vocational Training,Women's Development & Empowerment"
6,Abo-Tani Educational & Cultural Society,SR/ITA/277,Arunachal Pradesh, Daporijo ,"Daporijo, Upper Subansiri District, Arunachal Pradesh",,"Agriculture,Children,Disaster Management,Drinking Water,Health & Family Welfare,Information & Communication Technology,Legal Awareness & Aid,Micro Finance (SHGs),Micro Small & Medium Enterprises,Right to Information & Advocacy,Rural Development & Poverty Alleviation,Science & Technology,Tourism,Tribal Affairs,Urban Development & Poverty Alleviation,Vocational Training,Water Resources,Women's Development & Empowerment,Youth Affairs,Any Other"
7,Abotani Ashram Welfare Association,084-SR/ITA/162,Arunachal Pradesh, Naharlagun ,"Gextn., Dam Site, Near St Thomas School P.O.- Naharlagun, Distt. - Papumpare-791110Arunachal Pradesh.",791110,"Art & Culture,Civic Issues,Youth Affairs,Education & Literacy,Vocational Training"
8,Abralow Memorial Multipurpose Society,SR-ITA-2247,Arunachal Pradesh, Roing ,"Abralow Memorial Multipurpose Society Head Office : Hunli, Correspondence / Branch Office : Ezengo, Roing ,District : Lower Dibang Valley ,Arunachal Pradesh, Pin-792110",792110,"Animal Husbandry, Dairying  &  Fisheries,Aged/Elderly,Agriculture,Art & Culture,Biotechnology,Children,Civic Issues,Differently Abled,Disaster Management,Dalit Upliftment,Drinking Water,Education & Literacy,Environment & Forests,Food Processing,Health & Family Welfare,HIV/AIDS,Housing,Human Rights,Information & Communication Technology,Legal Awareness & Aid,Labour & Employment,Land Resources,Micro Finance (SHGs),Minority Issues,Micro Small & Medium Enterprises"
9,Abu Talang Memorial Society,SR/ITA/3172,Arunachal Pradesh, Itanagar ,"H.Q P Sector, Near Qtr N. 58 (Type Iii)Po Itanagardist Papum Parestate Arunachal Pradeshpin No 791111",791111,"Agriculture,Animal Husbandry, Dairying  &  Fisheries,Art & Culture,Biotechnology,Children,Civic Issues,Disaster Management,Drinking Water,Education & Literacy,Health & Family Welfare,Human Rights,Information & Communication Technology,Micro Finance (SHGs),Right to Information & Advocacy,Vocational Training,Water Resources,Women's Development & Empowerment,Youth Affairs,Any Other"
10,Achukuru Welfare Society,SR/ITA/888,Arunachal Pradesh, Ziro ,"Ziro, P.O. Ziro",,"Children,Differently Abled,Aged/Elderly,Rural Development & Poverty Alleviation,Tourism,Vocational Training,Women's Development & Empowerment,Any Other"
1,(Ankita) Association For Needy And Kindle The Illiterate Through Action,16/1994,Andhra Pradesh, Machilipatnam ,"Flat No-101, Plot Nos-919, 921, Sri Saidatta Residency, Defence Colony, Sinnikpuri Post, Secunderabad-500 094, Telangana State, India.",,"Rural Development & Poverty Alleviation,Agriculture,Education & Literacy,Environment & Forests,HIV/AIDS,Tribal Affairs,Water Resources,Women's Development & Empowerment"
2,22Nd Batch Of Jnvp,5/2019,Andhra Pradesh, Tadepalligudem ,"4-431, Ramannagudem Road, Pedatadepalli, Tadepalligudem, West Godavari District, Andhra Pradesh, 534101",534101,NaN
3,3F Swabhimaan Foundation,38/2015,Andhra Pradesh, Racherla ,3F Swabhimaan Foundationracherla Villagepentapadu (Mandal)West Godavari Dist.Andhrapradesh-534166Mobil:9951824777,534166,"Children,Aged/Elderly,Vocational Training"
4,3T Foundation,BK4/5/2022,Andhra Pradesh, Rajanagaram ,111-3-181 Ramalayam Street Narendrapuram Rajanagaram Eastgodavari-533294,533294,"Children,Education & Literacy,Women's Development & Empowerment,Environment & Forests,Water Resources,Panchayati Raj,Rural Development & Poverty Alleviation"
5,A & A Educational And It Solutions,106 OF 2013 ,Andhra Pradesh, Vizianagaram ,"Plot No. 170, Venkateswara Colony,Padmavati Nagar,Vizianagaram",,"Food Processing,Science & Technology,Vocational Training,Any Other"
6,A G R A,987/1995,Andhra Pradesh, Anantapur ,13-2-264Ramachandra Nagaranantapur - 515 001Andhra Pradesh,,"Agriculture,Art & Culture,Biotechnology,Children,Drinking Water,Education & Literacy,Aged/Elderly,Environment & Forests,Food Processing,Health & Family Welfare,HIV/AIDS,Human Rights,Legal Awareness & Aid,Micro Small & Medium Enterprises,Panchayati Raj,Rural Development & Poverty Alleviation,Science & Technology,Tribal Affairs,Women's Development & Empowerment"
7,A N R Helping Hands Welfare Association,627 OF 2019,Andhra Pradesh, Visakhapatnam ,"14-19-8, Bhanoji Thota Bc Road New Gajuwaka",,NaN
8,A S N Raju Society For Social Welfare And Rural Development,245 OF 2018,Andhra Pradesh, Bhimavaram ,"Asn Raju Society For Social Welfare And Rural Development, D.No: 2-1-50, Flat No: 502, Svr Towers, Juvvalapalem Road, Bhimavaram, West Godavari District, Andhra Pradesh, India",,"Agriculture,Animal Husbandry, Dairying  &  Fisheries,Biotechnology,Children,Dalit Upliftment,Differently Abled,Drinking Water,Education & Literacy,Aged/Elderly,Environment & Forests,Food Processing,Health & Family Welfare,HIV/AIDS,Housing,Labour & Employment,Legal Awareness & Aid,Micro Finance (SHGs),Micro Small & Medium Enterprises,New & Renewable Energy,Nutrition,Rural Development & Poverty Alleviation,Science & Technology,Scientific & Industrial Research,Sports,Tourism,Urban Development & Poverty Alleviation,Vocational Training,Water Resources,Women's Development & Empowerment,Youth Affairs"
9,A South India Rural Womens Association For Development,10 OF 1996,Andhra Pradesh, Kandukur ,Brundavanam Kandukur,,Women's Development & Empowerment
10,Aadarana,B.K.IV.185/2022,Andhra Pradesh, Tirupati ,"Flat No.104, First Floor, Garuda Gate Way Apartment, Upparapalli Check Post, Tirupati Rural, Tirupati District, Andhra Pradesh, India, Pin:517502",517502,"Children,Education & Literacy,Health & Family Welfare,Human Rights,Rural Development & Poverty Alleviation,Vocational Training,Women's Development & Empowerment,Skill Development"
1,Aastha,1030/Goa/2010,Goa, Mapusa ,"Nr. Urban Health Centre, Ghateshwarnagar, Khorlim, Mapusa.",,"Differently Abled,Education & Literacy,Vocational Training"
2,Abhivyaktee,172/Goa/2001,Goa, Panaji ,Abhivyakteepanajic/O Sandip Deshpandea/3 Kamdhenudr D.V.Roadpanajigoa 403001,403001,Art & Culture
3,Adarsh Krishi Kharedi Vikri Prakriya Sahakari Saunstha Maryadit,5/486/1993/ARS2/MKT,Goa, Cancolim Bali ,Karwar Main Road Bali Cuncoligoa South- ,,"Agriculture,Food Processing,Rural Development & Poverty Alleviation"
4,Adarsh Vidya Prasarak Mandal,12/1964,Goa, Shiroda ,C/O Smt Kamlabai Hede High School.Shiroda-Ponda-Goa,,Education & Literacy
5,Adarsh Yuva Sangh Gaondongri Kotigao,94/Goa/2002,Goa, Goa ,"Gaondongrimkotigao, Canacona,",,NaN
6,Adventz Foundation,488/Goa/2011,Goa, Mormugao ,"Jai Kisaan Bhawan, Zuarinagar",,"Education & Literacy,Agriculture,Rural Development & Poverty Alleviation,Women's Development & Empowerment,Skill Development"
7,Aggressive Goans,54/GOA/2019,Goa, Ponda ,"Kapileshwari, Ponda Goa",,"Agriculture,Art & Culture,Education & Literacy,Environment & Forests,Human Rights,Labour & Employment,Legal Awareness & Aid,New & Renewable Energy,Panchayati Raj,Prisoner's Issues,Right to Information & Advocacy,Rural Development & Poverty Alleviation,Women's Development & Empowerment,Skill Development"
8,Aic-Gim Foundation,U93090GA2018NPL013511,Goa, Sanquelim ,C/O Goa Institute Of Management Poriem Sattari North Goa Ga 403000 In,403000,NaN
9,Akhil Gomantak Maratha Rajak Samaj,41/Goa/89,Goa, Porvorim ,"Sant Gadge Maharaj Sabhagraha, Gadge Baba Chowk, Pundalik Nagar, Alto Porvorim, Bardez Goa",,"Aged/Elderly,Women's Development & Empowerment,Youth Affairs"
10,Akhil Vishwa Jai Shriram Gosanvardhan Kendra Valpoi ,"1 Of Book No.IV, Vol I ",Goa," Vol I , Valpoi ","H,No:-61/1,Betkikarwada,Nanus Valpoitaluka- Sattari, District-North, State-Goa",,"Animal Husbandry, Dairying  &  Fisheries"
1,Maitreya Project,956,Bihar, Gaya ,"Bodhgaya, Gaya-Biharpin-824231",824231,NaN
2,Raja Bhaiya Foundation,U80901BR2022NPL056293,Bihar, Vaishali ,"Vil-Afajalpur, P.O-Chakmaruf, Panc- Misraulia Afajalpur, Vaishali",,"Aged/Elderly,Rural Development & Poverty Alleviation,Skill Development,Education & Literacy"
3,Siksha Aarogyam Foundation,U85300BR2022NPL057204,Bihar, Gardanibagh ,C/O Sri Virendra Mohan Pd New Yarpur Behind Jhun Mahal Gardanibagh Patna Patna Br 800001 In,800001,NaN
4,21St Century Rural Development Institute.,78/1989-90,Bihar, Jhanjharpur ,"Village And Postsukhet, Viajhanjarpur, Districtmadhubani, Bihar847404",847404,NaN
5,24X7Ministry,4109/2010,Bihar, Patna ,"Aprajita Building, First Floor, Opp. A.N. College, Near Axis Bankboring Road",,Children
6,360 Research Foundation,7834/2017,Bihar, Narkatiaganj ,"Tumakadiya, Post Office:- Rajpur (Madan), Pin Code- 845455, Police Station:- Shikarpur, District:- West Champaran, Bihar, India",845455,"Science & Technology,Agriculture,Biotechnology,Children,Disaster Management,Drinking Water,Education & Literacy,Environment & Forests,Micro Small & Medium Enterprises,New & Renewable Energy,Rural Development & Poverty Alleviation,Scientific & Industrial Research,Any Other"
7, 3H Foundation,058489,Bihar, Muzaffarpur  ,"C/O Rukhsana Khatoon,Vill-Muzaffarpur Tola Ward No33,Block-Musahri Muzaffarpur Muzaffarpur Br 842002 In",842002,"Dalit Upliftment,Education & Literacy,Health & Family Welfare,Art & Culture,Women's Development & Empowerment,Children,Differently Abled,Disaster Management,Aged/Elderly,Environment & Forests,Human Rights,Labour & Employment,Legal Awareness & Aid,Rural Development & Poverty Alleviation,Science & Technology,Vocational Training,Skill Development"
8,A Brilliant Charitable And Development Trust,DEED NO.- 18,Bihar, Jehanabad ,"Purni Bijli Colony, P.O. P.S.Jehanabad",,"Art & Culture,Education & Literacy,Aged/Elderly,HIV/AIDS,Skill Development"
9,A Center For Cultural Educational & Social Sufferers(Access),491/91-92,Bihar, Patna ,"R.O.: C/O Yatindra Mohan Shandilya,Jagat Narayan Lal Road, Kadamkuan; H.O.: C/O Sanjeev Medicals, Opp. Sbi, Ashok Rajpath, Mahendru,Patna- 6;Branches:(A) Ankita Arvind, H202, Smondo-3, Neotown, Electronic City, Phase-1, Bangalore-560100(B) Dr. M K Mishra, Ward No. 2, Nawa Toli, Sana Road, Jaspur Nagar, Chhattisgarh-496331(C) Yogita Yamini,5/201,Shalimar Sterling,Raisen Road,Bhopal-462022",560100,"Agriculture,Vocational Training,Women's Development & Empowerment,Art & Culture,Biotechnology,Differently Abled,Dalit Upliftment,Education & Literacy,Aged/Elderly,Health & Family Welfare,Legal Awareness & Aid,Nutrition,Rural Development & Poverty Alleviation,Human Rights,Prisoner's Issues,Urban Development & Poverty Alleviation,Any Other"
10,A Future Of Children In Bodhgaya Society ,51/2004,Bihar, Gaya ,Vill Durgapur Monia ,,Education & Literacy
1,Balwatika Society Helers Of Mary,6/94,Dadra & Nagar Haveli, Dadra And Nagar Haveli ,Balwatika Society Of Helpers Of Mary,,"Children,Education & Literacy,Women's Development & Empowerment"
2,Bharatiya Adim Jati Sevak Sangh,S-404,Dadra & Nagar Haveli, Silvassa ,"Bharatiya Adim Jati Sevak Sangh, Branch Khanvel, Dadra Nagar Haveli, (Ut)",,"Tribal Affairs,Vocational Training,Women's Development & Empowerment,Youth Affairs,Skill Development"
3,Bjj Memorial Educational Charitable Truct,2249/09,Dadra & Nagar Haveli, Silvassa ,"491/1/P, Bhoyapada, Nr. Alok City, Sayli",,Any Other
4,Church Of Sacred Heart Of Jesus,HQ-II/C-64/SR/77,Dadra & Nagar Haveli, Dapada ,"At Post. Dapada, Town-Silvassadist:Utpin. 396230",396230,Education & Literacy
5,Deshaj Pratisthan,20/DP/2013,Dadra & Nagar Haveli, Silvassa ,"House No. 306, Parzai, Gp-Kherdi, Ut Of Dadraand Nagar Haveli Daman And Diu",,"Art & Culture,Children,Civic Issues,Education & Literacy,Health & Family Welfare,Land Resources,Rural Development & Poverty Alleviation,Tribal Affairs,Women's Development & Empowerment,Youth Affairs"
6,Gyanmata Eudcational Society,2/82,Dadra & Nagar Haveli, Silvassa ,"Premal Deep, Zanda Chowk",,"Children,Education & Literacy"
7,Human Rights Mission,15/HRM/2017,Dadra & Nagar Haveli, Silvassa ,"Plot No. 126, Kilvani Naka,Near Jalaram Temple,Silvassa",,Human Rights
8,Humanists India Foundation,U85300DN2022NPL005726,Dadra & Nagar Haveli, Silvassa ,"A407, Tirupati Residency, Nr. Balaji Mandir, Amli Char Rasta Silvassa Dadra ",,"Labour & Employment,Agriculture,Civic Issues,Education & Literacy,Environment & Forests,Food Processing,Human Rights,Legal Awareness & Aid,Nutrition,Urban Development & Poverty Alleviation,Women's Development & Empowerment,Youth Affairs,Skill Development"
9,Indian Red Cross Society,constituted under Act XV,Dadra & Nagar Haveli, Silvassa ,"Indian Red Cross Society,Dadra ",,"Aged/Elderly,Children,Differently Abled,Education & Literacy,Health & Family Welfare"
10,Jan Shikshan Sansthan Dnhs,13/JSSDandNHS/2009,Dadra & Nagar Haveli, Silvassa ,"Jan Shikshan Sansthanramsadan, Beside Central Library,Opposite Town Hall, Vapi Road,Silvassa - 369 230 Ut Of Dadra And Nagar Haveliu.T. Of Dadra ",,"Education & Literacy,Vocational Training,Women's Development & Empowerment"
1,21St Century Education Society,XXI OF 1860 REGD NO 31903,Chhattisgarh, Janjgir ,Brilliant Public Schoolakaltara Roadjanjgir,,Education & Literacy
2,A K Vikassheel Shikshan Sansthan,27693,Chhattisgarh, Korba ,House No-675 Aaramashin New Kashi Nagar Niharika Korba Chhattisgarh ,,NaN
3,A New Hope & Strength Foundation Society,122202239340,Chhattisgarh, Surajpur ,"Hig-406, Sector-27, Naya Raipur",,"Animal Husbandry, Dairying  &  Fisheries,Art & Culture,Children,Dalit Upliftment,Differently Abled,Drinking Water,Education & Literacy,Aged/Elderly,Environment & Forests,Health & Family Welfare,Information & Communication Technology,Labour & Employment,Micro Small & Medium Enterprises,Minority Issues,New & Renewable Energy,Panchayati Raj,Rural Development & Poverty Alleviation,Scientific & Industrial Research,Sports,Tribal Affairs,Urban Development & Poverty Alleviation,Vocational Training"
4,A New Path Of Life Foundation,122201871554,Chhattisgarh, Raipur ,"250/1 Rampara Ward No. 16, Pamgarh, Mehandi, Janjgir-Champa, State Chhattisgarh, India, Pin- 495556",495556,"Agriculture,Animal Husbandry, Dairying  &  Fisheries,Art & Culture,Biotechnology,Children,Civic Issues,Dalit Upliftment,Disaster Management,Drinking Water,Education & Literacy,Environment & Forests,Food Processing,Health & Family Welfare,HIV/AIDS,Human Rights,Legal Awareness & Aid,Micro Finance (SHGs)"
5,A S B S Foundation,31668,Chhattisgarh, Bhilai ,"Shakuntala Vidhyalay Road, Gayatri Mandir Ward No 13, Ramnagar Bhilai, Dist- Durg",,"Women's Development & Empowerment,Vocational Training"
6,A Society For Education Welfare And Ability,6130,Chhattisgarh, Bhilai ,Lig 149 Old Deendayal Colony Junwani Road Bhilai Bhilaichhatishgarh490020,490020,"Education & Literacy,Health & Family Welfare,Information & Communication Technology,Vocational Training,Any Other"
7,Aabhar Green Energy & Tribal Development Foundation,U85190CT2022NPL012635,Chhattisgarh, Bilaspur ,Clc Plaza Shop No.Fs31 Mangla,,"Agriculture,Art & Culture,Disaster Management,Drinking Water,Education & Literacy,Environment & Forests,Human Rights,Minority Issues,Tribal Affairs,Vocational Training"
8,Aachalmahila Swa Sahayata Samuh,31229,Chhattisgarh, Kawardha ,"Ward No.16, Near Holicrass School, Shankar Ghat, Kawardha, District-Kabirdham (Chhattisgarh)",,"Food Processing,Health & Family Welfare,HIV/AIDS,Human Rights,Urban Development & Poverty Alleviation,Women's Development & Empowerment"
9,Aadarsh Chhabbinath Dubey Shikshan Samiti,461,Chhattisgarh, Surajpur ,"Near Shankar Mandir Ketka Road, Manpur Dist.-Surajpur",,Agriculture
10,Aadarsh Foundation,IN-DL53953647265344S,Chhattisgarh, Jashpur ,"Head Office : Palace Road, Banki Toli Jashpur Nagar, District-Jashpur",,NaN
