S.No.,State,District,Organization Name,Email,Address,Phone No.,Schemes Enrolled,Authorized Person
1, Andhra Pradesh ,Krishna											,SIRISHA REHABILITATION CENTRE,srcpamidi@yahoo.com,"
												DNO 3  /57, Veerankilock,PAMIDIMUKKALA(MD), VEERANKILOCK - 521250   
											", 9441413161 ,"
												Vikaas,Disha												 												Niramaya											",M IMMANUEL
2, Andhra Pradesh ,Krishna											,Kasinadhuni Durgamba Butchaiah Trust,kdbtrust_elakurru@yahoo.com,"
												3-74, NEAR S.F.U.P SchoolINK Road, Elakurru - 521156   
											", 9441195424 ,"
												Disha,Vikaas																																			",Kasinadhuni Nageswara Rao
3, Andhra Pradesh ,Godavari East											,Uma Educational and Technical Society,umamanovikasakendram@gmail.com,"
												4 -54, Uma Manovikas NagarVakala Pudi Panchayath, Near Ryudupalem, Kakinada, District-East Godavari - 533005   
											", 9848164779 ,"
												Badhte Kadam,Gharaunda												 												Niramaya											",S.P.Reddy
4, Andhra Pradesh ,Vishakhapatnam											,Sreya Foundation,sreyafoundation@yahoo.co.in,"
												D.No.9-11-8/30, Sivajipalemopp road Sivajipark main gate, VISAKHAPATNAM - 530017   
											", 9290457978 ,"
												Samarth,Badhte Kadam,Vikaas,Disha																																			",Dr. Usha Devi.P
5, Andhra Pradesh ,Guntur											,Sri Dakshinya Bhava Samithi,dakshinya1995@yahoo.com,"
												Madhavi Nilayam, Swarna Bharathi NagarJ.K.C. College Road, New RTO office, Guntur - 522006   
											", 7702977499 ,"
												Gharaunda,Samarth,Vikaas,Badhte Kadam																																			",Dr. T. Venkateswara Rao
6, Andhra Pradesh ,Sri Potti Sriramulu Nellore											,Vasantha Lakshmi Charitable Trust and Research Center,vasanthalakshmi1998@gmail.com,"
												16-11-131, Kasturi Devi NagarPogathota, Nellore - 524001   
											", 9000114422 ,"
												Badhte Kadam,Vikaas,Disha																																			",Smt. Dr. T. Vasantha Lakshmi
7, Andhra Pradesh ,Vishakhapatnam											,The Ability People,theabilitypeople@gmail.com,"
												Door no. 49-27-10,, Sashi Raj Palace,Madhura Nagar, Near Sitammapet Jn., Visakhapatnam - 530016   
											", 9177363600 ,"
																								 												Niramaya											",DILIP KUMAR PATRO UNA
8, Andhra Pradesh ,Krishna											,TADEPALLIS  SATYA SAI CHEYUTHA SOCIETY,cheyutha36@gmail.com,"
												PLOT-18,ROAD-3,SECTOR-4,, LOTUS LAND MARKKEDARESWARAPET, VIJAYAWADA, VIJAYAWADA - 520003   
											", 9440421781 ,"
												Disha,Vikaas,Badhte Kadam												 												Niramaya											",Dr.T.Krishna Kumari
9, Andhra Pradesh ,Srikakulam											,Sunlight Educational Society,vijbhs@gmail.com,"
												Opp M I G 65, A P H B ColonyNear Santhoshimatha Temple, Srikakulam - 532001   
											", 9989998602 ,"
												Vikaas																																			",B N R sekhar
10, Andhra Pradesh ,Kurnool											,AMBIKA  SISHU  KENDRA   A Unit of Hemchand Devchand Charities Trust,askknl@yahoo.co.in,"
												44/86/C, PRAKASH NAGARPRAKASH NAGAR AUTO STAND, KURNOOL - 518004   
											", 9395520111 ,"
																								 												Niramaya											",BINDU N SHAH
"
																								Â ",,,,,,,,
 Page 1 of 55 ( 542 records ) ,,,,,,,,
11, Andhra Pradesh ,Guntur											,AWARDS YUVA TECH AUTHORISED COMPUTER CENTRE,awards1979@gmail.com,"
												9-20-1035/1, Syamalanagar, 1st laneNear old Railway Track, Guntur - 522006   
											", 9182877433 ,"
																																															",P VENKATA RAO
12, Andhra Pradesh ,Guntur											,PRABHATA SINDHURI EDUCATIONAL SOCIETY,prabhatasindhuri@gmail.com,"
												16-1-21, Ward No - 4, 3rd LINE NAVABHARAT NAGARBESIDES LIBRARY, GUNTUR - 522006   
											", 9392227337 ,"
												Vikaas,Disha												 												Niramaya											",VSS JAYALAKSHMI YAMIJALA
13, Andhra Pradesh ,Godavari East											,SANTHIVARDHANA MINISTRIES,santhivardhana_ministries@yahoo.co.in,"
												4-152, Pulimeru VillageChadalada Post, Peddapuram Mandal, East Godavari District - 533433   
											", 9177899997 ,"
																																															",R. Veerababu
14, Andhra Pradesh ,Chittoor											,VELUGU,velugu1mpl@yahoo.co.in,"
												12/2/A, AMMACHERUVUMITTA, KOLLABAILUKADIRI ROAD, MADANAPALLE - 517325   
											", 9440585285 ,"
												Gharaunda,Disha																																			",M UDAY MOHAN REDDY
15, Andhra Pradesh ,Krishna											,Assisi Health Care Society,delcyputhenpurayil@gmail.com,"
												335c, Lakshmipuram mainMilk Chilling Centre, Tiruvur - 521235   
											", 9912070844 ,"
												Vikaas																																			",Sr Elsy Thomas
16, Assam ,Kamrup Metro											,Destination,anjal28@gmail.com,"
												59, Bhagaduttapur, KahiliparaNear Synergy Imperial, Guwahati - 781019   
											", 9954530985 ,"
																																															",Rupa Hazarika
17, Assam ,Jorhat											,Prerona Pratibandhi Sishu Bikash Kendra,prerona123@rediffmail.com,"
												17, P.O. CinnamaraDistrict  -Jorhat, Assam - 785008   
											", 9854044474 ,"
												Disha,Samarth,Badhte Kadam												 												Niramaya											",Sayera Rahman
18, Assam ,Cachar											,Deshbandhu Club,deshabandhuclub@rediffmail.com,"
												Behara Bazar, P.O. Behara BazarBehara Bazar, Silchar - 788817   
											", 9435174392 ,"
												Samarth												 												Niramaya											",Dr. Sanjib Sikidar
19, Assam ,Kamrup Metro											,SHISHU SAROTHI CENTRE FOR REHABILITATION  AND TRAINING FOR MULTIPLE DISABILITY,shishusarothi@gmail.com,"
												000, Ramakrishna Mission Roadopp to Tripura Bhawan, Guwahati - 781016   
											", 9435040607 ,"
																																															",KETAKI BARDALAI
20, Assam ,Kamrup Metro											,ASHADEEP,anjanagos@yahoo.co.in,"
												3B, Piya Apartment, Kanaklata Path,Near Big Bazar, Guwahati - 781007   
											", 9864077861 ,"
																																															",Mr. Mukul Ch Goswami
"
																								",,,,,,,,
 Page 2 of 55 ( 542 records ) ,,,,,,,,
21, Assam ,Nagaon											,Gram Vikas Parishad,gramvikasparishad@gmail.com,"
												1, National Highway 36Rangaloo Wafa Enterprise, Nagaon - 782427   
											", 9435060538 ,"
																																															",Samsheddin Ahmed
22, Assam ,Dibrugarh											,Mrinaljyoti Rehabilitation Centre,mrinaljyoti@yahoo.co.in,"
												93, Duliajan, Kumudnagar RoadNear Kumdnagar Namghar, Duliajan - 786602   
											", 9954485197 ,"
												Disha												 												Niramaya											",Mrs. Amiya Pathak Borpujari
23, Assam ,Sivasagar											,KAUMUDALAYA,runjun.chutia1969@gmail.com,"
												7, Dubarani aliNear sub divisional social welfare office, Sivasagar - 785640   
											", 8638074910 ,"
																								 												Niramaya											",RUNJUN CHUTIA
24, Assam ,Kamrup Metro											,Sahayika Sishu Nirdeshan Kendra,utpalasharma@hotmail.com,"
												house no 3, Sahayika Sishu Nirdeshan Kendra,Govt Press Road, Bamunimaidam, Guwahati 781021near Govt Press, Guwahati - 781021   
											", 9435192317 ,"
												Disha																																			",Subodh Sharma
25, Bihar ,Sitamarhi											,AAROGYAA FOUNDATION FOR HEALTH PROMOTION AND COMMUNITY BASED REHABILITATION,aarogyaafoundation@gmail.com,"
												COAT BAZAR, WARD No 13MAHARANI STHAN, SITAMARHI - 843302   
											", 9934691872 ,"
												Badhte Kadam,Sahyogi,Disha,Vikaas																																			",DR RAJESH KUMAR SUMAN
26, Bihar ,Patna											,Child Concern,childconcernindia@gmail.com,"
												103, Sheela Complex, New Bahadurpur, Bazar Samiti Road, Rajendra NagarShyam Mandir, Patna - 800016   
											", 9934977499 ,"
																								 												Niramaya											",Sulekha Kumari
27, Bihar ,Muzaffarpur											,BABA GARIBNATH VIKLANG SAH JAN SEVA SANSTHAN,babagarib1947@gmail.com,"
												WARD NO 26, KALAMBAGH ROADHANUMAN MANDIR, MUZAFFARPUR - 842001   
											", 9334498630 ,"
																																															",DEEPIKA CHOUDHARY
28, Bihar ,Patna											,BIHAR ASSOCIATION OF PERSON WITH DISABILITIES,biharassociationofpwd@gmail.com,"
												Patel Colony, Sandalpur, Mahendru, BahadurpurMahendru, Patna - 800006   
											", 9386208309 ,"
																																															",HIRDAY YADAV
29, Bihar ,West Champaran											,TAPOVAN BAHUVIKLANG PUNARVAS SANSTHAN,info.tapovanbihar@gmail.com,"
												142, S.P Colony, Barwat Prasarain, Muffasil, BettiahITI Road, Bettiah - 845438   
											", 9852167545 ,"
												Disha,Vikaas,Badhte Kadam												 												Niramaya											",VIKRAM KUMAR SINGH
30, Bihar ,Patna											,SAMARPAN   SPECIAL SCHOOL FOR AUTISM  CP MR SLOW LEARNER DEAF AND LEARNING DISABILITIES,samarpanindia100@gmail.com,"
												SAMARPAN, ILLAHIBAGH, NEW BUS STAND BARIYA,PATNA GAYA ROAD, West South of Badshahi Pan, PO--BARIYA, Patna - 800007   
											", 7991189522 ,"
																								 												Niramaya											",SANTOSH KUMAR SINHA
"
																								",,,,,,,,
 Page 3 of 55 ( 542 records ) ,,,,,,,,
31, Bihar ,Patna											,Utkarsh Seva Sansthan,utkarshsevasansthan@gmail.com,"
												2H/77Bahadurpur Housing Colony, Mahatma Gandhi Nagar ,KankarbagNear Bhootnath Road, Patna - 800026   
											", 8294370626 ,"
																								 												Niramaya											",Manisha Krishna
32, Bihar ,Gaya											,Environmental Consultancy Vikash Centre,gsecovic@hotmail.com,"
												ECOVIC, South Lakhibag, Manpur,Near Laxmi Narayan Mandir, Gaya - 823003   
											", 9431623779 ,"
																																															",Vijay Kumar
33, Bihar ,Nalanda											,SHRI ARVIND FOUNDAION,alok3722@gmail.com,"
												NH-33, AT-AJNAURA, PO-AJNAURANALANDA CONVENT ITI, BIHAR SHARIF - 803114   
											", 8789173582 ,"
																								 												Niramaya											",ALOK KUMAR
34, Bihar ,Saharsa											,Koshi Kshetriya Biklang Bidhwa Bridh Kalyan Samiti,koshibiklang1991@gmail.com,"
												D.B.Road, Saharsa, Behind of Punjab National BankNear of Rajdarbar Hotal, Saharsa - 852201   
											", 6201099468 ,"
												Disha,Samarth																																			",Binay Bhushan Prasad
35, Bihar ,Patna											,UMANG BAL VIKAS AWASIYA VIKLANG PRASHIKSHAN SANSTHAN,umangbalvikas@gmail.com,"
												FAIR FIELD COLONY, DIGHA GHATNEAR ASHADEEP, PATNA - 800011   
											", 9470732392 ,"
																																															",SATISH KUMAR
36, Bihar ,Patna											,LAXMI SMRITI SEWA SANSTHAN,lsss_society@rediffmail.com,"
												H/O SRI MITHILESH KUMAR SINGH, MITHAPUR B AREA BENGALI ROAD PATNANEAR HOPE HOSPITAL, Patna - 800001   
											", 9507035981 ,"
												Badhte Kadam																																			",DR HEMENDU KUMAR SINGH
37, Bihar ,Muzaffarpur											,RANI LAXMI BAI MAHILA VIKAS SAMITI,saphal.muzaffarpur@gmail.com,"
												SAPHAL, SUSTA RAILWAY CROSSING, RAM DAYALU NAGAROPPOSITE HOTEL ATITHI, MUZAFFARPUR - 842002   
											", 7294156409 ,"
																																															",USHA MANAKI
38, Bihar ,Nalanda											,Shama Vikas Samiti,shamavikassamiti@gmail.com,"
												13, Ansar NagarMalahbigha, Islampur - 801303   
											", 9431664173 ,"
												Samarth,Badhte Kadam,Vikaas,Vikaas																																			",Md Nizam Uddin Ansari
39, Bihar ,Patna											,AASTHA CHARITABLE AND WELFARE SOCIETY,druma.shankarsinha@gmail.com,"
												OPP PILLAR NO-56 NEAR MACHALI MARKET, RAZA BAZARMACCHALI MARKET, PATNA - 800014   
											", 9334106629 ,"
												Badhte Kadam,Sahyogi,Disha,Vikaas																																			",DR UMA SHANKAR SINHA
40, Chandigarh ,Chandigarh											,Indian National Portage Association,tehalkohli@gmail.com,"
												Room No. - 14-15, Karuna Sadan, Ist FloorRoom No. - 14-15, Sector - 11 - B, Chandigarh - 160011   
											", 9417372091 ,"
												Disha																																			",TEHAL KOHLI
"
																								",,,,,,,,
 Page 4 of 55 ( 542 records ) ,,,,,,,,
41, Chandigarh ,Chandigarh											,National Association for the Blind Chandigarh and Punjab branch,nabchd@yahoo.co.in,"
												Karuna Sadan, Room No. 6  7, Sector 11-B, Basement, Red Cross Society buildingSector 11-B, Chandigarh - 160011   
											", 9779377377 ,"
												Sahyogi																																			",Vinod Chadha
42, Chandigarh ,Chandigarh											,Umeed Society For Job Placement Of Mentally  Challenged,umeedsociety31@gmail.com,"
												UMEED SOCIETY (H.O.), GRIID, AASHADEEP BUILDING, SECTOR 31NEAR POLICE STATION, CHANDIGARH - 160030   
											", 9478376936 ,"
																																															",Dr. B.S Chavan
43, Chattisgarh ,Dhamtari											,SHANTI MAITRI GRAMIN VIKAS SANSTHAN,shanti.maitri.gvs@gmail.com,"
												C/O MANOJ KUMAR SAHU WARD NO 10, VILLAGE AND POST DARBADARBA KURUD DHAMTARI, KURUD - 493661   
											", 8319353001 ,"
												Samarth,Sahyogi,Badhte Kadam,Vikaas,Gharaunda																																			",MANOJ KUMAR SAHU
44, Chattisgarh ,Raigarh											,UNNAYAK SEVA SAMITI,ussrgh@gmail.com,"
												960/22, BEHIND UPBHOKTA FORAMSECOND TRANSFORMER KELO VIHAR COLONY, RAIGARH - 496001   
											", 9827976100 ,"
												Gharaunda,Disha,Samarth,Badhte Kadam																																			",SIDHANTA SHANKAR MOHANTY
45, Chattisgarh ,Korba											,Ankur Special School - Unit of  Ankur Korba,ankurkorba@gmail.com,"
												HIG-100, HIG-100,M.P.Nagar, Korba - 495681   
											", 9826134708 ,"
																																															",Arundhati Kulkarni
46, Chattisgarh ,Korea											,ROBERT KANAN BALA SMRITI SEWA SANSTHAN,rkbsss2001@yahoo.in,"
												70, CHAINPURBaikuntpur Road, Manendragarh - 497442   
											", 8109709730 ,"
																																															",SAPNA CHOUBEY
47, Chattisgarh ,Raipur											,Aakanksha Lions Institute of Learning  and Empowerment a unit of Lions Club Raipur Sewa Samiti,aakankshalsmh@yahoo.com,"
												Aakanksha Parisar, Avanti ViharNew Kachna Road, Raipur - 492001   
											", 9826845678 ,"
																																															",Krishna Kumar Nayak
48, Chattisgarh ,Surguja											,Anamika Welfare Society,anamika.welfaresociety07@gmail.com,"
												26, Deviganj RoadBehind of Anamika Mobile, Ambikapur - 497001   
											", 9926134076 ,"
																																															",Reeta Agrawal
49, Chattisgarh ,Kanker											,GUNDADHUR SEVA SHIKSHAN SANSTHA,Gundadhur123@yahoo.com,"
												C-1,28/ 7SECTOR-7, NEW RAJENDRA NAGAR  RAIPURNEAR SAI RAM HOSPITAL, RAIPUR - 492001   
											", 9201457567 ,"
																																															",ANIL CHANDEL
50, Chattisgarh ,Gariya Band											,PRERAK SAMITI,prerak.gbd@gmail.com,"
												SAKSHAM , REHABILITATION TRAINING CENTER FOR PERSON WITH DISABILITY, GARIABAND ROAD,  RAJIMNEAR SINDHOURI CHOWK, Rajim - 493885   
											", 9424218653 ,"
																																															",Mr. R G Sinha
"
																								",,,,,,,,
 Page 5 of 55 ( 542 records ) ,,,,,,,,
51, Chattisgarh ,Raipur											,Samvedna Mansik Viklang Seva Sanstha,samvedna.smh@gmail.com,"
												52/509, Sundar NagarHoly Mother School, Raipur - 492013   
											", 9302090820 ,"
																																															",Meena Sharma
52, Chattisgarh ,Bastar											,Manovikas Special School Aghanpur Jagdalpur  Bastar Dist Run By Bastar Viklang Seva Samiti,manovikasjdp@gmail.com,"
												93, Chatrapati Shivaji Ward no 35, AghanpurDharampura, Jagdalpur - 494001   
											", 7748012890 ,"
																																															",Sr Betsy Thomas
53, Chattisgarh ,Raipur											,Kopal Vani Child Welfare Organization,kopalvani@gmail.com,"
												06, Sahaj Marg, Sunder NagarBehind KPS School, Raipur - 492013   
											", 8871415388 ,"
												Disha																																			",Kopal Vani Child Welfare Organization
54, Chattisgarh ,Bilaspur											,Vikas Seva Sanstha Samalpuri Bilaspur,vssgarounda2000@gmail.com,"
												domuhani, Garima Press Parisar Tilak Nagar Chantapara Bilaspur C.G.Behaind Chowkse Coledge Lal Khadan, Bilaspur - 495001   
											", 9827186959 ,"
																																															",Smt. Anshu Gour
55, Goa ,North Goa											,Disha Charitable Trust,disha.sare.ansh@gmail.com,"
												Disha Charitable Trust, 18 June RoadBehind Directorate Of Education, Panaji, Goa - 403001   
											", 9822980015 ,"
																																															",Sandhya Kalokhe
56, Goa ,South Goa											,Lokvishwas Pratishthan Special School,morearvind74@rediffmail.com,"
												6/3, Shantadurga KrupashramDhavali, Ponda - 403401   
											", 9422059580 ,"
																																															",Shri. Anup S.S. Priolkar
57, Goa ,North Goa											,Anand Niketan School For Differently Abled Run By Aastha,anandniketangoa@gmail.com,"
												1, Ghateshwarnagar,Nr. Urban Health CentreKhorlim, Mapusa, Mapusa - 403507   
											", 7499461832 ,"
																																															",Mr. Guruprasad Pawaskar
58, Goa ,North Goa											,Sangath,contactus@sangath.in,"
												451/168, Bhatkar vaddoSocorro Porvorim, Porvorim - 403501   
											", 9881499458 ,"
																																															",Ms. Monica Bariya
59, Goa ,North Goa											,SETHU,reachus@sethu.in,"
												35, Defence Colony, Alto PorvorimDefence Colony, Porvorim - 403521   
											", 7720013749 ,"
												Badhte Kadam,Badhte Kadam,Sahyogi,Badhte Kadam,Badhte Kadam,Sahyogi,Sahyogi,Sahyogi,Badhte Kadam,Badhte Kadam,Badhte Kadam,Sahyogi,Sahyogi,Badhte Kadam,Badhte Kadam																																			",Dr. Nandita De Souza
60, Gujarat ,Valsad											,MANOVIKAS CHARITABLE TRUST,mohanbdeo59@gmail.com,"
												MANOVIKAS CHARITABLE TRUST, DEGAM VAPIH B PRIMARY SCHOOL, VAPI - 396191   
											", 8141814494 ,"
																								 												Niramaya											",Dr. Mohan B. Deo
"
																								",,,,,,,,
 Page 6 of 55 ( 542 records ) ,,,,,,,,
61, Gujarat ,Surendranagar											,Ashirwad Viklang Trust,atfd.sayla@yahoo.in,"
												4, B/H, Police StationNational Highway, Sayla, Dist. Surendranagar - 363430   
											", 9328950340 ,"
												Badhte Kadam,Disha,Vikaas												 												Niramaya											",R.S.JADAV
62, Gujarat ,Ahmedabad											,Shah Jaswantlal Jiwanlal Charitable Trust,jjctrehab@gmail.com,"
												301,302,303 Aagam Complex, APMC Market RoadB/s Vasna Police Station, Vasna, Ahmedabad - 380051   
											", 9825877370 ,"
																																															",Yashesh Shah
63, Gujarat ,Junagadh											,Samprat Education and Charitable Trust-Junagarh,samprat.jnd@gmail.com,"
												410, To. Dungarpurbilkharod, opp. near nandkisor narsy,, vijapur street,dist. junagadh, ta. junagadh. - 362263   
											", 9913236691 ,"
												Disha,Samarth,Vikaas,Badhte Kadam												 												Niramaya											",Parmar Mahendrabhai Jashabhai
64, Gujarat ,Rajkot											,The Society For The Mentally Retarded,mentally@rediffmail.com,"
												Opp B T savani Kidney Hospital, University RoadNera SNK School, Rajkot - 360005   
											", 9825218252 ,"
																																															",Hitesh N Kanabar
65, Gujarat ,Ahmedabad											,NATIONAL SOCIETY FOR EQUAL OPPORTUNITIES FOR THE HANDICAPPED GUJARAT,naseohgujarat@gmail.com,"
												NASEOH (GUJARAT), BESIDES NAVRANGPURA BUS STANDOPP. NAVRANGPURA POST-OFFICE, AHMEDABAD - 380009   
											", 9825027701 ,"
																																															",Maulesh Shah
66, Gujarat ,Bhavnagar											,Ankur Special School For Mentally Retarded Children,ankurmrschool.bvn@gmail.com,"
												PLOT NO. 1945, NEAR WORKING WOMENS HOSTELSARDARNAGAR CIRCLE, BHAVNAGAR - 364002   
											", 9925537878 ,"
												Vikaas												 												Niramaya											",Alpeshbhai K Sheth
67, Gujarat ,Surat											,Mavjat Parents Association Of Mentally Challenged Persons and Charitable Trust,mavjat@gmail.com,"
												22 SUGAM SOCIETY ,, ADAJAN PATIYARANDER ROAD, SURAT, SURAT - 396009   
											", 9824959644 ,"
																								 												Niramaya											",NIlesh R Vyash
68, Gujarat ,Bhavnagar											,Smt. Parsanben Narandas Ramji Shah(Talajawala) Society for Relief  Rehabilitation of the Disabled,pnrsociety.cpschool@gmail.com,"
												Nataraj Research Center and Training College Campus, Nr. Sardar Patel School, ,Kaliyabid, Bhavnagar - 364002   
											", 9327543757 ,"
												Vikaas,Disha,Badhte Kadam,Sahyogi												 												Niramaya											",Paras C Shah
69, Gujarat ,Gir Somnath											,JEEVANDEEP HEALTH EDUCATION AND CHARITABLE TRUST KODINAR,jeevandeepkodinar@gmail.com,"
												24-25, AT. Gohil ni Khan (OG Area) , JeevandeepNear Chorwadi Mandir, Bypass Road, Kodinar, KODINAR - 362725   
											", 9898320881 ,"
												Disha,Vikaas,Badhte Kadam												 												Niramaya											",Sidik Chavda
70, Gujarat ,Navsari											,MANAV KALYAN TRUST NAVSARI GUJARAT,manavkalyantrust@yahoo.co.in,"
												C.L.PARIKH MAMTA MANDIR MAHESHBHAI KOTHARI MARG, AT  PO - VIJALPORETA. JALALPORE, NAVSARI - 396450   
											", 9712283860 ,"
																																															",VIRATKUMAR PRAVINCHANDRA KOTHARI
"
																								",,,,,,,,
 Page 7 of 55 ( 542 records ) ,,,,,,,,
71, Gujarat ,Ahmedabad											,Blind Peoples Association (India),mihirjgd@gmail.com,"
												Andhjan Mandal, 132 Ring Road, Opp. IIMA, Vastrapur, AhmedbadJagdish Chowk,, Ahmedabad - 380015   
											", 9825014210 ,"
												Disha,Badhte Kadam,Sahyogi												 												Niramaya											",Dr. Bhushan Punani
72, Gujarat ,Rajkot											,Prayas Parents Association For Children With Special Needs,infoprayasassociation3605@gmail.com,"
												School no. 69 old building, ambaji kadva plot no - 2krishnanagar main road, rajkot - 360004   
											", 8128138092 ,"
																																															",pooja sureshbhai patel
73, Gujarat ,Valsad											,Jaina Anupam N Parmar Charitable Trust,jainaanupam@gmail.com,"
												Jaina Anupam N Parmar Charitable Trust, Kailash RoadNr. Kailash Owara High school, Valsad - 396001   
											", 9409419251 ,"
																																															",Dr. Chetanaben Davada
74, Gujarat ,Dahodd											,Blind Welfare Council,bwcdahod@gmail.com,"
												695/1, Mandaav RoadOpp. - Panchmukhi Hanuman Temple, P.O. Box - 115, Dahod - 389151   
											", 9429146152 ,"
												Disha,Vikaas												 												Niramaya											",Yusufi F Kapadiya
75, Gujarat ,Gandhinagar											,SADHNA-Parents Association for Mentally Challenged Persons,bprasad1655@yahoo.com,"
												Plot No. 106/2,, Sector-3/A,Nr. Ambaji Temple, Gandhinagar - 382006   
											", 9898594350 ,"
																								 												Niramaya											",Gangarambhai k. Patel
76, Gujarat ,Surat											,Universal Welfare Trust Of India,universalwelfare@yahoo.com,"
												RAMPARA KHARVASA ROAD, NR PUNCHMUKHI HANUMANJI TEMPLEBARDOLI, BARDOLI - 394601   
											", 9825141545 ,"
																								 												Niramaya											",kishor mohanlal solanki
77, Gujarat ,Ahmedabad											,SELF CARE,selfcare2009@gmail.com,"
												SHOP NO, GF-6, SHOP NO, GF-6, AYANA COMPLEX OPP SUVARNAVILLA BUNGLOWS,100 FT THALTEJ-HEBATPUR, THALTEJNEAR SHELL PETROL PUMP, AHMEDABAD - 380059   
											", 9898066390 ,"
																								 												Niramaya											",JUHI PARESH KISHNANI
78, Gujarat ,Ahmedabad											,NAVJEEVAN CHARITABLE TRUST,nileshnavjeevan@gmail.com,"
												Survey No. 5, Thakor Vas,, Nr,Shiv mandir Memnagar GamB/h Jogni Temple Gully,MEMNAGAR, Ahmedabad - 380052   
											", 9824263608 ,"
																																															",DR. SUBHASH APTE
79, Gujarat ,Morbi											,SHREE NAVJIVAN VIKLANG SEVASHRAY,navjeevan.joshy@gmail.com,"
												Opp.220 K.v Substation, GIDC AreaHalvad, Halvad - 363330   
											", 9558965101 ,"
																																															",JITENDRA G JOSHI
80, Gujarat ,Ahmedabad											,BHARAT LOKHIT SEVA SAMITI,contact@chinmayindia.org,"
												1/B-2/A, AZADNAGAR, NR.RISHIKESH VIDHYALAYANAVI FATEHWADI, SARKHEJ, AHMEDABAD - 382210   
											", 9898148297 ,"
																																															",DR. GARGA BHOGILAL SHUKLA
"
																								",,,,,,,,
 Page 8 of 55 ( 542 records ) ,,,,,,,,
81, Gujarat ,Vadodara											,Disha Charitable Trust,dishaschoolbaroda@gmail.com,"
												62, Sampatrao Colony, Opp. circuit HouseAlkapuri, Vadodara - 390005   
											", 9227108880 ,"
																																															",MR. NARESH CHAWLA
82, Gujarat ,Ahmedabad											,OMKAR FOUNDATION TRUST,omkarfoundationtrust@gmail.com,"
												56, H. A. MARKETNR. RAILWAY STATION, AHMEDABAD - 380002   
											", 9879048757 ,"
												Badhte Kadam																																			",KINJAL ASHOKKUMAR SHAH
83, Gujarat ,Rajkot											,aekrang childrens development institute,aekrang.institute@gmail.com,"
												53, STREET NO. 4VISHWAKARMA SOCIETY, SADHUVASVANI ROAD, Rajkot - 360005   
											", 9137690064 ,"
																								 												Niramaya											",Deepika Prajapati
84, Gujarat ,Ahmedabad											,Aastha Charitable Trust For Welfare Of The Mentally Challenged,ananddham2016@gmail.com,"
												Village - Adroda, Ta: BavlaOpp: Kings Villa, Bavla - 382220   
											", 7698677110 ,"
																																															",NITESH SOLANKI
85, Gujarat ,Bharuch											,ASMITA VIKAS KENDRA,asmitavikaskendratralsa@gmail.com,"
												1, NABUPUR- DAYADRA ROADTRALSA, BHARUCH - 392020   
											", 9427117178 ,"
																																															",YASHWANTBHAI  M PATEL
86, Gujarat ,Sabarkantha (Himmatnagar)											,SABARKANTHA CHARITABLE TRUST Sanchalit INSTITUTION FOR MENTALLY RETARDED CHILDREN,mr21hmt@gmail.com,"
												NR ADARI CIRAMICS PLOT 12, B H KRISHNA HOTELHIMATNAGAR (M), HIMMATNAGAR - 383001   
											", 9998828975 ,"
																								 												Niramaya											",KUNJBIHARIBHAI JASHBHAI PATEL
87, Gujarat ,Vadodara											,Medical Care Centre Trust,hasmukhrathawa78@gmail.com,"
												K.G. Patel Children Hospital, Jalaram Marg,Karelibaug,, Vadodara - 390018   
											", 8140073278 ,"
																								 												Niramaya											",Dr. Jagdish Patel
88, Gujarat ,Kachchh-Bhuj											,SHRI NAVCHETAN ANDHJAN MANDAL,info@navchetan.org,"
												VIKLANG VIDYA VIHAR, Bhuj Anjar HighwayOPP.- MOTHER DAIRY, MADHAPAR, TALUKA- BHUJ  DIST- KUCHCHH - 370020   
											", 9825226598 ,"
																																															",Laljibhai Prajapati
89, Gujarat ,Ahmedabad											,Health & Care Foundation,poliofoundation@gmail.com,"
												Indukaka IPCO wala Seva Sansthan, Pavansut socity, Opp.Rajwadu HotelJivraj Park, Ahmedabad - 380051   
											", 9825349108 ,"
																								 												Niramaya											",Dr.Prakash Bhatt
90, Gujarat ,Mahesana											,"KHODIYAR EDUCATION TRUST, MEHSANA",khodiyareducationtrust@yahoo.in,"
												1/23, Panjarapol Building,Near Azad Chok,, Mehsana (GUJARAT) - 384001   
											", 9825199379 ,"
												Disha,Badhte Kadam												 												Niramaya											",Vishnubhai M. Chaudhary
"
																								",,,,,,,,
 Page 9 of 55 ( 542 records ) ,,,,,,,,
91, Haryana ,Hisar											,DOT Army Wives Welfare Association Asha School,ashahisar@gmail.com,"
												4 MECH INF (1 SIKH), MILITARY STATION HISAR, Hisar Cantt. - 125006   
											", 8059391041 ,"
																								 												Niramaya											",Mrs Sharmil Nagar
92, Haryana ,Karnal											,Tapan Rehabilitation Society,sujatavspk@yahoo.com,"
												Tapan Rehabilitation Society,, Pragya Institute for Education  Training of DisabledG T Road, Near Police Post, Nilokheri ,, Karnal - 132117   
											", 9416191483 ,"
												Disha,Sahyogi,Badhte Kadam												 												Niramaya											",Dr. Sujata
93, Haryana ,Kurukshetra											,Society For Education And Empowerment Of Disadvantage,seedkurukshetra@gmail.com,"
												Kheri Markanda, Khedimarkanda, Partapgarh Road, Kurukshetra, Haryana, India, 136118HARYANA, Kurukshetra - 136118   
											", 9812089840 ,"
																																															",Jai Prakash Keshari
94, Haryana ,Bhiwani											,Adarsh Para Medical Welfare Association,adarshmitc@gmail.com,"
												na, Uttam Nagar, Loharu RoadNear Chara Mandi,, Bhiwani(Hry.) - 127021   
											", 9729080045 ,"
												Vikaas,Badhte Kadam,Sahyogi																																			",Dr.Rajesh Kumar
95, Haryana ,Faridabad											,TENDER HEART EDUCATION SOCIETY,tenderheartngo@yahoo.com,"
												695, SECTOR 28, FARIDABAD - 121003   
											", 9350844393 ,"
																								 												Niramaya											",RENU BALI
96, Haryana ,Yamunanagar											,Aarohan Welfare Society,aarohanwelsoc@gmail.com,"
												132, professor colony  Opp DAV Physiotherapy college, Yamuna Nagar - 135001   
											", 9355370656 ,"
																								 												Niramaya											",Dr Ritu Soni
97, Haryana ,Jind											,DARPAN COMMUNICATION SOCIETY,darpanjind@gmail.com,"
												881/18, Shiv Colony,jind, JIND - 126102   
											", 8607855300 ,"
																																															",SHRI BHAGWAN RANA
98, Haryana ,Rewari											,NAV PRERNA,navprerna3441@yahoo.com,"
												SH GANESHI LAL GOYAL DHARMSHALA, RADHA SWAMI COLONY, SECTOR3NEAR GYMKHANA CLUB, REWARI - 123404   
											", 9812160556 ,"
												Vikaas																																			",HARISH MALIK
99, Haryana ,Gurgaon											,"Vishwas,Vision For Health Welfare  Special Needs",admn.vishwas@gmail.com,"
												Vishwas vision for health welfare  and special needs, sector-46, Arya Samaj roadnear unitech cyber park, Gurgaon - 122002   
											", 8178047774 ,"
																								 												Niramaya											",Neelam Jolly
100, Haryana ,Gurgaon											,Khushboo Welfare Society,khushboowelfaresociety@gmail.com,"
												02, Sector-10ANear Lions Public School, Gurgaon - 122001   
											", 9971698963 ,"
																																															",Vijay Pal
"
																								",,,,,,,,
 Page 10 of 55 ( 542 records ) ,,,,,,,,
101, Haryana ,Ambala											,Novelty Education Society,pgambhir2001@gmail.com,"
												Novelty Complex, #5173-74,  Noverlty ComplexBazaza Bazar, Ambala Cantt. - 133001   
											", 9416394173 ,"
																								 												Niramaya											",Satya Pal
102, Himachal Pradesh ,Mandi											,Sahyog Bal Shravan Viklang Kalyan Samiti,nksharma52@yahoo.com,"
												244/7, National Street, Near Pnb Moti Bazar, Mandi - 175001   
											", 9418023539 ,"
																																															",Narender Kumar Sharma
103, Himachal Pradesh ,Kangra											,CORD (Chinmaya Organisation for Rural Development),cordsidhbari@gmail.com,"
												9/1, Village and post office SidhbariTehsil  Dharmashala, Dharamsala - 176057   
											", 9816655592 ,"
																								 												Niramaya											",Dr. Kshama Metre
104, Himachal Pradesh ,Una											,Prem Ashram    Institute of Sisters of Charity,vincyalex009@gmail.com,"
												000, Takka RoadNear HRTC Workshop, Una - 174303   
											", 7831014330 ,"
																																															",Jibin Mol V.V
105, Himachal Pradesh ,Solan											,Ganpati Educational Society,sharma.roshan@yahoo.co.in,"
												...., Near Telephone ExchangeTELEPHONE EXCHANGE, KUNIHAR - 173207   
											", 9418079043 ,"
												Vikaas,Disha,Sahyogi																																			",Roshan lal sharma
106, Himachal Pradesh ,Mandi											,Sakar Society For Differently Abled Persons,sakarsociety@yahoo.in,"
												Vil- Dohwan,, Sunder NagarMandi, Himachal Pradesh - 175002   
											", 9816018605 ,"
												Disha,Vikaas																																			",Sheetal Sharma
107, Himachal Pradesh ,Hamirpur											,PEHCHAN EDUCATION SOCIETY,pehchan.hmr@gmail.com,"
												VILL. CHUNAL, JHANIARANEAR CENTRAL SCHOOL, HAMIRPUR - 177001   
											", 7018512743 ,"
																																															",CHETNA SHARMA
108, Himachal Pradesh ,Sirmaur											,Aastha Welfare Society,aasthanahan@gmail.com,"
												Aastha welfare society, PUCCA TANKNear Panchayat Bhawan, Nahan - 173001   
											", 9418035001 ,"
																																															",Rajeev Bhandari
109, Himachal Pradesh ,Shimla											,Udaan Parents and Guardians Society of Mentally Challenged Children,udaanhp@gmail.com,"
												B-16, Sector- 2,,, New ShimlaNear community center, shimla - 171009   
											", 9418395095 ,"
												Vikaas																																			",Madhuri Sood
110, Himachal Pradesh ,Una											,Human Rights Protection Cell And Welfare Association ASHHRAYA Siddyana Tobba Lower Dehlan  Distt Una,ashhraya@gmail.com,"
												Sadyana Tobba, Dehlan Bedharer RoadCommunity Centre, Lower Dehlan - 174306   
											", 9736980666 ,"
																																															",Suresh Kumar
"
																								",,,,,,,,
 Page 11 of 55 ( 542 records ) ,,,,,,,,
111, Jharkhand ,Ranchi											,"Deepshikha, Institute for Child Development and Mental Health(A Unit of Purshree)",deepshikhainfo@gmail.com,"
												Arya Samaj Mandir, Swami Shradhanand RoadUpper Bazar Ranchi, Jharkhand - 834001   
											", 9334423789 ,"
												Badhte Kadam												 												Niramaya											",Sudha Lhila
112, Jharkhand ,Dhanbad											,Pahela Kadam Special School Run By Narayani Charitable Trust,narayanicharitabletrust@gmail.com,"
												8, Saraidhela RoadNear Saraidhela Police Thana, Dhanbad - 826003   
											", 9471162439 ,"
																								 												Niramaya											",Smt. Anita Agarwal
113, Jharkhand ,Deoghar											,Srijak Samuh,srijaksamuh@gmail.com,"
												Srijak Samuh, Williams TownRani Kothi, B. Deoghar,, DEOGHAR - 814112   
											", 9431063699 ,"
																																															",UMASHANKAR KUMAR
114, Jharkhand ,Hazaribagh											,Samajik Samasya Niwaran Ewam Kalyan Sansthan,ssneks@gmail.com,"
												300, Forest colony, HurhuruNear cemetery gate, Hazaribag - 825301   
											", 9431796018 ,"
																																															",Manish kumar sinha
115, Jharkhand ,Ranchi											,CHILD CONCERN,childconcern.jharkhand@gmail.com,"
												1B, Shubh Gauri Enclave, Budh Vihar Colony,, Argora Bypass, Ashok Nagar, Harmu,  RanchiArgora Bypass, Ranchi - 834002   
											", 9472162409 ,"
												Badhte Kadam																																			",SUGANDH NARAYAN PRASAD
116, Jharkhand ,Ranchi											,JHARKHAND PARENT ASSOCIATION,koshishparent@gmail.com,"
												H-70, Argora Housing Colony, RanchiNear Argora Chaowk, Ranchi - 834002   
											", 9934523571 ,"
																																															",DEEPA CHOUDHARY
117, Jharkhand ,Ramgarh											,BHAWISHYA KIRAN,jha_sanjeev1972@rediffmail.com,"
												QNO-B/6, RESCUE BHAWAN COLONY, NAISARAINEAR DAMODER PULL, RAMGARH - 829122   
											", 9431535390 ,"
																																															",MALA JHA
118, Jharkhand ,East Singhbhum											,Parents Association of Mentally Handicapped of Jamshedpur,pamhj361@gmail.com,"
												Lions Club of Jamshedpur Artificial Limb Fitting Centre(LALFIC), SonariNear Carmel Junior College/Bal Vihar, Jamshedpur - 831011   
											", 9431372214 ,"
												Prerna																																			",P BABU RAO
119, Jharkhand ,Dhanbad											,Jeevan,jeevan_ak@yahoo.co.in,"
												Jeevan, Bastacolla, GaushallamoreDhansar, Dhanbad, Dhanbad - 828106   
											", 9934352294 ,"
												Vikaas,Samarth,Badhte Kadam,Sahyogi																																			",Anil Kumar Singh
120, Karnataka ,Bangalore Urban											,Baldwin Opportunity School of  Baldwin Methodist Educational Society,baldwinoppschool@hotmail.com,"
												No.3,, 3, Rhenius Street, Richmond TownRichmond Town, Bangalore - 560025   
											", 9845389740 ,"
																																															",Sajinie Gnanatheeban
"
																								",,,,,,,,
 Page 12 of 55 ( 542 records ) ,,,,,,,,
121, Karnataka ,Devangere 											,SPOORTHY ORGANIZATION FOR EDUCATION AND SOCIAL DEVELOPMENT,spoorthy.hnl@gmail.com,"
												SPOORTHY, URDU SCHOOLNEAR URDU SCHOOL, NALLUR - 577221   
											", 9448976910 ,"
												Disha																																			",K B ROOPA NAIK
122, Karnataka ,Belgaum											,SHRI DOODNANA VIKAS SHIKSHAN SANSTHE,shridvss@gmail.com,"
												99, SHIVALINGESHWAR KRUPAMAHALINGESHWAR NAGAR FALLS ROAD, GOKAK - 591307   
											", 8095388511 ,"
																																															",SHRIMANTH SADALAGI
123, Karnataka ,Bangalore Urban											,TAMAHAR TRUST,tamahar@gmail.com,"
												#95,, 6th Main, Between 13th and 15th Cross,Behind Renaissance Regalia, Bangalore - 560003   
											", 9845551209 ,"
																																															",VAISHALI B PAI
124, Karnataka ,Chikmagalur											,SOCIETY FOR PEOPLES INTEGRATED  DEVELOPMENT R,ddrcspidckm@gmail.com,"
												.162, Prabhu Street, Near Thogarihucle CercleOPP JOSEPH CHURCH, Chickamagaluru - 577101   
											", 9448008417 ,"
																								 												Niramaya											",PRAKASH K
125, Karnataka ,Bangalore Urban											,KARNATAKA PARENTS ASSOCIATION FOR MENTALLY RETARDED CITIZENS,kpamrc@gmail.com,"
												12, 3rd cross, 8th Main, Byrasandra Layout, Jayanagar 1st Block East, Bangalore, Byrasandra Main RoadNear NIMHANS, Banglore - 560011   
											", 9845462451 ,"
												Badhte Kadam,Gharaunda												 												Niramaya											",K R Venkatesha
126, Karnataka ,Bangalore Urban											,The Association For The Mentally Challenged,amc.bangalore@gmail.com,"
												The Association for the mentally Challenged, Near Kidwai Cancer HospitalOff Hosur Road, Bangalore - 560029   
											", 9845325100 ,"
																																															",Ms.Vanishree Manohar
127, Karnataka ,Bangalore Urban											,Academy For The Severely Handicapped And Autistic Persons Charitable Trust,info@ashaforautism.com,"
												L-76/A, HBCS 3rd Stage, Kirloskar Colony4th Block, Basaveshwaranagar, Bangalore - 560079   
											", 9343764415 ,"
																																															",Mrs. Jayashree Ramesh
128, Karnataka ,Gulbarga											,Vinayaka Educational Trust,vinayakaeducationaltrust131@gmail.com,"
												10-105/4, Sharan Nagar, BrahmpurOPP N.V.School, Gulbarga - 585103   
											", 9980817060 ,"
																																															",Shrimanth Revoor
129, Karnataka ,Bangalore Urban											,ALFAA (Assisted Living for Autistic Adults),alfaa2010@gmail.com,"
												Pocket 3, C-506, Vasant Vihar,, Pocket 3, C-506, Vasant Vihar, AWHO Colony,  VidhyanagarBillmarnahalli Main Road,, BANGALORE - 562157   
											", 9741418103 ,"
												Badhte Kadam												 												Niramaya											",Ruby Singh
130, Karnataka ,Bangalore Urban											,SHRISTI SPECIAL ACADEMY,shristiblr@gmail.com,"
												No.20, Jattipalya, Channenahalli 20th KmMagadi Road, Janaseva Vidya Kendra, Banglore - 562130   
											", 9900170959 ,"
																								 												Niramaya											",Suchita Somashekaraiah
"
																								",,,,,,,,
 Page 13 of 55 ( 542 records ) ,,,,,,,,
131, Karnataka ,Chikballapur											,PRAGNA TRUST,nagaraj.n.gbd@gmail.com,"
												03, Bye-pass RoadRAMALINGESHWARA EXTENSION, GOWRIBIDANUR - 561208   
											", 9972009412 ,"
												Disha,Badhte Kadam																																			",VIJAYALAKSHMI S
132, Karnataka ,Bangalore Urban											,Vikasa Special School For Mentally Challenged  Run By Vijayanagar Disabled Welfare Association Reg,vikasaspecialschool1997@gmail.com,"
												9th Main, RPC LayoutNear Vishwakarma Temple, Hampinagar, Vijayanagar - 560104   
											", 9632042317 ,"
																																															",L . Yashoda
133, Karnataka ,Bagalkot											,BIJAPUR INTEGRATED RURAL DEVELOPMENT SOCIETY (BIRDS),birdshungund1990@rediffmail.com,"
												437/21, Mahantha NagarWard no-05, Hungund - 587118   
											", 9448117058 ,"
																																															",Mahantesh Agasimundin
134, Karnataka ,Mysore											,AASHIANAA  An Institute for Special Children,aashianaa6@gmail.com,"
												#520,  2nd Stage, OLD MAHADEVPURA EXTENSIONUDAYGIRI, MYSORE - 570019   
											", 9448271109 ,"
																																															",SIRAJ ASGER ALI
135, Karnataka ,Koppal											,Samuha,ns@samuha.org,"
												Samuha Campus, Vithalapur Road, Kanakagiri - 583283   
											", 9448385412 ,"
												Disha												 												Niramaya											",Narayanaswamy M
136, Karnataka ,Dakshina Kannada											,Chetana Child Development Centre Unit of Seva Bharathi,chetanabharathi@gmail.com,"
												13-9-1207/4, V.T.Road, KodailbailNear Venkataramana Temple, Mangalore - 575001   
											", 9036493397 ,"
																																															",P. Vinod Shenoy
137, Karnataka ,Bagalkot											,Ashadeepa Angavikalara Sarva Abhiwruddhi Seva Samsthe,ashadeepa.orgilkal@gmail.com,"
												109, Ward No. 4Shivaji Nagar, ILKAL - 587125   
											", 9986509910 ,"
												Disha																																			",Raghu N Hubballi
138, Karnataka ,Haveri											,Roshni Trust,roshnisac@yahoo.co.in,"
												#, Kumareshwara Nagara, HangalOpp. New Court, Hanagal - 581104   
											", 9945368152 ,"
																																															",Sr.Anitha DSouza
139, Karnataka ,Bangalore Urban											,Welfare Association For Rehabilitation Of Disabled And Society (WARDS),wards.bengaluru@gmail.com,"
												WARDS, C.A.Site No.1,, 10Th Main Road, Jeevan bhima Nagar, New Thippasandra PostNext to HOPCOMS, Bangalore - 560075   
											", 8105676362 ,"
																																															",Mrs. Aruna
140, Karnataka ,Gadag											,Shri B. D. Tatti Memorial Charitable Trust,somanathbdt@gmail.com,"
												No no, Tatti Annavara NagarAgastya Teerth Road, Laxmeshwar - 582116   
											", 9448309994 ,"
												Disha																																			",Somanath Mahajanashettar
"
																								",,,,,,,,
 Page 14 of 55 ( 542 records ) ,,,,,,,,
141, Karnataka ,Mandya											,St. Thomas Mission Society,ashasadan@ymail.com,"
												KL 232 A, Santhome, P.B.No 42, PES Engineering College RoadOpp. Zilla Panchayat, Mandya - 517401   
											", 9448158345 ,"
																								 												Niramaya											",Joseph Cyriac
142, Karnataka ,Bangalore Urban											,GiftAbled Foundation,svastya@giftabled.org,"
												#148, 1st A main East of NGEF layout Kasturi Nagar Bangalore -43New Shanthi Sagar, Bangalore - 560043   
											", 9880494953 ,"
																																															",Prarthana Kaul
143, Karnataka ,Bangalore Urban											,AshaKiran Special Needs School Unit of Asha Kiran Trust,ashakirantrust@gmail.com,"
												HL 212, Esther Gardens,Horamavu - Ramamuthy Nagar Road, Bangalore - 560016   
											", 9341262237 ,"
																																															",Dr. Rita James
144, Karnataka ,Bellary											,Saadhya Trust For Social Development,arathiharish2014@gmail.com,"
												00000, 24th ward, Ballari RoadTMAES ITI College Campus, Near Rosebud School, Hosapete - 583201   
											", 9481160691 ,"
																																															",Arathi K T
145, Kerala ,Pathanamthitta											,Karthika Nair Smarak Samithi,knmrc@rediffmail.com,"
												XII/529, Vallamkulam P.O.Thiruvalla, Pathanamthitta - 689541   
											", 9446116221 ,"
																																															",K.P.Ramesh
146, Kerala ,Thrissur											,SWASRAYA-Special Child Development and Vocational Training centre for Differently Abled,swasraya91@gmail.com,"
												15/207,  Swasraya Special Child Development and Vocational Training Centre for Differently - Abled, P.O KutturNear Neithalakavu Temple, Thrissur - 680013   
											", 9447969795 ,"
																																															",Mrs.Shantha Menon
147, Kerala ,Kollam											,Manovikas School for Mentally Challenged,manovikas@gmail.com,"
												227, Palliserikkal PostSasthamcotta, Kollam - 690521   
											", 9562460802 ,"
												Disha																																			",Shri. D. Jacob
148, Kerala ,Wayanad											,PRERANA SPECIAL  SCHOOL  UNIT OF MANAVASEVA CHARITABLE TRUST,preranaspecialschool199@gmail.com,"
												7, PuliyarmalaPuliyarmala, Kalpetta - 673121   
											", 9495249963 ,"
																																															",M D VENKITTA SUBRAHMANIAN
149, Kerala ,Thrissur											,Social Action Forum Irinjalakuda,socialactionijk@gmail.com,"
												Social Action Forum Irinjalakuda, Cathedral Junction WestIrinjalakuda, Irinjalakuda - 680121   
											", 8547138986 ,"
																																															",Fr. Varghese Paul
150, Kerala ,Kozhikode											,V.K Mohamed Charitable Trust,mail@vkspecialschool.com,"
												19/2026F, 4th Floor,Indus AvenueKallai Road, Kozhikkode - 673002   
											", 9847214957 ,"
																								 												Niramaya											",V.K.MOHAMMED ASHRAF
"
																								",,,,,,,,
 Page 15 of 55 ( 542 records ) ,,,,,,,,
151, Kerala ,Pathanamthitta											,Assisi Centre School For Mentally Challenged,assisicentre2013@gmail.com,"
												420, chunkapparaCHUNKAPPARA, chunkappara - 686547   
											", 9400996799 ,"
																																															",POPPY MATHEW
152, Kerala ,Thiruvananthapuram											,GRAMA JYOTHI NATIONAL INSTITUTE FOR THE DIFFERENTLY ABLED,gramajyothisschool@gmail.com,"
												GRAMA JYOTHI SPECIAL SCHOOL, PAZHAKUTTY P.ONEDUMANGAD, NEDUMANGAD - 695561   
											", 9387814299 ,"
																																															",THOMAS MAMMEN
153, Kerala ,Kottayam											,"SNEHARAM SPECIAL SCHOOL FOR MENTALLY RETARDED, PALA",sneharamss.pala@gmail.com,"
												90, KochidappadyPala East P.O., Pala - 686575   
											", 9142849161 ,"
																																															",Sr.Carmel Geo sms
154, Kerala ,Kottayam											,Asha Nilayam,ashanilayamspl@gmail.com,"
												709, PonkunnamNear Civil Station Ponkunnam, Ponkunnam - 686506   
											", 9446506952 ,"
																								 												Niramaya											",Fr Roy Mathew vadakkel
155, Kerala ,Kozhikode											,Humanity Charitable Trust,humanityindz@gmail.com,"
												23/137A, FareedKannanchery, P.O Kallai,Calicut - 673003   
											", 8137999990 ,"
																								 												Niramaya											",p k m Siraj
156, Kerala ,Ernakulam											,RAKSHA SOCIETY FOR THE CARE OF CHILDREN WITH SPECIAL NEEDS,rakshasocietykochi@gmail.com,"
												VII/370, DARRAGH SALAAM ROADEAST GATE CHEMBITTAPALLY, KOCHI - 682002   
											", 9446039961 ,"
																																															",Mrs.Ragini Menon
157, Kerala ,Kottayam											,JEEVODAYA CENTRE School For Mentally Challenged Children KURUMPANADOM,jeevodayacentre@gmail.com,"
												11/505, KurumpanadomKurumpanadom, Kottayam - 686536   
											", 9562260382 ,"
																																															",MINIMOL SEBASTIAN
158, Kerala ,Kozhikode											,NEST NCCC NIARC Under Koyilandy Palliative Care Society,koyilandypalliativecare@gmail.com,"
												169 J,K,L, NEST Road ,KoyilandyBehind Govt Hospital,Koyilandy, Koyilandy - 673305   
											", 9745126699 ,"
																																															",Abdulla Karuvancherry
159, Kerala ,Thrissur											,SNEHADEEPTHY SPECIAL SCHOOL Run by SNEHADEEPTHY CHARITABLE TRUST,css_snehadeepthy@yahoo.co.in,"
												743/A, 743/2, 743/3, Pattalakunnu, Samaritan SistersMannuthy P.O., Thrissur - 680651   
											", 9497623010 ,"
																																															",Sr.Pushpam CSS
160, Kerala ,Kozhikode											,Amar Jyothi  Special School run by Amar Jyothi Charitable Society,amarjyothisabs@gmail.com,"
												2/264, KorangadAlphonsa English Medium HigherSecondary School, Thamarassery - 673573   
											", 9645381255 ,"
																																															",Tessy
"
																								",,,,,,,,
 Page 16 of 55 ( 542 records ) ,,,,,,,,
161, Kerala ,Pathanamthitta											,SATHYANIKETHAN SPECIAL SCHOOL RUN BY SATHYAM LITERATURE SERVICE,office@sathyam.org,"
												SATHYAM LITERATURE SERVICE, THOTTABHAGOMTHIRUVALLA, THIRUVALLA - 689541   
											", 9446513555 ,"
																																															",CHACKO  VARGHESE
162, Kerala ,Pathanamthitta											,Deepti Vocational Training Centre Run By Deepti Educational And Charitable Foundation,deepticharity@gmail.com,"
												E.V.Road, ChennampallilAdoor, Adoor - 691523   
											", 9400730419 ,"
																																															",Dr.Susan Mathew
163, Kerala ,Ernakulam											,N.Musthafa Sahib memorial M E S Institute for Mentally Challenged  Unit of Muslim Education Society,nmusthafamescharity@gmail.com,"
												VI/399, N.MUSTHAFA SAHIB MEMORIAL M.E.S CHARITABLE COMPLEXEDATHALA NORTH P.O, ALUVA - 683561   
											", 9447458679 ,"
																																															",K.M SHAMSUDDIN
164, Kerala ,Palakkad											,ASHADEEPAM CONVENT SCHOOL FOR MENTALLY CHALLENGED CHILDREN,ashadeepamconventschool@gmail.com,"
												17/421,17/612,, KOONATHARANEAR PLAZA, OTTAPALAM - 679523   
											", 9567677818 ,"
																																															",SR FLORY
165, Kerala ,Ernakulam											,Mithram Charitable Society Special School,mithramsoc@gmail.com,"
												496, Mithram Rehabilitation ComplexKanjirikkapilly, Aarakkunnam, P.O., Dist. - Ernakulam - 682313   
											", 9388467483 ,"
																																															",P.B. George
166, Kerala ,Kottayam											,SOCIETY FOR THE EMPOWERMENT OF THE  LEARNING DISABLED.ST.JOHN OF GOD SPECIAL SCHOOL,seldjohnofgodschool@yahoo.com,"
												314B (Old number 11/270), velloorpampady, kottayam, kottayam - 686501   
											", 8129906050 ,"
																																															",Bro.GEORGE .K .T
167, Kerala ,Palakkad											,Devashrayam Rehabilitation Centre for Mentally Challenged - A Unit of Devashrayam Charitable Society,devashrayam@rediffmail.com,"
												VIII/275, ThekketharaMarutharoad Post, Palakkad - 678007   
											", 9288110000 ,"
																								 												Niramaya											",M N Govind
168, Kerala ,Kasargode											,ROTARY SPECIAL SCHOOL FOR DIFFERENTIALLY ABLE CHILDREN. A UNIT OF ROTARY M.B.M CHARITABLE TRUST,rotaryschool4mr@gmail.com,"
												ROTARY VILLAGE,, ANANDASHRAM PO,KANHANGAD, KASARAGOD, KASARAGOD - 671531   
											", 9895653040 ,"
																								 												Niramaya											",BEENA JOSEPH
169, Kerala ,Kottayam											,Asha Bhavan School And Home For Mentally Challenged,ashabhavan1973@gmail.com,"
												353B, ChanganacherryNear Priest Home, Ithithanam, Changanacherry - 686104   
											", 9496261196 ,"
																								 												Niramaya											",Thressiamma Philip
170, Kerala ,Alappuzha											,Sahrudaya Special School For Mentally Challenged Managed By Pavithra Social Service Society,sahrudayass@gmail.com,"
												186, RamankaryNear St. Joseph Church, Ramankary - 689595   
											", 8301026551 ,"
																								 												Niramaya											",Renju Mathew
"
																								",,,,,,,,
 Page 17 of 55 ( 542 records ) ,,,,,,,,
171, Kerala ,Kottayam											,Sevanikethan Thiruhrudaya Nivas School For Mentally Challenged,thiruhrudayanivas1990@gmail.com,"
												406, KurisumooduNear Parel, Changanacherry - 686104   
											", 9400231060 ,"
																																															",Thresiamma Joseph
172, Kerala ,Kollam											,Ashraya,ashrayapulliyil@gmail.com,"
												ASHRAYA, PULLIYILKILIKOLLOOR .PO, KOLLAM, Kollam, Kerala - 691004   
											", 9446315656 ,"
																								 												Niramaya											",R. VENUGOPALAN NAIR
173, Kerala ,Kozhikode											,"Prasanthi School for Children with Special Needs, run by Navajyothi Charitable Trust",prasanthicalicut@gmail.com,"
												18/302, Prasanthi NagarPantheerankave P O, Kozhikode,Kerala - 673019   
											", 9747395090 ,"
																																															",Er. Vineesh Vidyadharan
174, Kerala ,Alappuzha											,Deepthy School And Home For Mentally Retarded Managed By Deepthy Society,deepthisps@gmail.com,"
												Deepthy Special School, Near Boat Jetty, MuhammaOpposite to St. George Church, Muhamma - 688525   
											", 8281975157 ,"
																																															",Mariamma Chacko
175, Kerala ,Kollam											,Gandhibhavan International Trust,gandhibhavan@gmail.com,"
												621, C/O Gandhibhavan International TrustKundayam.P.O, Pathanapuram, Pathanapuram - 689695   
											", 9605047000 ,"
																																															",Dr.Punalur Somarajan
176, Kerala ,Idukki											,VOSARD - Voluntary Organisation For Social Action And Rural Development,vosard@gmail.com,"
												VIII/506, ValiyakandamKumily, Kerala - 685509   
											", 9447387538 ,"
																								 												Niramaya											",Jose Antony
177, Kerala ,Pathanamthitta											,NJANODAYA SPECIAL SCHOOL FOR INTELLECTUAL DISABILITY Managed By Njanodaya Charitable Society,njanodayaspl@gmail.com,"
												Niranam p.o., KadapraSN HOSPITAL NIRANAM, Niranam - 689621   
											", 9539090069 ,"
																																															",BEENA
178, Kerala ,Thrissur											,Tropical Health Foundation Of India,mail@thfi.in,"
												Tropical Health Foundation of India, Guruvayoor Road, ArthatPO Kunnamkulam, Thrissur - 680503   
											", 9847034161 ,"
																								 												Niramaya											",Dr K Jacob Roy
179, Kerala ,Kozhikode											,Kaarunyatheeram Special School Under Health Care Foundation,mail@healthcarefoundation.in,"
												KARUNYA BHAVAN, POONOORUNNIKULAM (PO), KOZHIKODE - 673574   
											", 9946661089 ,"
																																															",Abdul Shameer Bava CK
180, Madhya Pradesh ,Bhopal											,Jigyasa Samaj Kalyan Sewa Samiti,jskss.bhopal@rediffmail.com,"
												1404/6, Navjeevan ColonyChhola Road, Huzur - 462001   
											", 9303123594 ,"
												Vikaas,Disha																																			",Mukesh Thakur
"
																								",,,,,,,,
 Page 18 of 55 ( 542 records ) ,,,,,,,,
181, Madhya Pradesh ,Bhopal											,MADHURI AAYAAM EDUCATION  AND WELFARE SOCIETY,madhuriaayaam@gmail.com,"
												1414, Berkhedi BazyaftNear Goushala Old Crusher Plant, BHOPAL - 462044   
											", 9424476498 ,"
												Vikaas																																			",VIVA JOSHI
182, Madhya Pradesh ,Jabalpur											,RAJEEV KUMAR SAMAJ KALYAN GRAM VIKESH SHOD SANTHAN,rajurecord@gmail.com,"
												2983, New KanchanpurAadhartal, Jabalpur - 482004   
											", 9329325008 ,"
												Gharaunda,Vikaas,Disha												 												Niramaya											",RAJIV KUMAR RAIKWAR
183, Madhya Pradesh ,Indore											,Shri Shri Utkarsh Samity,ssusindore@gmail.com,"
												301 SNEHDEEP APARTMENT, 38, Narayan BaghIndore(MP), INDORE - 452007   
											", 9303225546 ,"
												Samarth,Vikaas												 												Niramaya											",Priyanka Phadnaik
184, Madhya Pradesh ,Chhindwara											,Gramin Adivasi Samaj Vikas Sansthan,gasvs.sansar2@gmail.com,"
												Ward No. 09, Vivekanad Colony, At Belgaon Post JamsawaliLaxmi nagar Road, Sausar - 480106   
											", 9699734648 ,"
												Badhte Kadam																																			",Adv Ajay Dhawle
185, Madhya Pradesh ,Vidisha											,Rajul viklang palak abhibhavak utthan samiti,rajulvds2010@gmail.com,"
												House No. 1, Bada BazaarArihant Kirana Store, vidisha - 464001   
											", 8889829433 ,"
																																															",Sanjeev Kumar Jain
186, Madhya Pradesh ,Bhopal											,Aadhar Gyan Dhatri Samiti,aadharcentre@gmail.com,"
												E-4/223, Arera ColonyNear 10 no. Market, Bhopal - 462016   
											", 9425374293 ,"
												Disha,Badhte Kadam																																			",Dr Jagmeet Kaur Chawla
187, Madhya Pradesh ,Jabalpur											,Navjyotispecialschoolrun by mahakoshal navjyotisociety,navjyotispecialschool@gmail.com,"
												Plot No.40/02, RimjhaNear st.Aloysious school campus, Jabalpur - 482002   
											", 9575367332 ,"
																																															",Shanti Tirkey
188, Madhya Pradesh ,Bhopal											,Shalom Special School for the Mentally Handicapped Unit of Nirmal Mata Society,shalomsplschool@gmail.com,"
												139, LambakhedaJ.N.C.T.Road, Bhopal - 462009   
											", 7869732650 ,"
																																															",Seena Francis
189, Madhya Pradesh ,Gwalior											,EHSAAS,ananya97in@yahoo.com,"
												3rd Floor Anhantam G192, Patel NagarFront of Green Gardan, GWALIOR - 474009   
											", 9329825578 ,"
																								 												Niramaya											",GEETA DHINGRA
190, Madhya Pradesh ,Narsinghpur											,BRAMHARSHI VASHISHTH SIKSHAN PRASIKSHAN AVAM SEWA SAMITI NARSINGHPUR,anandsobmp@gmail.com,"
												32, NEAR GEETA GUPTA NURSHING HOMEKANDELI NARSINGHPUR, NARSINGHPUR - 487001   
											", 9424645321 ,"
												Gharaunda,Disha,Vikaas												 												Niramaya											",MR. RAKESH SUKLA
"
																								",,,,,,,,
 Page 19 of 55 ( 542 records ) ,,,,,,,,
191, Madhya Pradesh ,Rewa											,Indian Red Cross Society Rewa,redcrossrewa@rediffmail.com,"
												Punarwas bhawan, Civil LineJhiriya, Rewa - 486001   
											", 9425185358 ,"
																																															",Dr H.P.SINGH
192, Madhya Pradesh ,Hoshangabad											,Dr Annie Besant MR Special School run by Dr Annie Besant Memorial Education Institute,directoranniebesantschool@gmail.com,"
												ward no 12, Samarth Parisar Rewa Bhgawati NagarPhase I MalaKhedi road, Hoshangabad - 461001   
											", 7415746992 ,"
												Sahyogi												 												Niramaya											",smt. Aarti dutta
193, Madhya Pradesh ,Ujjain											,Nagda Zenith Social welfare Society,snehnagda@gmail.com,"
												3/10, Adarsh Gandhi Gram ColonyNagda Jn, Nagda - 456335   
											", 9981582726 ,"
												Badhte Kadam,Disha,Vikaas,Sahyogi,Prerna												 												Niramaya											",Er. Pankaj Maru
194, Madhya Pradesh ,Betul											,Jainarayan Sarvodaya Vidyalaya Samiti,jaynarayan_btl@rediffmail.com,"
												24, Village KarajgaonPost Office Rondha, BETUL - 460001   
											", 9406535112 ,"
												Disha,Gharaunda,Vikaas,Badhte Kadam,Sahyogi																																			",AVANEESH PATANKAR
195, Madhya Pradesh ,Datia											,DIVYANG PUNARWAS SIKCHAN AND PRASHICHAN SANSTHAN,ambujtiwari110@gmail.com,"
												WARD-34, BEHIND DATIA STATIONDINARA ROAD DATIA, DATIA - 475661   
											", 9424723750 ,"
																																															",CHANDA TRIPATHI
196, Madhya Pradesh ,Ratlam											,SARTHI RATLAM Run By LAKHDATAR FOUNDATION,lakhdatarfoundation@gmail.com,"
												A-114, Jawahar NagarBehind Ram Mandir, RATLAM - 457001   
											", 9981479661 ,"
																																															",Swati Solanki
197, Madhya Pradesh ,Sagar											,LIFE LINE SERVICE SOCIETY,llss_tip@rediffmail.com,"
												10, Tili Tigadda Roadbehind of  Post Matric Residential School Behind Tilli Ward Sagar, SAGAR - 470002   
											", 9827141504 ,"
												Badhte Kadam,Disha,Gharaunda,Sahyogi,Vikaas,Samarth																																			",PREETI YADAV
198, Madhya Pradesh ,Indore											,NISHAKT JAN AADHAR WELFARE SOCIETY,njawsociety@gmail.com,"
												1-A, SANGAM NAGAR iNDORENEAR SCHEME NO 51POLICE CHOWKI, INDORE - 452006   
											", 9977505183 ,"
												Gharaunda												 												Niramaya											",DEEPAK PHADNIS
199, Madhya Pradesh ,Bhopal											,SOS CHILDRENS VILLAGES  KHAJURI KALAN INDIA,deepak.saxena@soscvindia.org,"
												PB 27, AMJHARA ROAD, NEAR RAISEN HOSHANGABADBYE PAAS ROAD, KHAJURI KALAN, BHOPAL - 462022   
											", 7389924401 ,"
																																															",MR DEEPAK SAXENA
200, Madhya Pradesh ,Satna											,SAMUDAIK KALYAN SAMITY,SKSSTATE@GMAIL.COM,"
												629, SATNANEAR KAUSHAL VIKAS KENDRA CIVIL LINE, SATNA - 485001   
											", 9174525354 ,"
																								 												Niramaya											",SHOBHA SINGH
"
																								",,,,,,,,
 Page 20 of 55 ( 542 records ) ,,,,,,,,
201, Madhya Pradesh ,Jabalpur											,Justice Tankha Memorial Rotary Institute For Special Children,jabalpur.jtmri@gmail.com,"
												H. No. 101, PachpediLohiapull, Jabalpur - 482001   
											", 9424309352 ,"
																																															",Baldeep Maini
202, Madhya Pradesh ,Jabalpur											,"Disable Persons (Mr, Cp, Autism, Md) Parents Association",abhaydubeyjbp@gmail.com,"
												131, Indrapuri ColonyGwarighat Road, Jabalpur, Jabalpur - 482008   
											", 9425150672 ,"
																								 												Niramaya											",Abhay Kumar Dubey
203, Madhya Pradesh ,Singrauli											,ADARSH VIKLANG SEVA SANGH,viklangseva@gmail.com,"
												shop 77 chunkumari stadium, Ward 40 adarsh wardWAIDHAN, SINGRAULI MP - 486886   
											", 9424348178 ,"
												Vikaas,Gharaunda												 												Niramaya											",SHAILESH KUMAR MISHRA
204, Madhya Pradesh ,Betul											,Navodit Gram Utthan Mahila Evam Bal Vikas Samiti,ngumbv@rediffmail.com,"
												00, Vill  Post BatkidohChopna, Betul - 460440   
											", 8889006751 ,"
												Disha,Gharaunda,Vikaas,Badhte Kadam,Samarth																																			",Shantiranjan Sikdar
205, Madhya Pradesh ,Ujjain											,Madhya Pradesh Viklang Sahayata Samiti,mpvss10@gmail.com,"
												51, ChandessaryChandessara, Ujjain - 456664   
											", 9425332740 ,"
												Vikaas,Disha												 												Niramaya											",Fr. George
206, Madhya Pradesh ,Bhind											,Mahila Bal Vikas Samiti,mbvs_45@rediffmail.com,"
												11/451, VikarampuraBTI Road, Bhind - 477001   
											", 9425794650 ,"
												Disha,Vikaas,Badhte Kadam,Gharaunda												 												Niramaya											",Shivbhan Singh Rathour
207, Madhya Pradesh ,Rewa											,Raj Rani Sewa Evam Shikshan Prashikshan Sansthan And Social Welfare Society,rsespsandsocialwelfare@gmail.com,"
												34, vill. kashihai post. barihardi ward no. 2 po- Baikunthpur,  Branch offIce-chhatrapati nagar,wtahasil-sirmaur  and teh-hujur, Rewa/  Satna - 486441   
											", 8934092201 ,"
												Disha,Vikaas,Sahyogi,Gharaunda,Badhte Kadam																																			",Sanjay singh
208, Madhya Pradesh ,Indore											,Anand Service Society,anandservicesociety@gmail.com,"
												EK133 scheme No. 54, Vijay NagarNear KK College, Indore - 452010   
											", 9425053971 ,"
																																															",Gyanendra Purohit
209, Madhya Pradesh ,Chhindwara											,AADHAR FOUNDATION,aadhar.foundation@rediffmail.com,"
												48 Panchwati Ward, Opp. MP 28 Dhaba,  Parasia RoadPanchwati Ward no 48, Poama,, Chhindwara - 480001   
											", 8989173581 ,"
												Disha,Vikaas,Gharaunda,Sahyogi,Badhte Kadam,Samarth																																			",ER. Mahesh Kinth
210, Madhya Pradesh ,Sagar											,ANJANI JAN KALYAN SANSTHAN SAMITI BINA,anjanijankalyan@gmail.com,"
												325, Aagasod RoudAugshod roud, Bina - 470113   
											", 9981330835 ,"
												Samarth																																			",NANDRAM KUSWAHA
"
																								",,,,,,,,
 Page 21 of 55 ( 542 records ) ,,,,,,,,
211, Madhya Pradesh ,Guna											,MAN-Mental Health Awareness  Networking,manspecialschool@rediffmail.com,"
												B1-B2, GREEN PARK  COLONY, BHULLANPURA BYPASSGuna, Guna - 473001   
											", 9827389872 ,"
																								 												Niramaya											",sangeeta singh
212, Madhya Pradesh ,Barwani											,Ashagram Trust,ashagram_trust@rediffmail.com,"
												District BarwaniMadhya Pradesh, Barwani - 451551   
											", 7693073035 ,"
																																															",Dr. S.N. Yadav
213, Madhya Pradesh ,Sagar											,SARV SHRI MAA NARMADA SHIKSHA AVM JAN KALYAN SEVA SAMITI,ssmnsajkss786@gmail.com,"
												62, BAZAR WARD DEORINEAR BESIK SCHOOL, DEORI - 470226   
											", 9893403841 ,"
												Gharaunda,Disha,Samarth,Vikaas,Disha																																			",MAYANK DUBEY
214, Madhya Pradesh ,Ujjain											,Ujjaini Senior Citizens Forum (USCF),sewadham24@gmail.com,"
												104, Durga Plaza, Dewas RoadFreeganj, Ujjain, Ujjain - 456010   
											", 9425092505 ,"
																																															",Sudhir Bhai Goyal
215, Madhya Pradesh ,Bhind											,FAMOUS  MAHILA KALYAN SAMITI,Fmks.bhind@gmail.com,"
												48 WARD NO 14, HOUSING COLONY BEHIND KUSUM BAI COLLEGE BHINDBHIND, BHIND - 477001   
											", 9575274575 ,"
																																															",AKBAR KHAN
216, Madhya Pradesh ,Bhopal											,Nidaan Sewa Samiti,pmohandas63@gmail.com,"
												B-291, B-291, SHAHPURA, B-SECTOR,NEAR SADANA SURGICAL, BHOPAL - 462039   
											", 9826934500 ,"
																																															",KALA MOHAN
217, Madhya Pradesh ,Ratlam											,Bargarh Mahavir Yuvak Mandal Samiti,bmyms@rediffmail.com,"
												178/1, Ahrihaant colony AloteHP Petrol Pump, Ratlam - 457114   
											", 9753768150 ,"
												Vikaas																																			",Yogendranarayan Mandaloi
218, Madhya Pradesh ,Rewa											,Sneh Mand Buddhi Avam Mook Badhir School Unit Of Sneh Shikshan Avam Manav Seva Sansthan,snehshikshan@gmail.com,"
												H NO 885, GALI NO 2BEHIND KIRTI KRANTI PRESS, REWA - 486001   
											", 9755412191 ,"
												Disha																																			",RAM SEWAK SAHU
219, Madhya Pradesh ,Vidisha											,UMMEED SHIKSHAN SAMITI,ummeedshikshansamity@gmail.com,"
												44 MIG INDRA COMPLEX, VIDISHAVIDISHA, VIDISHA - 464001   
											", 9098719899 ,"
												Disha,Vikaas																																			",REKHA MOTWANI
220, Madhya Pradesh ,Sagar											,Jan Jagran Educational And Health Wealfare Society Sagar,mjkps2@gmail.com,"
												110, banda roadmakroniya, sagar - 470002   
											", 9300071924 ,"
												Disha																																			",satyam singh
"
																								",,,,,,,,
 Page 22 of 55 ( 542 records ) ,,,,,,,,
221, Madhya Pradesh ,Jabalpur											,MOULANA AZAD EDUCATION FOUNDATION,recordrk6@gmail.com,"
												12, HOUSING BORD MAHARAJPUR JABALPURADHARTAL, JABALPUR - 482004   
											", 9425471236 ,"
												Vikaas,Gharaunda,Disha																																			",ARTI RAIKWAR
222, Madhya Pradesh ,Jabalpur											,Viklang Seva Bharti,vsbmp123@rediffmail.com,"
												SARAI NO 1 POLICE LINE, OPPOSITE HIGH COURTADJACENT TO BSNL OFFICE, Jabalpur - 482001   
											", 9425152222 ,"
																																															",MITALI BANERJI
223, Madhya Pradesh ,Betul											,Maa Savasan Mahila Mandal,maa.betul@rediffmail.com,"
												145, Victor PhotoNear Kale Ki Chakki, Betul - 460001   
											", 7869706872 ,"
												Gharaunda,Vikaas																																			",Pratibha Uikey
224, Madhya Pradesh ,Bhopal											,Digdarshika Institute Of Rehabilitation  Research,dirr89@rediffmail.com,"
												10, Rohit Nagar Phase-1,, Rohit Grih  Nirman Samiti,Bawadiya Kalan,, Bhopal - 462039   
											", 9425301177 ,"
												Vikaas,Disha												 												Niramaya											",Usha Upadhayaya
225, Madhya Pradesh ,Chhindwara											,Ashakiran Punarvas Kendra Run By Sanjeevani Service Society Narsinghpur,sssnbpl@gmail.com,"
												Shantigiri Ashram, Near Bhamodi PanchayathIklehra Post, Parasia, Parasia - 480449   
											", 7024178833 ,"
																																															",Thomas Varghese
226, Maharashtra ,Solapur											,Jivhala Society For The Mentally Handicapped,jivhalasociety@gmail.com,"
												9, Jivhala Society for the Mentally Handicapped,Vasant vihar,  Old  Pune Naka, Solapur ( Maharastra ) - 413001   
											", 9422457324 ,"
												Samarth												 												Niramaya											",Mr. Annarao Bhimashankar Rajmane
227, Maharashtra ,Jalgaon											,Utkarsh Matimand Vidyalay Jalgaon Unit Of Institute For Rural Development  Social Services Jalgaon,irdss_jal@rediffmail.com,"
												28/29, Jivram Nagar,, Near Khote Nagar,Nr. N.H. - 6, Jalgaon - 425001   
											", 9421514907 ,"
																																															",Dr. Suresh Shamrao Patil
228, Maharashtra ,Mumbai Suburban											,SOPAN Samarpan Center of Autism,snacmah@gmail.com,"
												1st Floor, BMC School Building, Natwar NagarRoad No.5, Jogeshwari(E),, Mumbai - 400060   
											", 9702871969 ,"
												Disha,Vikaas,Badhte Kadam												 												Niramaya											",Shoba Srivastava
229, Maharashtra ,Kolhapur											,Chetana Vikas Mandir - A Unit of Chetana Apangamati Vikas Sanstha,chetanavikas@gmail.com,"
												Kushtadham,, Shenda ParkNear Govt.Medical College, Kolhapur - 416012   
											", 9822682028 ,"
																								 												Niramaya											",Pawan D. Khebudkar
230, Maharashtra ,Mumbai Suburban											,Punarvas Education Society,punarvasschool@gmail.com,"
												Plot No 312, S.V Road, Goregaon WestOpp Piramal Nagar, Next to Nana Nani Park, Mumbai Suburban - 400104   
											", 9833927519 ,"
																																															",Mrs.Savita Jawale
"
																								",,,,,,,,
 Page 23 of 55 ( 542 records ) ,,,,,,,,
231, Maharashtra ,Thane											,SNEHALAYA CHARITABLE TRUST,snehalaya2007@rediffmail.com,"
												22/5A, PAREIRA NAGAR CHS LTD., KHOPATBEHIND LIFELINE HOSPITAL, THANE - 400601   
											", 9869547241 ,"
																								 												Niramaya											",MRS. OLIVIA W. DÃ¯Â¿Â½SOUZA
232, Maharashtra ,Latur											,UMANG INSTITUTE OF AUTISM AND MULTIDISABILITY RESEARCH CENTRE LATUR RUN BY SIDDHIVINAYAK PRATISTHAN,siddhi22305@gmial.com,"
												Umang Institute of Autism and Multidisability Reserach Centre, Barshi Road,Back Side of New Collector Office, Latur, LATUR - 413512   
											", 9921696056 ,"
																																															",KIRAN RAMESH UTAGE
233, Maharashtra ,Parbhani											,Mahatma Gandhi Seva Sangh,mahatmagandhisevasangh@gmail.com,"
												9, Rakhan, Jintur RoadViswa Corner, Parbhani - 431401   
											", 9158715200 ,"
																																															",Vijay Kanhekar
234, Maharashtra ,Washim											,ADHAR NIWASI MATIMAND VIDYALAYA  RUN BY JAGRUTI SHETKARI BAHUDDESHIYA MITRAMAND KAWATHA,JAGRUTIKWATHA@GMAIL.COM,"
												AT. POST. KAWATHA, TQ. RISOD, RISOD - 444506   
											", 9028735560 ,"
																																															",GEETA KISHOR PAYGHAN
235, Maharashtra ,Pune											,Saad - Support All Abled Differently,saad.pathpune@gmail.com,"
												Flat No 14, Pooja Apartment,, Pandurang ColonyErandawane , Pune, Pune - 411038   
											", 9822028015 ,"
																								 												Niramaya											",Sunita Lele
236, Maharashtra ,Dhule											,Kai. Bapuso N Z Marathe Vidhayak Sanstha Thalner Sanchalit Matimand Mula Mulinche Balgruh Shirpur,nzmarathevidhayaksanstha@gmail.com,"
												Sarve No. 21/1,22/1,, Shirpur Chopda Road,Near Water Park,, shirpur - 425405   
											", 9921590146 ,"
																																															",Mr. Ramesh Nimba Marathe
237, Maharashtra ,Amravati											,PRAYAS VISHESH SHALA RUN BY MANOVIKAS SPECIAL  CHILDREN EDUCATION SOCIETY AMRAVATI,umedamt@yahoo.com,"
												PRAYAS VISHESH SHALA, KRANTI COLONY ROAD,SATURNA MIDCNEAR DILHI PUBLIC SCHOOL, AMRAVATI - 444607   
											", 9823688493 ,"
																								 												Niramaya											",MR.VINAYAK KOLBAJI KADU
238, Maharashtra ,Satara											,Smt.P.C. Alwani School for M.R. Children   A Unit Of Rivka Sahil Akshar Institute,rsakshar09@gmail.com,"
												401, Ganpati AliNear Telephone Office, Wai - 412803   
											", 9763878738 ,"
												Vikaas																																			",Dr. Avinash Tapare
239, Maharashtra ,Satara											,Param Prasad Charitable Society,ashagram@hotmail.com,"
												217//2B, Asha BhavanKodoli, Rahimatpur Road, Satara - 415004   
											", 9421413314 ,"
																								 												Niramaya											",Fr.T.C.Thomas
240, Maharashtra ,Thane											,MBA FOUNDATION,lifecare.disabled@gmail.com,"
												Gods Abode, Plot No-23 A, Sector -17, AiroliNear Abhudaya Bank, Navi Mumbai - 400708   
											", 9594100387 ,"
																								 												Niramaya											",Meenakshi B
"
																								",,,,,,,,
 Page 24 of 55 ( 542 records ) ,,,,,,,,
241, Maharashtra ,Thane											,"SWAMI BRAHMANAND PRATISHTHAN, CENTRE FOR SPECIAL CHILDREN",shirishv12@gmail.com,"
												NAV-SHANTI, PLOT NO. 7, SECTOR 8A, DISHA SCHOOL MARG, ARTIST VILLAGENEAR KAIRALI HALL , CBD BELAPUR, NAVI MUMBAI - 400614   
											", 9820670733 ,"
																																															",MRS. SHIRISH VIJAY POOJARY
242, Maharashtra ,Mumbai City											,JAI VAKEEL FOUNDATION  RESEARCH CENTRE.,snacmaharashtra@gmail.com,"
												Sewri Hill, Abhyudaya Nagar CHS, Kalachaowki, Sewri RoadNear Milan Industrial Estate, Sewri - 400033   
											", 9321330311 ,"
												Badhte Kadam																																			",Ms. Archana Chandra
243, Maharashtra ,Mumbai City											,CEREBRAL PALSY ASSOCIATION OF INDIA,hhw.multiplehandicapped@gmail.com,"
												Windsor BMC Library Building, Windsor Lane, CST Road, Kalina, Santacruz (East),Opposite  JP Morgan, Mumbai - 400098   
											", 9029882662 ,"
																																															",MANJUSHA SINGH
244, Maharashtra ,Nagpur											,RASHTRAMATA BAHU UDDESHIYA SHIKSHAN MANDALs Running Special Schools For Person With Disability,ank2you@gmail.com,"
												S-1 KRISHNA REGENCY, SAMPRITI NAGARNEAR POWER GRID, NAGPUR - 440026   
											", 7385114111 ,"
																																															",SANKET RAJ KASPE
245, Maharashtra ,Raigad											,Sumangal School For Mentally Challenged Children Run By Suhit Jeevan Trust,suhitjeevantrust@gmail.com,"
												Suhit Jeevan Trust, Damodar Nagar,, Chinchpada, PenDr. Mahajans Hospital, Pen - 402107   
											", 9892191918 ,"
																																															",Dr. Surekha Patil
246, Maharashtra ,Kolhapur											,Lt. GANPATRAO GATADE SPECIAL SCHOOL RUN BY KAGAL TALUKA KALA KRIDA SHAIKSHANIK  SANSKRUTIK MANDAL,atulramchandrajoshi@gmail.com,"
												153, KOSHTI GALLISHRADDHA NIVAS, A WARD, KAGAL - 416216   
											", 9822009596 ,"
																																															",ATUL RAMCHANDRA JOSH
247, Maharashtra ,Mumbai Suburban											,Organization For Autistic Individuals,itsoai2012@gmail.com,"
												FLAT NO A 805 BY 806 MEGHDOOT BLDG, Lokhandwala Back RoadOpposite Jogging Track, Andheri West Mumbai - 400053   
											", 9820180198 ,"
																																															",Devopam Narendra Bajpai
248, Maharashtra ,Ahmednagar											,Matimand Vikas Shikshan Mandal,matishala@rediffmail.com,"
												wadia park, Tilak RoadAhmednagar, Ahmednagar - 414001   
											", 9850901709 ,"
																																															",Dr.Ravindra Ramchandra Satalkar
249, Maharashtra ,Aurangabad											,Vihang Vishesh Mulanchi Shala Run By Savitribai Phule Mahila Ekatma Samaj Mandal,vihang611@gmail.com,"
												Gat No-44, Uma Gopal NagarNear Kamal Nayan Bajaj Hospital, Beed Bypass, Aurangabd - 431010   
											", 9921750424 ,"
																																															",Dr. Vitthal M. Kulkarni
250, Maharashtra ,Mumbai Suburban											,Holistic Child Care Centre and Special School Run by M.B. Barvalia Foundation,spandan.office@gmail.com,"
												Spandan Holistic mother and childcare hospital,, Near Deonar Fire Brigade, Municipal colonyNear Sai Baba Temple, Deonar,Govandi, Mumbai - 400043   
											", 9324404197 ,"
												Disha,Disha,Gharaunda,Gharaunda,Gharaunda,Disha,Disha																																			",Dr Praful Barvalia
"
																								",,,,,,,,
 Page 25 of 55 ( 542 records ) ,,,,,,,,
251, Maharashtra ,Pune											,Kamayani Prashikshan And Sanshodhan Society KAMAYANI SCHOOL FOR THE MENTALLY HANDICAPPED PUNE,kamayaniudyogkendrapune16@gmail.com,"
												270 / B Gokhalenagar Pune, Balshatri Jambhekar RoadNear Patrakar Nagar Society Opp Baramati Hostel, Pune - 411016   
											", 2025651588 ,"
																																															",Dr Ashutosh Bhupatkar
252, Maharashtra ,Thane											,Association of Parents of Mentally Retarded Children,vishwasgore1960@hotmail.com,"
												5A/14, Pareira Nagar, Khopat, Agra RoadBehind Central Bus Stand, Thane, Thane - 400601   
											", 9821054369 ,"
																																															",Mr. Vishwas M. Gore
253, Maharashtra ,Osmanabad											,"TULJAI PRATISHTHAN BAHUUDDESHIYA SANSTA PANGAON, SANCHALIT SWAADHAR MATIMAND MULINCHE BALGRUH ,OSMAN",chavansn5@gmail.com,"
												TULJAI PRATISHTHAN, SWADHAR HOME FOR MENTALLY CHALLENGED GIRLSAIR PORT ROAD NEAR GAPAT FARM ALANI TQ DIST OSMANABAD, OSMANABAD - 413501   
											", 9423767524 ,"
																																															",SHAHAJI NARAYAN CHAVAN
254, Maharashtra ,Nagpur											,Jeevoday Special School For Mentally Retarded A Unit Of Jeevoday Education Society,jeevodaynagpur@ymail.com,"
												25/B, Residancy roadSFS school, Nagpur - 440001   
											", 9890279110 ,"
																								 												Niramaya											",Sr Josna Mary
255, Maharashtra ,Dhule											,"Shri Sanskar Matimand Mulinche Balgruh (Yamunai Shaikshanik V Sanskrutik Mahila Mandal,Dhule)",yamunaidhule@gmail.com,"
												Gat No 9, Sakri RoadBalaji Nagar,  Morane Pra La,, Dhule - 424001   
											", 8698608777 ,"
																																															",Mangalabai Sunil Wagh
256, Maharashtra ,Satara											,Ehsaas Matimand Mulanche Balgruh run by Chandrakant Bhanji Chande Memorial Trust,ehsaasmrchild@rediffmail.com,"
												At/P Valse Tal/dist Satara, NH4 Mega HighwayNear Ajinkyatara Sugar Factory, Shendre, Satara - 415519   
											", 9823773901 ,"
																								 												Niramaya											",Siddharth Arvind Thakkar
257, Maharashtra ,Pune											,UMED PARIWAR,info@umedpariwar.org,"
												GAT NO. 949, HADAPSAR SASWAD ROADKANIFNATH PAYTHA, WADKI, WADKI VILLAGE - 412308   
											", 9890092958 ,"
																																															",PURUSHOTTAM GOPILAL SHARMA
258, Maharashtra ,Mumbai Suburban											,Parivaar Sahyadri  the Apex Council of Parents of Persons with Intellectual and developmental Disabilities,parivaarsahyadri@gmail.com,"
												A 301 SHIVASHISH, S V ROAD   ANDHERI WESTOPP SHOPPERS STOP, MUMBAI - 400058   
											", 9920447481 ,"
																								 												Niramaya											",Prakash Bhalgat
259, Maharashtra ,Nashik											,"National Association for the Blind, Unit Maharashtra",nabdeafblind.86@rediffmail.com,"
												National Association for the Blind, Unit Maharashtra, NAB Sankul, Plot No. P-66,Lane No.3, Street A, MIDC, Satpur, Nashik - 422007   
											", 8975725562 ,"
																								 												Niramaya											",MR. Rameshwar Kalantri
260, Maharashtra ,Ratnagiri											,Aavishkar Society For Dev Of Mentally Handicaped Children,aavishkar.ratnagiri@gmail.com,"
												E-95, M.I.D.C.Mirjole, Ratnagiri - 415639   
											", 9422430893 ,"
																																															",Shri. Bipin Rasikalal Shaha
"
																								",,,,,,,,
 Page 26 of 55 ( 542 records ) ,,,,,,,,
261, Maharashtra ,Latur											,Sanvedana Cerebral Palsy Vikasan Kendra Run by RSS Janakalyan Samiti,sanvedana.cpvkl@gmail.com,"
												Sanvedana Cerebral Palsy Vikasan Kendra, Lakshmi Nagar, Barad VastiHarangul BK TQ.DIST Latur, Latur - 413531   
											", 9422072517 ,"
												Gharaunda												 												Niramaya											",Mr Suresh Manoharrao Patil
262, Maharashtra ,Thane											,ASTITVA MATIMAND MULANCHI SHALA RUN BY ASTITVA PRAHLADRAI KAGAZI INSTITUTE FOR HANIDCAPPED,astitvatrust81@gmail.com,"
												PLOT NO8  PHASE 1, MIDCNEAR LIC OFFICE, DOMBIVLI - 421203   
											", 9820043631 ,"
																																															",RADHIKA MILIND GUPTE
263, Maharashtra ,Latur											,SHRI GAJANAN BAHUDDESHIY SANSTHA BORI SANCHALIT . SANT GADGEBABA ANATH MATIMAND MULANCHE BALGRUHA,sgbammblatur@gmail.com,"
												SANT GADGEBABA ANATH MATIMAND MULANCHE BALGRUHA, LATUR, IN FRONT OF AVISHKAR SOCIETY, BABHALGAON ROADNEAR KAZI PETROL PUMP, LATUR - 413512   
											", 9422342731 ,"
																																															",SHILA ANNASAHEB KADAM
264, Maharashtra ,Ahmednagar											,Matimand Mulanche Balgruha Run By Navoday Gramin Nagari Vikas Prati. And Sancrutik Mandal Pathardi,navodaypathardi@gmail.com,"
												Survey No. 104/3 and 104/4, Mohari RoadNear Stone Crusher, Pathardi - 414102   
											", 9850652929 ,"
																																															",Smt. Anita Ashok Nirhali
265, Manipur ,Imphal West											,HANDICAPPED DEVELOPMENT FOUNDATION,hdfoundationmanipur@gmail.com,"
												57, Sagolband Tera Pukhri MapalImphal West, Imphal - 795001   
											", 9612157246 ,"
												Disha												 												Niramaya											",Dr. Sapam Jasowanta Singh
266, Manipur ,Imphal West											,RELIEF CENTRE FOR THE WELFARE OF DIFFERENTLY ABLED PERSONS MANIPUR,reliefcentremanipur@gmail.com,"
												32, Singjamei Chingamathak PishumNear  Hao Ground, IMPHAL - 795008   
											", 9862275037 ,"
												Badhte Kadam																																			",CH LOKESHORI DEVI
267, Manipur ,Churachandpur											,The Malsawm Initiative Run By Centre For Community Initiative,pauzagin@communityinitiative.in,"
												Nehru Marg, Central LamkaOpp Chingkangpa Avenue, Churachandpur - 795128   
											", 9612153082 ,"
												Disha																																			",Mr Pauzagin Tonsing
268, Manipur ,Imphal East											,Bliss Island School run by People Advanced In Social Services (PASS),pass.imp@rediffmail.com,"
												2nd street, Phaikhothang Village, Near Khuga Dam,Saikot Sub Division, Churachandpur, Churachandpur - 795006   
											", 9862133392 ,"
												Badhte Kadam,Samarth,Disha,Gharaunda												 												Niramaya											",Henthianlun
269, Meghalaya ,East Khasi Hills											,Bethany Society,bethanyngo1981@gmail.com,"
												BETHANY SOCIETY, LADY VERONICA LANE LAITUMKHRAHOPPOSITE BANSARA EYE CARE, SHILLONG - 793003   
											", 9436119808 ,"
												Disha												 												Niramaya											",Carmo Noronha
270, Odisha ,Khordha											,DR. BRAJA VIHARI MOHANTY MEMORIAL MENTALLY RETARDED BENEFIT TRUST,jagrutibbsr@gmail.com,"
												Plot No 430 part, , Santinagar, Jharapara,Near Ganesh Mandir, Orissa - 751006   
											", 9437075921 ,"
												Gharaunda																																			",Baikuntha Bihari Mohanty
"
																								",,,,,,,,
 Page 27 of 55 ( 542 records ) ,,,,,,,,
271, Odisha ,Puri											,PINGALAKHI PUBLIC WELFARE ORGANISATION,pingalakhi@gmail.com,"
												AT-JAYASHREE SQUARE, PO-NIMAPARANEAR BANK OF INDIA, NIMAPARA - 752106   
											", 9438090331 ,"
																								 												Niramaya											",RAJKISHOR SABUT
272, Odisha ,Puri											,NILACHAL SEVA PRATISTHAN,nspodisha@gmail.com,"
												Benagaon, Dayavihar, KanasBesides River Daya, KANAS - 752017   
											", 9438018582 ,"
												Gharaunda,Samarth																																			",SUBAS CHANDRA GAJENDRA
273, Odisha ,Dhenkanal											,PARTICIPATORY AND RECONSTRUCTION INSTITUTE ACTION,priajaj@gmail.com,"
												AT/PO-LAULAI,VIA-GONDIA, Laulai  GONDIANEAR TANK, Dhenkanal - 759016   
											", 9937300982 ,"
																								 												Niramaya											",TANKADHAR BARIK
274, Odisha ,Bhadrak											,Centre For Rehabilitation Services  Research CRSR,crsrodisha@gmail.com,"
												PRASANTI BHAWAN, Dahanigadia, Po: CharampaBack side of Old Dalda Factory, Bhadrak - 756101   
											", 9692165555 ,"
												Samarth,Gharaunda,Vikaas,Sahyogi,Badhte Kadam																																			",Er. Bhagaban Parida
275, Odisha ,Kandhamal											,National Institute For Peoples Development Investigation And Training,nipdit28@gmail.com,"
												NIPDIT, Lengar Sahi, College Road, PhulbaniNear Govt, Autonomous College, Phulbani, Phulbani - 762001   
											", 9437112246 ,"
																																															",Rama Chandra Dash
276, Odisha ,Mayurbhanj											,RURAL ORGANISATION FOR SOCIAL ELEVATION,roseorg2009@gmail.com,"
												RAGHUNATHPUR, RAGHUNATHPURNEAR DARGADHEI GOLEI, BARIPADA - 757107   
											", 9437218266 ,"
												Samarth																																			",CHANDAN DAS
277, Odisha ,Kendujhar											,SADBHABANA,sadbhabanakeonjhar@gmail.com,"
												Naranpur, NaranpurPrayas Special school,Near  Weekly Hata Field,Naranpur, kendujhar - 758014   
											", 9337646108 ,"
												Gharaunda																																			",CHANDI PRASAD PATTANAIK
278, Odisha ,Khordha											,Centre For Autism Therapy Counselling And Help (CATCH),catch2003@gmail.com,"
												plot no.-26, 26, Madhusudan NagarUnit-4, Bhubaneshwar, Khorda - 751001   
											", 9937004040 ,"
																																															",Reeta Jena
279, Odisha ,Mayurbhanj											,MANOVIKAS SOCIETY FOR DIFFERENTLY ABLED CHILDREN,manovikas_baripada@yahoo.com,"
												03, BETNARAJABADI, RAIKADJHARAN,TAKATPUR, BARIPADA - 757003   
											", 8917535964 ,"
																																															",SR TESINA
280, Odisha ,Angul											,SHIVANGINEE INSTITUTE OF CHILD DEVELOPMENT,sicdodisha@gmail.com,"
												11, LUCKY TYPE CHHAKA, HAKIMPADANEAR GOVT. COLLEGE, ANGUL - 759143   
											", 8249506323 ,"
																																															",SUJATA CHAULIA
"
																								",,,,,,,,
 Page 28 of 55 ( 542 records ) ,,,,,,,,
281, Odisha ,Khordha											,"Institute of Health Sciences, a unit of Margdarsi",snacodisha@gmail.com,"
												N2/41, IRC VILLAGEIRC Village,Nayapalli, Bhubneshwar, Bhubaneswar - 751015   
											", 9437005096 ,"
												Badhte Kadam,Vikaas,Samarth																																			",Satyanarayan Mahapatra
282, Odisha ,Cuttack											,THE HOPE,sanjaysazzan@gmail.com,"
												1802/3027, MANGALABAGMEDICAL ROAD, Cuttack - 753001   
											", 9437196408 ,"
												Badhte Kadam												 												Niramaya											",DR. SANJAY KUMAR SAZZAN
283, Odisha ,Jharsuguda											,ASHAKIRAN CHARITABLE SOCIETY,kiranasha830@gmail.com,"
												019/999, JHARSUGUDADIPU PADA, JHARSUGUDA - 768201   
											", 9438157469 ,"
																																															",SR. KRIPA POUL
284, Odisha ,Ganjam											,Ganjam District Orthopaedically Handicapped Welfare Association,samartha_gdohwa@yahoo.co.in,"
												110/15, Netaji Subash Marg (Near SP Residence)Infront of Bharat Petrol Pump, Chatrapur - 761020   
											", 9437049457 ,"
																																															",K Ananda
285, Odisha ,Balangir											,Association for Social Help in Rural Area,ashraorissa2007@rediffmail.com,"
												A73, TusraJagannath Temple, Balangir - 767030   
											", 9437916866 ,"
												Sahyogi,Samarth,Gharaunda																																			",Ranjit Prasad Mohanty
286, Odisha ,Sundargarh											,Hope,dalvindersi@gmail.com,"
												Subash Bose Hospital, RajgangpurSubash Chowk, Rajgangpur - 770017   
											", 9437040576 ,"
																																															",Dr. Dalvinder Singh Bhangu
287, Odisha ,Sonepur											,Juba Jyoti Jubak Sangha,jubajyoti@gmail.com,"
												34, 37,, Saradeipur, Dhauli Square, Dist-KhurdaOpposite to Gayatri Science College, Bhubaneswar - 751002   
											", 9437153132 ,"
																																															",Chandeswar Jayasingh
288, Odisha ,Sundargarh											,Shradha,shraddha.rkl@gmail.com,"
												C/317, Sector-16Near Community Centre, Sec-16, Rourkela - 769003   
											", 9438187899 ,"
																																															",Kartik Chandra Pandab
289, Odisha ,Sonepur											,Research Academy For Rural Enrichment (RARE),raresonepur@hotmail.com,"
												00, P.O.- Sonepur, Sonepur - 767017   
											", 9937618884 ,"
												Disha,Badhte Kadam,Vikaas,Disha,Sahyogi												 												Niramaya											",Mr. Ananga Negi
290, Odisha ,Balasore											,THE WELFARE,blindschoolbalasore@gmail.com,"
												WARD -22, Ranipatna, P.O. /Dist. BalasoreDaraji pokhari chhak, BALASORE - 756001   
											", 9437156030 ,"
																								 												Niramaya											",DIBAKAR SAW
"
																								",,,,,,,,
 Page 29 of 55 ( 542 records ) ,,,,,,,,
291, Odisha ,Khordha											,Open Learning Systems,ceo@olsbbsr.org,"
												Plot No.G-3-A/1, Gadakana MouzaP.O. Mancheswar Railway Colony, Near Press Chhak, Bhubaneswar - 751017   
											", 9437071716 ,"
																								 												Niramaya											",PRAKASH KUMAR RATH
292, Odisha ,Kendrapara											,PUNARBASA,punarbasa1@gmail.com,"
												At - Madhapur, Po - Kendrapara, Madhapur RoadNear Old Bus Stand, Kendrapara - 754211   
											", 8917366470 ,"
																								 												Niramaya											",Banasmita Nayak
293, Odisha ,Nayagarh											,Society For Environmental Development And Voluntary Action,sevaorga@gmail.com,"
												147, Old TownNear New Bus Stannd, Nayagarh - 752070   
											", 9437827981 ,"
																																															",Amarendra Kumar Das Parija
294, Odisha ,Koraput											,Ekta,ektan@rediffmail.com,"
												28/143, DurugudaPadmapur, Dumuriput, Koraput - 764021   
											", 9437233542 ,"
																																															",Jagannath Mishra
295, Odisha ,Sundargarh											,Regional Rehabilitation and Research Center,rrrcodisha@gmail.com,"
												212/321, Panposh RoadNear RGH, Rourkela - 769015   
											", 9437085434 ,"
												Vikaas,Disha,Badhte Kadam												 												Niramaya											",Rama Chandra Behera
296, Odisha ,Cuttack											,AASTHA REHAB CARE SOCIETY,ashish_ashtha@rediffmail.com,"
												NIMOI COMPLEX-1, NIMCHOURIORISSA HIGH COURT, CUTTACK - 753002   
											", 9338128085 ,"
																								 												Niramaya											",ASHISH KUMAR
297, Odisha ,Cuttack											,Bharat Jyoti,bj_orissa@yahoo.com,"
												No house no., Jhanjirimangala, TelengabazarJhanjirimangala (S.B.I Building 2nd floor), Cuttack - 753009   
											", 9937191097 ,"
												Sahyogi																																			",Narayan Mohanty
298, Odisha ,Khordha											,Social Welfare Organisation For Rural Development,swordorissa@gmail.com,"
												Plot No- 101-A, Kolathia, KhandagiriNear AMRI Hospital, Bhubaneswar - 751019   
											", 9438298984 ,"
												Badhte Kadam												 												Niramaya											",Soubhagya Ranjan Bhuyan
299, Odisha ,Balasore											,SRI SRI JADIMAHAL YOUTH CLUB,ssjyc@rediffmail.com,"
												250, KANTABANIAKANTABANIA, BALASORE - 756049   
											", 7682893104 ,"
												Gharaunda,Sahyogi																																			",RASHMIRANJAN KAR
300, Odisha ,Balasore											,MOTHERTERESA SEVA SANGHA,mtssodisha@gmail.com,"
												DAGARA, VIA-PRATAPPURPO-DAGARA, BALIAPAL - 756083   
											", 9437674909 ,"
																																															",ANIRUDHA PATRA
"
																								",,,,,,,,
 Page 30 of 55 ( 542 records ) ,,,,,,,,
301, Odisha ,Cuttack											,AASHRAYA,aashraya2012@rediffmail.com,"
												AT- Manitiri, PO. BalichandrapurNear Lalitagiri Budhist site, Cuttack - 754205   
											", 9438280205 ,"
																								 												Niramaya											",Jitendra Kumar Satapathy
302, Odisha ,Khordha											,VIKASH,vikashbbsr@gmail.com,"
												D-2/7, Industrial Estate, RasulgarhNear Sambad Press, Bhubaneswar - 751010   
											", 9439366538 ,"
																								 												Niramaya											",BIBEKANANDA MISHRA
303, Odisha ,Cuttack											,INDIAN RED CROSS SOCIETY ODISHA STATE BRANCH SAHAYA,ircs.sahaya@gmail.com,"
												Blood Bank Campus, MangalabagSCB Medical College  Hospital, Cuttack - 753007   
											", 9338111242 ,"
																																															",MRINALINI PADHI
304, Odisha ,Balasore											,The Welfare Society For The Disable Of Odisha,wsdojaleswar@gmail.com,"
												491/662, Jaleswar Nuabazar to NampoNear Tareni Temple , By pass NH 60, Jaleswar - 756032   
											", 7008991937 ,"
																																															",Kapileswar Mohanty
305, Odisha ,Ganjam											,Manovikas GEMM Managed By All India Womens Conference,manovikaskendra@gmail.com,"
												17739, NEELAKANTHA NAGAR 1ST LANE, BIJIPURNEAR SANTOSIMA TEMPLE, BERHAMPUR - 760003   
											", 9437388399 ,"
																																															",SARBANI PARHI
306, Puducherry ,Puducherry											,Satya Special School,admin@satyaspecialschool.org,"
												6 7  8, ECR Road (near shivaji statue)Karuvadikuppam, Puducherry - 605008   
											", 9345454449 ,"
																								 												Niramaya											",Chitra Shah
307, Puducherry ,Puducherry											,SHARON SOCIETY OF PONDICHERRY,sharonmohan.org@gmail.com,"
												390, Bharathiyar Street Ashok Nagar LawspetNear PondyOrthoClinic, Lawspet - 605008   
											", 9843483718 ,"
												Badhte Kadam																																			",Mr G Mohan
308, Puducherry ,Puducherry											,Integrated Rehabilitation and Development Centre,irdcsnacpdy@gmail.com,"
												7, Rajaganapathy Nagar, Kakayanthope, Veeranpatinam via, AriyankuppamArikanmedu Historical Place, Ariyankuppam - 605007   
											", 9994507100 ,"
												Badhte Kadam,Gharaunda																																			",Mr. J. Stephen Raj
309, Punjab ,Hoshiarpur											,Tek Chand Sud Charitable Trust,aatmsukh@yahoo.com,"
												00, Old Kank MandiOld Kanak Mandi Chowk Above SBI, Hoshiarpur - 146001   
											", 7009983727 ,"
																																															",Navdeep Sud
310, Punjab ,Ludhiana											,KAUSHALAYA KUNDAN PROGRESSIVE MEDICAL HOSPITAL  RESEARCH CENTRE REGISTERED CHARITABLE SOCIETY,sahilhora@yahoo.com,"
												BABA KUNDAN HOSPITAL, RISHI NAGAROPP BSNL TELEPHONE EXCHANGE, LUDHIANA - 141001   
											", 9417348549 ,"
																								 												Niramaya											",DR SWARN LATA
"
																								",,,,,,,,
 Page 31 of 55 ( 542 records ) ,,,,,,,,
311, Punjab ,Hoshiarpur											,Asha Deep Welfare Society,jssashakiran@gmail.com,"
												VPO Jahan Khelan, VUNA Road, Hoshiarpur - 146110   
											", 9417251305 ,"
																								 												Niramaya											",Malkiat Singh Sond
312, Punjab ,Fatehgarh Sahib											,Confederation For Challenged,cfcin@ymail.com,"
												**, Sraffan Bazar,Ward No. 3, (New ward no 13), Bassi Pathana - 140412   
											", 9876120864 ,"
												Vikaas																																			",Manmohan Jargar
313, Punjab ,Jalandhar											,APAAR Altering Perceptions Of Autism And Assisting In Rehabilitation,apaaremail@gmail.com,"
												719-C, Urban Estate, Phase-1 jalandharpunjab institute of medical sciences, Jalandhar - 144022   
											", 9056392291 ,"
																																															",Navneet Bhullar
314, Punjab ,Faridkot											,Indian Red Cross Society Distt Branch,redcross_fdk@yahoo.co.in,"
												Red Cross Bhawan, Red Cross Bhawan,Sadiq Chownk, Sadiq Chownk - 151203   
											", 9781269311 ,"
																																															",Deputy Commissioner Faridkot
315, Punjab ,Bathinda											,Para Boccia Sports Welfare Society,jaspreetjassi12345@gmail.com,"
												69, Near DharmshalaVPO ABLU, Bathinda - 151201   
											", 9803454949 ,"
																																															",Jaspreet Singh
316, Punjab ,Pathankot											,Saint Francis Home (Regd.),st.francishomepkt@gmail.com,"
												61/3, P.O.JandwalDalhousie Road Railway Station, Pathankot - 145001   
											", 9417220235 ,"
																																															",Fr. Joseph Puthenpura
317, Punjab ,Rupnagar											,Ambuja Manovikas Kendra Special School Unit of Ambuja Cement Foundation,suresh.thakur@ambujacement.com,"
												Village Salora, Village SaloraPost Office Pathredi Jatan, Ropar - 140108   
											", 9876632568 ,"
																																															",Ms. Pearl Tiwari
318, Punjab ,Patiala											,Autism India Today,presidentautismindiatoday@gmail.com,"
												5, Hargobind NagarSarhind Road, Patiala - 147004   
											", 9356767367 ,"
																								 												Niramaya											",Harpreet Kaur Bedi
319, Punjab ,SAS Nagar											,Universal Disabled Care Taker Social Welfare Society Regd.,caredisabled@gmail.com,"
												Prabh Aasra, Village PadialaKurali, Kurali - 140103   
											", 9815103793 ,"
																																															",S. Shamsher Singh
320, Punjab ,Hoshiarpur											,Navchetna Society,navchetnasociety9@gmail.com,"
												B-136/11, Tulsi NagarGovernment College, Hoshiarpur - 146001   
											", 9814747308 ,"
												Vikaas,Disha,Badhte Kadam																																			",Chandresh Kumar
"
																								",,,,,,,,
 Page 32 of 55 ( 542 records ) ,,,,,,,,
321, Punjab ,Jalandhar											,CHAANAN ASSOCIATION FOR MR CHILDREN,AMARJITSINGHANAND@GMAIL.COM,"
												432-L, MODEL TOWN, JALANDHAR - 144003   
											", 9417006059 ,"
																																															",AMARJIT SINGH ANAND
322, Rajasthan ,Jaipur											,Shri Narsingh Maharaj Punarvas & Shikshan Sansthan,snmspecialschool@gmail.com,"
												9/199, 9/199, Malviya Nagar, JaipurNear Palika Market, Jaipur - 302017   
											", 9414058796 ,"
																								 												Niramaya											",Dr Surendra Kumar Meena
323, Rajasthan ,Ajmer											,Rajasthan Mahila Kalyan Mandal,rmkm_ajm@yahoo.com,"
												Rajasthan Mahila Kalyan Mandal, Viswamitra AshramVillage Chachiyawas,, Sikar Road - 305023   
											", 9413223809 ,"
												Disha,Prerna																																			",Kshama R. Kaushik
324, Rajasthan ,Jodhpur											,MARUDHARA BAL SHIKSHAN SANSTHAN,mbsspiparcity@gmail.com,"
												10/20, NEAR RATHOLAI NADIPIPARCITY, PIPARCITY - 342601   
											", 9460956847 ,"
																																															",SHYAMLAL
325, Rajasthan ,Kota											,Shikhar Society For The Welfare Of Mentallty Handicapped,shikharschool@hotmail.com,"
												2-N-3, DadabariNear Police Station, Kota - 324009   
											", 9460980778 ,"
												Disha,Badhte Kadam,Vikaas																																			",Meenakshi Saxena
326, Rajasthan ,Dausa											,SHIKSHA SANCHALAN AND CHIKITSA PRASAR SAMITEE,icn0787@gmail.com,"
												INDIAN GROUP OF INSTITUTION CAMPUS, BANIYANAINDIAN GROUP OF INSTITUTION, BANIYANA ROAD, DAUSA - 303303   
											", 8058555888 ,"
																																															",SMT. JYOTI SHARMA
327, Rajasthan ,Jaipur											,Disha Rehabilitation Centre run by Disha Foundation,disha@dishafoundation.org,"
												Nirman Nagar C, T N Mishra MargNear JDA Park, Jaipur - 302019   
											", 9251000022 ,"
																																															",Ms.Rainu Singh
328, Rajasthan ,Alwar											,Pt.Chhitarmal lata welfare society,shivjyotikhairthal@yahoo.in,"
												0000, BehrojC/o Shiv jyoti K.D. Manovikas School, ward no 16, Dantla road, Near new anaj mandi boundary, Khairthal - 301404   
											", 9252093961 ,"
																																															",Krishna sharma
329, Rajasthan ,Pali											,SWAVLAMBAN FOUDATION,vaibhav.behappy@gmail.com,"
												67, ADARSH NAGARNEAR GOVT. SCHOOL, PALI - 306401   
											", 9929853153 ,"
																																															",VAIBHAV BHANDARI
330, Rajasthan ,Jaipur											,PRAYAS  Vocational Institute for Mentally Handicapped,prayasjaipur17@gmail.com,"
												J-5A,, Jhalana Institutional AreaJhalana, Jaipur-4 - 302017   
											", 9928064097 ,"
																																															",R.K.Mohla
"
																								",,,,,,,,
 Page 33 of 55 ( 542 records ) ,,,,,,,,
331, Rajasthan ,Bharatpur											,MAHILA BAL VIKAS GRAMOUDHYOG SHIKSHA SAMITI BHARATPUR,luckyspecialschoolbharatpur@gmail.com,"
												330, New Pushp Vatika ColonyFathehpur Sikari Road, Bharatpur - 321001   
											", 9783604189 ,"
												Gharaunda																																			",VINOD KUMAR
332, Rajasthan ,Tonk											,Yogesh Shekshik Punarwas Avam Shodh Sansthan,yogesh_niwai90@rediffmail.com,"
												Block-03, Indira Colony Extension, Ward no.-20Near Shyam Mandir, Niwai - 304021   
											", 9829316028 ,"
																																															",Sita Ram Swami
333, Rajasthan ,Udaipur											,Prachya Shodh Peeth Samiti,sunitaprayas@yahoo.co.in,"
												30, Ac-I RoadBhupalpura, Udaipur - 313001   
											", 9351549074 ,"
																								 												Niramaya											",Sunita Bhandari
334, Rajasthan ,Jalore											,Jagriti Jan Sewa Sansthan,jjssnagour@gmail.com,"
												101, Rajpurohit Hostel, Jodhpur Road, Jalore - 307029   
											", 9950855080 ,"
																																															",Garima Gupta
335, Rajasthan ,Karauli											,Kavya Siksha Evam Vikas Seva Sansthan,ksvssraj@gmail.com,"
												132 KV, GSS Colony, GSS Colony, Karauli - 322241   
											", 9413431691 ,"
																																															",Ramji lal Sharma
336, Rajasthan ,Sri Ganganagar											,Tapovan Manovikas Vidhaylya Samiti,tapovanmanovikas@rediffmail.com,"
												4 ML, suratgarh roadnear homeland city, sri ganganagar - 335001   
											", 9461076742 ,"
																																															",Sumer Mal Borar
337, Rajasthan ,Sri Ganganagar											,Jubin Spastic Home & Charitable Sansthan,jubintrust_seva@yahoo.com,"
												195-196 SUKHARIA SHOPPING CENTRE, MAIN ROADNEAR SUKHARIA CIRCLE, Sri Ganganagar - 335001   
											", 9414089070 ,"
																																															",VINITA AHUJA
338, Rajasthan ,Jaipur											,Gurukul Spastic Society,gurukulspasticsociety@gmail.com,"
												13-A, Chanchal Vatika, Anand Vihar-A, Binjari MargDadi Ka Phatak, Jhotwara, Jaipur - 302012   
											", 7073677767 ,"
																																															",Dr.Hari Ram Meena
339, Rajasthan ,Sirohi											,SANSKAR SHAIKSHIK PUNARVAS EVAM ANUSANDHAN SANSTHAN,dciedssbk@gmail.com,"
												HOUSE NO. 40, SANTI VIHAR COLONY, RICCO INDUSTRIES AREAMANDAR, MANDAR - 307513   
											", 9904538217 ,"
																								 												Niramaya											",CHAUDHARI RAMESHBHAI
340, Rajasthan ,Jaipur											,Umang Centre for Special Education,umangjaipur@gmail.com,"
												00, Shipra Path, MansarovarNear Technology Park, Jaipur - 302020   
											", 9314878251 ,"
												Badhte Kadam,Prerna												 												Niramaya											",Mrs. Deepak Kalra
"
																								",,,,,,,,
 Page 34 of 55 ( 542 records ) ,,,,,,,,
341, Rajasthan ,Bhilwara											,SONA VIKLANG PUNERVAS AVOM SODH SANSTHAN,svnbhilwara@gmail.com,"
												NEAR NOBLE SCHOOL, KUWADA ROAD200 FIT BYEPASS, BHILWARA - 311001   
											", 9414112526 ,"
																																															",PREM KUMAR JAIN
342, Rajasthan ,Dausa											,Deep Vidhya Mandir Samiti,dvmsngo@yahoo.co.in,"
												000, Gayatri NagarDausa, Dausa - 303303   
											", 9414035821 ,"
												Disha,Samarth,Badhte Kadam																																			",Mr. Nawal Kishor Bhankari
343, Rajasthan ,Jaipur											,Approach Autism Society,approach.autism@gmail.com,"
												M 2161 A, Rangoli Gardens, Maharana Pratap Marg, PanchyawalaNear Vaishali Nagar, JAIPUR - 302034   
											", 9214309551 ,"
																								 												Niramaya											",Anurag Srivastava
344, Rajasthan ,Ajmer											,JYOTIRGAMAY SEVA SANSTHAN,jyotirgamayss@GMAIL.COM,"
												001, VAMDEV MARG BHARAT SEVA SHARM SHANG, PUSHKARPUSHKAR, AJMER - 305022   
											", 9602058320 ,"
																																															",VED PRABHA SEN
345, Rajasthan ,Jhunjhunu											,Asha Ka Jharna,sudeepgo@rediffmail.com,"
												Ward No 5, Harlal Ka KothiNawalgarh, NAWALGARH - 333042   
											", 9414036896 ,"
																																															",SUDEEP GOYAL
346, Rajasthan ,Jhunjhunu											,Maa Sewa Sansthan,saralasaini68@gmail.com,"
												121, Maa Mungi  By pass road GothraGothra, khetri nagar - 333504   
											", 9636749124 ,"
																																															",Dr. Indu Saini
347, Sikkim ,East Sikkim											,KALPATARU PRATISTHAN,kalpatarupratisthan@rediffmail.com,"
												125, Raley samdong link roadNear kamaleshwar shivalaya mandir, kambal, Gangtok - 737107   
											", 7602862291 ,"
																																															",GANGA PRASAD BHATTARAI
348, Tamil Nadu ,Tirunelveli											,Amar Seva Sangam,mail@amarseva.org,"
												7-4-104B, Sulochana GardensTenkasi Road, Ayikudy, Ayikudy, Tirunelveli - 627852   
											", 9944454170 ,"
																								 												Niramaya											",S Sankara Raman
349, Tamil Nadu ,Sivgangai											,NAMBIKKAI SPECIAL SCHOOL FOR MENTALLY RETARDED Run By VASANTHAM MAHALIR MUNNETRA SANGAM,svgavmms@gmail.com,"
												25, Sowgathali StreetNehru Bazzar, Sivaganga - 630561   
											", 9865348316 ,"
																																															",MR.M.GANESAN
350, Tamil Nadu ,Dindigul											,ARVI SPECIAL SCHOOL A UNIT OF ASSOCIATION FOR REHABILITATION OF VILLAGE  IMPAIRMENT,arvitrust@gmail.com,"
												2/917, OPP TO OM SHAKTHI TEMPLE, SEELAPADI POST,DINDIGUL, DINDIGUL - 624005   
											", 9843160475 ,"
												Badhte Kadam,Disha,Sahyogi																																			",A RAMACHANDRAN
"
																								",,,,,,,,
 Page 35 of 55 ( 542 records ) ,,,,,,,,
351, Tamil Nadu ,Nagapattinam											,MAHAISHWAR PARENT TRAINING CENTRE FOR PERSONS WITH DISABILITIES,mahaishwarcentre@gmail.com,"
												3E, N0.1, PUTHU STREET,MAILADUTHURAI, MAILADUTHURAI - 609001   
											", 9842491956 ,"
																																															",T.KUNGUMA ESWARI
352, Tamil Nadu ,Kanyakumari											,Rural Community Development of India  RUCODE India,rucode@rediffmail.com,"
												479, Municipal  ColonyHousing Board, Nagercoil, Nagercoil - 629004   
											", 9443283699 ,"
												Sahyogi												 												Niramaya											",MARIA ALOYSIUS NOVEMONEY
353, Tamil Nadu ,Ranipet											,NESAM THE SCHOOL FOR SPECIAL EDUCATION,veeraraghavan_srinivasan@yahoo.com,"
												66/61, Vellore Main RoadNear Anna Statue, ARCOT - 632503   
											", 9789827865 ,"
																																															",K.V. SRINIVASAN
354, Tamil Nadu ,Coimbatore											,Vidya Vikasini Opportunity School a unit of Vidya Vikasini Society,vvadmn@yahoo.co.in,"
												66 D, C/O - Vidya Vikasini Opportunity School66-D, Mettupalayam Road, Thudiyalur Post, Coimbatore - 641034   
											", 9865996585 ,"
												Badhte Kadam,Samarth																																			",Mr.T.V.Suresh
355, Tamil Nadu ,Cuddalore											,GLOBAL SPECIAL SCHOOL FOR THE MENTALLY CHALLENGED. a unit of GLOBAL TRUST FOR THE DIFFERENTLY ABLED,globaltrust2014gk@yahoo.com,"
												NO 77 4th CROSS STREET, SUBBURAYALUNAGAR THIRUPPAPULIYURTHIRUPPAPULIYUR RAILWAY STATION, CUDDALORE - 607002   
											", 9345216488 ,"
												Badhte Kadam,Samarth																																			",M KUMUDHAM
356, Tamil Nadu ,Dindigul											,Udayam Special School For Intellectual Disabled A Unit Of Udayam Charitable Trust,udayamdgl@gmail.com,"
												107/3, ANNA NAGAR, VELAMPATTY (PO) NATHAM (TK), DINDIGULBACK TO UNION OFFICE, DIndigul - 624401   
											", 9043560475 ,"
																																															",Ramachandran
357, Tamil Nadu ,Chennai											,PATHWAY CENTRE FOR REHABILITATION AND EDUCATION FOR MENTALLY RETARDED a unit of DR. D. M. C. TRUST,pathwaychandra@gmail.com,"
												E-76/1, 12TH WEST STREETKAMARAJ NAGAR, THIRUVANMIYUR, CHENNAI - 600041   
											", 9840121859 ,"
																																															",CHANDRA PRASAD
358, Tamil Nadu ,Tiruppur											,Sabarmathi Social Seva Sangam,admin@sabarmathisss.in,"
												B.29 - Kumaran Colony, AmmapalayamAnuparpalayam Post, Tirupur - 641652   
											", 9842690623 ,"
												Badhte Kadam												 												Niramaya											",Kumaraguru N
359, Tamil Nadu ,Thoothukkudi											,DYMPHNA SPECIAL SCHOOL RUN BY CTC PROVINCE CHARITABLE TRUST,dymphnasplschool@gmail.com,"
												2/236_2, kovilpillai vilaiArockiapuram, thoothukudi - 628002   
											", 7868026413 ,"
																																															",A UNIT OF CTC PROVINCE CHARITABLE TRUST
360, Tamil Nadu ,Dindigul											,SRIMATHI KARTHIKEYANI SCHOOL FOR SPECIAL CHILDREN RUN BY KAMAKSHI PANDARINATHAN TRUST,kptrust2004@gmail.com,"
												4/385, MAHARAJA NAGARCOLLECTORATE POST OFFICE, DINDIGUL - 624004   
											", 9514507000 ,"
																																															",DR.P.SUGUMAR
"
																								",,,,,,,,
 Page 36 of 55 ( 542 records ) ,,,,,,,,
361, Tamil Nadu ,Tiruvannamalai											,Peoples Craft Training Center,pctcxavi@gmail.com,"
												170, CC RoadKondam-Kariyandal, Nayudumangalam - 606802   
											", 9442971305 ,"
												Vikaas																																			",Vijayaraj Mariadoss
362, Tamil Nadu ,Kanyakumari											,Santhi Nilayam School for the Mentally challenged,santhi_nilayam@yahoo.com,"
												12/91/B2, ParuthivilaiErumbukadu Post, Nagercoil - 629004   
											", 9487955883 ,"
																								 												Niramaya											",Sr. Anis Theresa M.Jacob
363, Tamil Nadu ,Viluppuram											,Sristi Special School a unit of Sristi Foundation,sristivillage@gmail.com,"
												Sristi Foundation, Konamangalam VillageNear School, Tindivanam - 604304   
											", 9047787887 ,"
												Badhte Kadam,Vikaas																																			",Karthikeyan G
364, Tamil Nadu ,Chennai											,Vidya Sagar,niramaya@vidyasagar.co.in,"
												No.1, No.1,Ranjit Road, KotturpuramKotturpuram, Chennai - 600085   
											", 9380474832 ,"
																								 												Niramaya											",RADHA RAMESH
365, Tamil Nadu ,The Nilgiris											,DESILVA SPECIAL SCHOOL  CENTRE FOR THE INTELLECTUALLY DISABLED CHILDREN.  DESILVA HANDICAP TRUST.,jeevadesilva92@gmail.com,"
												4/164_K1, SackathaNear By Government High school Aravenu, Kotagiri - 643201   
											", 9787556055 ,"
																																															",SHANMUGAM.M
366, Tamil Nadu ,Dindigul											,Gurukul Special School for Intellectually Disabled Children run by Lantern Charitable Trust,Gurukulspecialschool@gmail.com,"
												H-1-5, R.M.ColonyDindigul, Dindigul - 624001   
											", 8807636524 ,"
																																															",Kaleeswaran
367, Tamil Nadu ,Madurai											,Bodhi Residential Psychiatric Rehab Centre run by M.S.Chellamuthu Trust and Research Foundation,info@msctrust.org,"
												643, K.K.NagarNear Anna Nagar Police Station, Madurai - 625020   
											", 9629911341 ,"
																																															",Mr.R.Rajkumari
368, Tamil Nadu ,Karur											,MAANAVOO SPECIAL SCHOOL AND REHABILITATION CENTRE  A UNIT OF POPULAR MEDICAL ... FOUNDATION,maanavoosplschool@gmail.com,"
												No 1, VADAMALAI GOUNDANURSOLIAMMAN KOVIL NEAR, KARUR - 639002   
											", 9894044478 ,"
																																															",G.KALAVATHI
369, Tamil Nadu ,Theni											,SCHOOL FOR INTELLECTUALLY DISABLED  RUN BY CENTRE FOR DEVELOPMENT AND COMMUNICATION TRUST,cendect@gmail.com,"
												89-A/B-3,, WEST STREETKAMATCHIPURAM (S.O), THENI - 625520   
											", 9443047245 ,"
																																															",DR P PATCHAIMAL
370, Tamil Nadu ,Kanchipuram											,Aathichudy Special  school run by swastik trust,aathichudy@yahoo.com,"
												208, Navalar streetAnnai indira nagar, Konnerikuppam Village, Kanchipuram - 631502   
											", 9444366435 ,"
																																															",V.R. Sathiavannan
"
																								",,,,,,,,
 Page 37 of 55 ( 542 records ) ,,,,,,,,
371, Tamil Nadu ,Tiruvarur											,BHARATHAMATHA SPECIAL SCHOOL FOR THE INTELLECTUAL DISABLED CHILDREN Unit Of BHARATHAMATHA FOUNDATION,bharathamatha.vo@gmail.com,"
												3/2B  3/2C, MAIN ROAD, MANALI POST, THIRUTHURAIPOONDI - TALUK, THIRUVARUR - DISTRICTOPP. SATHANGUDI BRIDGE, THIRUTHURAIPOONDI - 610203   
											", 9942227001 ,"
																																															",EDAIYOOR R.V. MANIMARAN
372, Tamil Nadu ,Chennai											,Madhuram Narayanan Centre For Exceptional Children  A Unit Of Bala Mandir Kamaraj Trust,mnc.chennai@gmail.com,"
												18, Prakasam Road, T Nagar, Chennai 600017Opp to Dass Color Labs, Chennai - 600017   
											", 9444019226 ,"
																																															",MRS. JAYA KRISHNASWAMY
373, Tamil Nadu ,Namakkal											,Sivabakkiam Rehabilitation Centre For Disabled Person,sivabakkiamrcd@gmail.com,"
												2/80, AyakattupalayamManathi Post, Tiruchengode Taluk - 637212   
											", 9488200300 ,"
																																															",Kasirajan
374, Tamil Nadu ,Ramanathapuram											,Chest Aangelin School for DifferentlyAbled run by CHILDREN ANDHANDICAPPEDEMPOWERMENT SERVICE TRUST,chestaangelin9@gmail.com,"
												25/38, North Car StreetBackside of the Lord shivji Temple, Ramanathapuram - 623501   
											", 9677212572 ,"
																																															",DHASARATHA BOOPATHY V
375, Tamil Nadu ,Theni											,THENI SOCIAL REHABILITATION AND DEVELOPMENT TRUST,tesordt1@gmail.com,"
												8 3 8, MIDDLE STREET  VAYALPATTIVAYALPATTI, THENI - 625534   
											", 9486735605 ,"
																								 												Niramaya											",MURUGESAN K
376, Tamil Nadu ,Thanjavur											,SEED TRUST,seedtcrescent@gmail.com,"
												168/2A, SRINIVASA NAGARAYYAMPETTAI, AYYAMPETTAI - 614201   
											", 9442134286 ,"
																																															",G. RAJENDRAN
377, Tamil Nadu ,Salem											,St Judes School For Mentally challenged   A Unit of Ecomwel Orthopaedic Centre,eoclawrence@yahoo.co.in,"
												5.5/44.1 , Near RC Chruch, MGR COLONY VIATHARAMANGALAM, SALEM - 636502   
											", 9443251703 ,"
												Samarth,Gharaunda,Badhte Kadam												 												Niramaya											",A Lawrence
378, Tamil Nadu ,Tirunelveli											,ANNAI JOTHI SPECIAL FOR INTELLECTUALLY DISABLED A UNIT OF ANNAI JOTHI SEVA TRUST,ajstrust2000@gmail.com,"
												2/454, Main RoadAdayakarumkulam, Ambasamudram - 627425   
											", 9786489621 ,"
																																															",P.SELVAKUMAR
379, Tamil Nadu ,Tirunelveli											,PADMASRI DR SIVANTHI ATHITHANAR SPECIAL SCHOOL FOR M R UNIT OF MAHATMA GANDHIJI SEVA SANGAM,bharathicom@rediffmail.com,"
												58/1, East BazzarVasudevanallur, Sivagiri TK - 627758   
											", 9442066071 ,"
																																															",THAVAMANI G
380, Tamil Nadu ,Thiruvallur											,Asha School for the Mentally Retarded Children A unit of Asha Trust,ashamrschool@gmail.com,"
												No.34, Vallal Pari Street, RajajipuramNear Tiruvallur Railway station, Tiruvallur - 602001   
											", 8428523524 ,"
												Vikaas																																			",D SARAVANA
"
																								",,,,,,,,
 Page 38 of 55 ( 542 records ) ,,,,,,,,
381, Tamil Nadu ,Chennai											,Downs Syndrome Federation Of India,info@downsyndrome.in,"
												11/6 Justice Sundaram Road Luz Mylapore Chennai 600004, Behind Nageshwar Rao Park, Chennai - 600004   
											", 9840060817 ,"
																																															",Dr. Surekha Ramachandran
382, Tamil Nadu ,Tiruchirappalli											,THE SPASTICS SOCIETY OF TIRUCHIRAPALLI,spasticsocietyoftiruchirapalli@gmail.com,"
												5, REVIVAL NAGAR RAMALINGA NAGAR SOUTH EXTENSIONVAYALUR ROAD, TIRUCHIRAPALLI - 620017   
											", 9345230582 ,"
																																															",SHANTHAKUMAR C
383, Tamil Nadu ,Kanchipuram											,Aadhuraa Special School Run By  Aathichudy Trust,aadhuraa@gmail.com,"
												41, Murugammal Nagar, Velingapattarai, OrikkaiOpp Patel Saw Mill, kanchipuram - 631502   
											", 9444318518 ,"
																																															",Ravishankar.G
384, Tamil Nadu ,Chennai											,The Spastics Society Of Tamilnadu SPASTN,thespasticssocietyoftamilnadu@gmail.com,"
												CSIR Road, CSIR Road TaramaniBefore Ascendas IT Park, Chennai - 600113   
											", 8754877598 ,"
																								 												Niramaya											",Mrs L V Jayashree
385, Tripura ,West Tripura											,Voluntary Health Association Of Tripura,vha_tripura@rediffmail.com,"
												Opposite to Bangladesh Assistant High Commissioner Office, Circuit House AreaP.O. Kunjaban, Agartala, Tripura West - 799006   
											", 9436129317 ,"
												Badhte Kadam																																			",Dr.Sreelekha  Ray
386, Tripura ,West Tripura											,Abhoy Mission,abhoymission@rediffmail.com,"
												121112, Ramnagar Road No.1P.O. Ramnagar, Agartala, West Tripura - 799002   
											", 9436123069 ,"
												Gharaunda																																			",Shyamal Deb
387, Uttarakhand ,Dehradun											,Latika Roy Memorial Foundation Society,rizwan@latikaroy.org,"
												113, Vasant ViharPhase 1, Dehradun - 248006   
											", 9412962832 ,"
																																															",Rizwan Ali
388, Uttarakhand ,Almora											,Mangal Deep Vidya Mandir,mangaldeep29@rediffmail.com,"
												405, Krishna Mohini DhamKhatiyari, Almora - 263601   
											", 9719078741 ,"
																																															",Miss. Manorama Joshi
389, Uttarakhand ,Udam Singh Nagar											,ANMOL FOUNDATION,anmolfoundationksp@gmail.com,"
												D 11 BLOCK - E, RAMPURAM COLONY BAZPUR ROAD KASHIPURCHAITI CHORAHA KASHIPUR, KASHIPUR - 244713   
											", 9027108984 ,"
																																															",MEENAKSHI DEVI CHAUHAN
390, Uttarakhand ,Dehradun											,Raphael Ryder Cheshire International Centre,raphaelcentre@gmail.com,"
												Raphael, PO Box-157, Mohini Road End,Trans Rispana Nadi, Dehradun, Uttarakhand - 248001   
											", 9897297027 ,"
												Vikaas,Gharaunda																																			",Mrs Priyo Lall
"
																								",,,,,,,,
 Page 39 of 55 ( 542 records ) ,,,,,,,,
391, Uttarakhand ,Nainital											,Srajan Spastic Society,srajanspasticsociety@gmail.com,"
												opp kapilashrami dharmsala, pilikothibehind ENT hospital, haldwani - 263139   
											", 9411163157 ,"
																																															",N K KANDPAL
392, Uttarakhand ,Haridwar											,ABHIPRERNA FOUNDATION,abhiprernafoundation@gmail.com,"
												C-62, Shivalik Nagar, B.H.E.L., Haridwar, ABHIPRERNA FOUNDATIONC-62, Shivalik nagar, BHEL, HARIDWAR - 249403   
											", 9319041049 ,"
																																															",Dr. Deepesh Chandra Prasad
393, Uttar Pradesh ,Ghaziabad											,BHAGIRATH SEWA SANSTHAN,bssksiat@yahoo.com,"
												R-10/144, RAJ NAGARNEAR RAMLEELA GROUND SEC-10, GHAZIABAD - 201002   
											", 9810006150 ,"
												Vikaas																																			",AMITABH SUKUL
394, Uttar Pradesh ,Muzaffarnagar											,ASHADEEP DHARMARTH SEWA SAMITI,ashadeepdharmarth@rediffmail.com,"
												Ashadeep Training institute for Mentally Challenged Children, Jansath RoadVishnu Vihar, Muzaffarnagar - 251001   
											", 8439928554 ,"
																																															",VED PRAKASH SINGHAL
395, Uttar Pradesh ,Azamgarh											,Gyanodaya Samekit Sansthan,gyanodayup@gmail.com,"
												Village- Jagdishpur, Phoolpur2 Km. from Phoolpur Railway Station, Azamgarh - 276304   
											", 9839076462 ,"
																																															",Basdev
396, Uttar Pradesh ,Ghazipur											,YADUVANSHI JANTA SHIKSHAN SANSTHAN,yaduvanshijss09@rediffmail.com,"
												135, JAHURABADHAZIPUR BARESAR, GHAZIPUR - 233222   
											", 9918454611 ,"
												Vikaas,Badhte Kadam																																			",PARAS NATH YADAV
397, Uttar Pradesh ,Allahabad											,Rotary Sponsored Crippled And Youth Welfare Society,jimars11@gmail.com,"
												1, Jawahar Lal Nehru RoadOpp. Bhardwaj Ashram, Allahabad - 211002   
											", 7388601555 ,"
																																															",Dr. Bhasker Banerji
398, Uttar Pradesh ,Amethi(Chatrapati Sahuji Maharaj)											,Gramin Pragati Sansthan,pragatigps@gmail.com,"
												Village Paliaya Pashchim Post Rajkheta (Jagdishpur), Ameethi, Amethi - 227809   
											", 9473555982 ,"
												Gharaunda												 												Niramaya											",Ram Prakash Gupta
399, Uttar Pradesh ,Ballia											,SAMAJIK UTTHAN SAMITI,susamiti.krishna@gmail.com,"
												254, Poorab tolaPoorab tola, Ballia - 277501   
											", 9628385300 ,"
																																															",Krishna shankar
400, Uttar Pradesh ,Etawah											,UJALA FOUNDATION,ujalaetw@gmail.com,"
												Village and Post- Basrehar District- Etawah  U.P., Village and Post- Basrehar District- Etawah  U.P.Etawah to Farrukhabad Road, Etawah - 206253   
											", 7037750303 ,"
																																															",VARUN
"
																								",,,,,,,,
 Page 40 of 55 ( 542 records ) ,,,,,,,,
401, Uttar Pradesh ,Shahjahanpur											,Saraswati Gyan Mandir Shiksha Samiti,sgmashok@gmail.com,"
												Hathaura Bujurg, P.O.Roza RSShahjahanpur, Shahjahanpur - 242306   
											", 9415528984 ,"
												Vikaas																																			",Ashok Kumar yadav
402, Uttar Pradesh ,Bahraich											,Baba Sunder Singh Shiksha Samiti,brhbalmeet@gmail.com,"
												175, Kanoongopura SouthNear Police Chauki, BAHRAICH - 271801   
											", 9450427218 ,"
																																															",Dr Balmeet Kaur
403, Uttar Pradesh ,Lucknow											,I Support Foundation,bobby.m.ramani@gmail.com,"
												546, Akansha,, Eldeco Udyan 2,Near Delhi Public School,, Lucknow - 226025   
											", 9889121939 ,"
												Sahyogi,Vikaas,Disha,Badhte Kadam																																			",Ms Bobby Moti Ramani
404, Uttar Pradesh ,Allahabad											,Trishla Foundation,jjain999@gmail.com,"
												182c/350a, tagore townin front of colonelganj inter college, Prayagraj - 211002   
											", 9415235159 ,"
																																															",Dr Jitendra Kumar Jain
405, Uttar Pradesh ,Sultanpur											,Rural Informative  Social Harmony Academy,1998risha@gmail.com,"
												Village  Post - Bhain, BhainBlock Dubeypur, Sultanpur - 227808   
											", 9936361463 ,"
												Badhte Kadam,Disha,Gharaunda																																			",Risha Kumari Verma
406, Uttar Pradesh ,Basti											,Sanchit Vikas Sansthan,npsvsbasti@gmail.com,"
												HasanapurP.O.Bargadwa, Basti - 272190   
											", 9415930242 ,"
												Badhte Kadam,Disha,Samarth,Gharaunda,Sahyogi,Vikaas												 												Niramaya											",Pramod Kumar
407, Uttar Pradesh ,Rae Bareli											,SHUBHASHEESH SHIKSHA EVAM VIKAS SEWA SANSTHAN,shubhasheeshsansthan@yahoo.com,"
												E-27, INDUSTRIAL AREA, SITE NO-2,AMAWAN ROAD, RaeBareli - 229001   
											", 9415190420 ,"
												Vikaas,Samarth												 												Niramaya											",Sri Dinesh Kumar Srivastava
408, Uttar Pradesh ,Mathura											,KALYANAM KAROTI,kalyanamkarotimathura@gmail.com,"
												Kalyan Dhama, Saraswati KundMasani Delhi Link Road, Mathura - 281003   
											", 9412280508 ,"
																								 												Niramaya											",Sunil Kumar Sharma
409, Uttar Pradesh ,Varanasi											,DR RAM MURTI PRASAD MISHRA GITA FOUNDATION,gurujyoti01@gmail.com,"
												B 38/55-23A, Sheel Nagar ColonyMahmoorganj, Varanasi - 221010   
											", 6393032960 ,"
																																															",RAM MURTI PRASAD MISHRA
410, Uttar Pradesh ,Lucknow											,JEEVAN JYOTI SAMAJ SEWA SANSTHAN,jeevanjyoti.sss@gmail.com,"
												D-3/560, RUCHIKHAND-ISHARDA NAGAR, LUCKNOW - 226002   
											", 9450653634 ,"
												Badhte Kadam,Vikaas,Disha												 												Niramaya											",SUKHMI LAL
"
																								",,,,,,,,
 Page 41 of 55 ( 542 records ) ,,,,,,,,
411, Uttar Pradesh ,Agra											,INTEGRATED INSTITUTE OF REHABILIATION FOR THE DISABLED (VIKLANG SAMEKIT PUNRWAS SANSTHAN),iirdagra@yahoo.com,"
												376, jangjeet nagar, rajpur chungi, shamshabad roadashray mand budhi sansthan, agra - 282001   
											", 9058596091 ,"
												Samarth,Vikaas,Disha												 												Niramaya											",YAKS JOSEPH
412, Uttar Pradesh ,Amethi(Chatrapati Sahuji Maharaj)											,Adarsh Sewa Samiti,adarshsewasamiti1989@gmail.com,"
												VILLAGE PALIYA PASHCHIM POST RAJKHETAJAGDISHPUR, AMETHI - 227809   
											", 9415964400 ,"
																																															",Karuna Shankar Tripathi
413, Uttar Pradesh ,Gorakhpur											,LAXMISARVA  VIKLANG SEWA SAMIT,mkp.vksss@gmail.com,"
												18, Markadi Pidahni Gola GorakhpurBadhalganj Varanasi Road Gorakhpur, Gorakhpur - 273402   
											", 9918116017 ,"
																																															",DEVRAJ SINGH
414, Uttar Pradesh ,Ballia											,RAJ KISHORI DEVI SHIKSHAN PRASHIKSHAN SEWA SANSTHAN,rajk.up101@gmail.com,"
												01, BABHNAULINAWADA GET, BALLIA - 277121   
											", 9415659882 ,"
																																															",ANJANI KUMAR UPADHYAY
415, Uttar Pradesh ,Kanpur Nagar											,Amrita Charitable Trust,centrehead@amritassc.org,"
												117/K/100, A-2 sarvodaya nagarSarvodaya Nagar, Kanpur - 208005   
											", 7380673555 ,"
																																															",Dr. Rashmi Kapoor
416, Uttar Pradesh ,Sant Kabeer Nagar											,Swami Vivekanand Shiksha and Samaj Kalyan Samiti,kksvssks@rediffmail.com,"
												Brahmchari , Mehdawal ,, Brahmchari, MENHDAWALMehdawal , Sant Kabir Nagar, MENHDAWAL - 272271   
											", 9450559813 ,"
												Badhte Kadam,Gharaunda,Vikaas,Disha																																			",Keshav Kumar Srivastava
417, Uttar Pradesh ,Allahabad											,Jan Chetna Sansthan,jcsinstitute@gmail.com,"
												60M/44,5A, Nawab Yusuf RoadCivil Lines, Allahabad - 211001   
											", 9415306680 ,"
												Samarth,Vikaas																																			",K N Mishra
418, Uttar Pradesh ,Basti											,Shiksht Yuva Sewa Samiti,syssbasti@gmail.com,"
												388 (Old) / 527, Pandey BazarMEHDAWAL ROAD, Basti. - 272002   
											", 9415092114 ,"
												Sahyogi																																			",Gopal Krishna Agarwal
419, Uttar Pradesh ,Ambedkar Nagar											,Lok Jagriti Sansthan,ljsambedkernager@gmail.com,"
												Village - Pahuti , Post - Saya, Veersingpur pahunti margNear Sarvdev Shakti Peeth Pahunti, Ambedkar Nagar - 224152   
											", 9792945817 ,"
												Sahyogi,Vikaas																																			",Arti Tripathi
420, Uttar Pradesh ,Jalaun											,Shri Sharda Persad Dhrmarth Sewa Sansthan,Sidhushivhare@gmail.com,"
												H.N- 2261, New Patel Nagar OraiJaloun Road Orai, Orai - 285001   
											", 9415169570 ,"
																																															",Sidhu shivhare
"
																								",,,,,,,,
 Page 42 of 55 ( 542 records ) ,,,,,,,,
421, Uttar Pradesh ,Baghpat											,CHAUDHARY DHARMATH SAMITI,ccsime.jabid@gmail.com,"
												179, CHHAPRAULI ROADVETENEORY HOSPITAL, BARAUT - 250611   
											", 9917669000 ,"
																																															",ASHOK KUMAR
422, Uttar Pradesh ,Lucknow											,School for Potential Advancement and Restoration of Confidence SPARC India,sparcindia95@gmail.com,"
												26, Gurudaya Niwas, Sachiwalaya ColonyMousambagh , Sitapur Road, Lucknow - 226020   
											", 9839171676 ,"
												Vikaas,Disha																																			",AMITABH MEHROTRA
423, Uttar Pradesh ,Azamgarh											,KAILASHI MAHILA VIKAS SAMITI,kailashi2013@gmail.com,"
												85, VILL- DHYANIPUR, POST- LOHARA, DIST- AZAMGARHNEAR INDIA MARKA HAND PUMP, ATRULIYA - 223223   
											", 9452418699 ,"
												Badhte Kadam,Disha,Vikaas,Sahyogi,Gharaunda,Samarth																																			",SUNITA DEVI
424, Uttar Pradesh ,Varanasi											,Nai Subah,nipvns@gmail.com,"
												Nai Subah, Vaishno Nagar Colony,Kanchanpur, DLW, Varanasi - 221004   
											", 9415302922 ,"
												Badhte Kadam,Disha,Vikaas,Sahyogi												 												Niramaya											",Dr. Ajay Tiwari
425, Uttar Pradesh ,Jaunpur											,Srijan Sanstha,srijansanstha@yahoo.com,"
												2, KAILASH CHOWKVILL- SUNGULPUR, POST- HARBASPUR, JAUNPUR - 222001   
											", 9140072486 ,"
																																															",Dr. Sanjay Kumar Mishra
426, Uttar Pradesh ,Varanasi											,JAN VIKAS SAMITI,mail@janvikassamiti.org,"
												Jan Vikas Samiti, At+PO-Murdaha, Dist-VaranasiVARANASI, UTTAR PRADESH, INDIA - 221003   
											", 9534040402 ,"
																																															",Chandran Riymonds
427, Uttar Pradesh ,Varanasi											,Deva International Society for Child Care,tulsi_discc_cv@hotmail.com,"
												B 21/ 100 Bind Bhavan, Kamachha ChungiNear Sheesh Mahal Colony, Kamachha, Varanasi - 221010   
											", 9415303557 ,"
												Badhte Kadam,Vikaas,Disha																																			",Dr. C. Tulsi Das
428, Uttar Pradesh ,Bareilly											,POOJA SEWA SANSTHAN,designviews540554@yahoo.com,"
												H.No.1, Malik Sahab Ki Kothi,, 1,Malik Sahib ki Kothi, Rajiv Kunj, Behind Police StationIzatnagar, IVRI Road,, Izatnagar, IVRI Road - 243122   
											", 9568181368 ,"
																																															",Pushp Pal Singh
429, Uttar Pradesh ,Agra											,Handicapped Development Council,tears_agra@yahoo.co.uk,"
												phase1, ShastripuramSikandra, Agra - 282007   
											", 9412330530 ,"
																								 												Niramaya											",rita agarwal
430, Uttar Pradesh ,Kanpur Nagar											,Subhash Children Society,kamalkantscs@gmail.com,"
												19, Rajeev Vihar Naubasta Kanpur NagarLaxmi Vidya Mandir, Kanpur Nagar - 208023   
											", 9935309431 ,"
																																															",Kamal Kant Tiwari
"
																								",,,,,,,,
 Page 43 of 55 ( 542 records ) ,,,,,,,,
431, Uttar Pradesh ,Meerut											,Meerut Children Welfare Trust,disha.mcwt@gmail.com,"
												F 41, Shashtri Nagar, Meerut - 250001   
											", 9412662907 ,"
																																															",Col R.C. Sharma
432, Uttar Pradesh ,Gautam Buddha Nagar											,Ponty Chadha Foundation,mbcn_vandana@yahoo.co.in,"
												A-12,Sec 132, EXPRESSWAY NOIDANEXT TO GENESIS GLOBAL SCHOOL, NOIDA - 201301   
											", 9711000832 ,"
																																															",DR.VANDANA SHARMA
433, Uttar Pradesh ,Kanpur Nagar											,The Spastics Centre,sckanpur@gmail.com,"
												16/99-A, Bal BhawanPhool Bagh, Kanpur - 208001   
											", 9454138650 ,"
																								 												Niramaya											",Meera Noronha
434, Uttar Pradesh ,Amroha 											,RAJ SOCIAL WELFARE SOCIETY,rriyazuddin82@gmail.com,"
												163, VILL MALIKHERA URF SHEHWAZPUR POST AMROHAMASJID MILAK, AMROHA - 244221   
											", 9412824911 ,"
												Disha,Badhte Kadam,Sahyogi																																			",RIYAZUDDIN
435, Uttar Pradesh ,Fatehpur											,SHRI RAM AASARE SINGH GRAM VIKAS SHIKSHA SAMITI  sanchalit  MA GANGADEVI DIVYANG SEWA SANSTHAN,mgdssanthan@gmail.com,"
												1412K, VIJAY NAGAR KHAGAHANDPIPE, KHAGA - 212655   
											", 9889628881 ,"
												Vikaas												 												Niramaya											",DEV NARAYAN SINGH
436, Uttar Pradesh ,Mau											,MANAV UTTHAN SAMITI,manavutthan_samiti@yahoo.co.in,"
												04, BASTIKHIRIYA, MAU NATH BHANJAN - 275103   
											", 9452134628 ,"
												Disha,Samarth,Vikaas,Badhte Kadam												 												Niramaya											",NANHOO CHAUHAN
437, Uttar Pradesh ,Siddharthnagar 											,Divyang Kalyan Seva Sansthan,maheshkumarpaswansdr@gmail.com,"
												42, Village Senduri, Post Udayraj GanjVikas Khand Naugarh Tehsil, Shohratgarh, Distt. Sidharth Nagar - 272204   
											", 9453643944 ,"
												Samarth																																			",Arjun Kumar
438, Uttar Pradesh ,Barabanki											,GRAMODAYA VIKAS SANSTHAN,gramodayaup@gmail.com,"
												43, FATEHGANJ POST SARAI RAWAT HAIDAR GARH BARABANKI ROADGARAMODAYA, HAIDARGARH - 225124   
											", 9415072812 ,"
												Vikaas,Badhte Kadam,Disha																																			",DP YADAV
439, Uttar Pradesh ,Amroha 											,Navada Gramudhyog Vikas Samiti,ngvs2008@gmail.com,"
												57, Mohalla BaglaNavada Gramudhyog Vikas Samiti, Amroha - 244221   
											", 9412144548 ,"
												Vikaas																																			",Mr. Viqar Mehdi Naqvi
440, Uttar Pradesh ,Lalitpur											,NARAYAN SHAIKSHIK EVAM PUNRVAS SAMITI,mauryasunil1985@gmail.com,"
												259, AjadpuraNear Guru Nanak Dharamsala, LALITPUR - 284403   
											", 9450071705 ,"
																																															",SHRI SUJEET KUMAR MAURYA
"
																								",,,,,,,,
 Page 44 of 55 ( 542 records ) ,,,,,,,,
441, Uttar Pradesh ,Budaun											,PRABHAT GRAMODYOG SEWA SANSTHAN,prabhat.gramodhyog@gmail.com,"
												BUDH VIHAR BUDAUNNEAR BULLET AGENCY USAWAN ROAD BUDAUN, BUDAUN - 243601   
											", 9411087087 ,"
																																															",DHARAMVEER SINGH
442, Uttar Pradesh ,Mirzapur											,Maa Baliraji Sewa Sanstha,maabaliraji@gmail.com,"
												Naraina, Hargarh Bazar JignaMirzapur, Mirzapur - 231313   
											", 9918388887 ,"
																																															",Pawan kumar singh
443, Uttar Pradesh ,Mathura											,DR SMT MAHADEVI EDUCATIONAL WELFARE AND SHODH SANSTHAN,dr.mahadevirehabilitation@gmail.com,"
												2880 / 20 A, NH-19101 KM Stone, Kosi Kalan - 281403   
											", 7906279040 ,"
																																															",Dr. Suresh Chand Arya
444, Uttar Pradesh ,Gonda											,Gautam Buddh Shikshan Sansthan,gbss_bbn@rediffmail.com,"
												205, Mudhadeeha (Lorik Nagar)Post Parsa Tiwari, District Gonda - 271313   
											", 9792121484 ,"
												Vikaas,Sahyogi,Disha												 												Niramaya											",SHUBHAWATI DEVI
445, Uttar Pradesh ,Kanpur Nagar											,PUSHPA KHANNA MEMORIAL CENTRE A UNIT OF KANPUR EDUCATION SOCIETY,pkmcdisha@gmail.com,"
												3A/161 AZAD NAGAR, NEAR DR TILAK CHAURAHA, KANPUR - 208002   
											", 7311133337 ,"
																																															",VINA SABHARWAL
446, Uttar Pradesh ,Auraiya											,Rajeshwari seva sansthan,rssup.india@gmail.com,"
												Kukarkat , PO Umrain, Bidhuna to Kishanee, Auraiya - 206252   
											", 8543835266 ,"
												Badhte Kadam,Vikaas,Disha,Gharaunda																																			",Satyavir Singh
447, Uttar Pradesh ,Varanasi											,PT RAJPATI PATHAK VAIDHY BALIKA SIKSHAN SANSTHA,panditrp2010@gmail.com,"
												SarvipurTari, Varanasi - 221207   
											", 9452408314 ,"
												Disha,Vikaas												 												Niramaya											",Ashish Kumar Pathak
448, Uttar Pradesh ,Ghaziabad											,Institute Of Rehabilitation,saispecialschool@rediffmail.com,"
												C-9, Shalimar GardenShalimar Garden Ext.-2, Sahibabad - 201005   
											", 9811291150 ,"
												Badhte Kadam												 												Niramaya											",Mrs. Manju Gupta
449, Uttar Pradesh ,Varanasi											,UTKARSH SEWA SANSTHA,rajuy0820@gmail.com,"
												VILLAGE DAUTPUR, POST DANGANJDISTT VARANASI, VARANASI - 221101   
											", 9838838855 ,"
																																															",RAJU YADAV
450, Uttar Pradesh ,Kanpur Nagar											,Bhawna Society For Disabled,bcpiknp@gmail.com,"
												118/553A,, KAUSHALPURI GUMTI NO.5 , KANPUR NAGARBAGGA TENT HOUSE, KANPUR NAGAR - 208012   
											", 9839212389 ,"
												Disha,Vikaas,Sahyogi,Badhte Kadam												 												Niramaya											",Narendra Kumar Pandey
"
																								",,,,,,,,
 Page 45 of 55 ( 542 records ) ,,,,,,,,
451, West Bengal ,Birbhum											,Santiniketan Ratanpally Vivekananda Adibasi Kalyan Samity,ssevaks@yahoo.com,"
												Ratanpally, Ratanpally, PO+PS - SantiniketanDist.-Birbhum, Bolpur Santiniketan,West Bengal, INDIA - 731235   
											", 9476283039 ,"
												Disha																																			",Prof.Dhiraj Ray
452, West Bengal ,Uttar Dinajpur											,ST. JOHN AMBULANCE ASSOCIATION RAIGANJ CENTRE,stjohnambulance.asha@gmail.com,"
												325/11, University RoadNear Goyalal Girls High school, Raiganj - 733134   
											", 8250570850 ,"
																																															",Shankar Mitra
453, West Bengal ,Kolkata											,"Organization for Friends, Energies & Resources",offerindia@gmail.com,"
												152, 1st Floor, B.T.RoadDunlop, Kolkata - 700108   
											", 9830062217 ,"
																																															",Dr. Kallol Ghosh
454, West Bengal ,Howrah											,Chiranabin,chiranabin@gmail.com,"
												00, Vill.- ParbakshiP.O.- Bakshi, P.S.- Joypur,, Dist.-Howrah, State- West Bengal - 711303   
											", 9733903617 ,"
																																															",Sukumar Sau
455, West Bengal ,Nadia											,KARIMPUR SOCIAL WELFARE SOCIETY,kswsnadia@yahoo.com,"
												1, No TARAK DAS ROAD PO KARIMPUR NADIA WEST BENGALBSNL TOWER Karimpur, KARIMPUR - 741152   
											", 9474482433 ,"
												Vikaas,Disha,Badhte Kadam																																			",ASHOK KUMAR SARKAR
456, West Bengal ,24 Paraganas North											,NIR IDEAL HOME FOR MENTALLY RETARDED  AND ASSOCIATED DISABILITY,nirhandicappedorg@gmail.com,"
												GP/HAROA324, HAROA ROADPILKHANA, BASIRHAT - 743425   
											", 9830881966 ,"
												Badhte Kadam												 												Niramaya											",MD ABUL KALAM AZAD
457, West Bengal ,Medinipur West											,Dantan Manav Kalyan Kendra,dmkk22@gmail.com,"
												Krishnapur, P. O-DantanNear Dantan BPHC, Dantan - 721426   
											", 7602900030 ,"
												Vikaas,Badhte Kadam,Disha																																			",Mrs Jhilik Maikap Raj
458, West Bengal ,Kolkata											,SOUTH KOLKATA PARASMONI,skparasmoni@rediffmail.com,"
												38, PURNA CHANDRA MITRA LANESWISS PARK, KOLKATA - 700033   
											", 9830411480 ,"
																								 												Niramaya											",CHAITALI GAMI
459, West Bengal ,Kolkata											,Riddhi Society For Remedial And Integrated Education,riddhisociety23@gmail.com,"
												27, Purna Mitra PlaceNear SwissPark Nursing Home, KOLKATA - 700033   
											", 9830930798 ,"
																																															",Mrs Gopa Ghosh
460, West Bengal ,24 Paraganas South											,MENTAID,mentaid.org@gmail.com,"
												17A, BROJEN MUKHERJEE ROAD, BEHALABEHIND KFR GROUND, KOLKATA - 700034   
											", 9831004412 ,"
																																															",Iona Louise Kundu
"
																								",,,,,,,,
 Page 46 of 55 ( 542 records ) ,,,,,,,,
461, West Bengal ,Kolkata											,INSTITUTE FOR THE HANDICAPPED AND BACKWARD PEOPLE,ihbpkol@gmail.com,"
												44, CHANDITALA BRANCH ROADCHARAKTALA AUTO STAND, KOLKATA - 700053   
											", 7003698107 ,"
																																															",MRS LAILY KHATUN
462, West Bengal ,Hooghly											,Uttarapara Ashraya - Parents Organization,tarund61@gmail.com,"
												56, DPJM Sarani.P.O. Bhadrakali, Dist - Hooghly., Hindmotor - 712232   
											", 9831182790 ,"
												Vikaas												 												Niramaya											",Tarun Dasgupta
463, West Bengal ,Kolkata											,REACH .SOCIETY FOR REMEDIAL EDUCATION ASSESSMENT COUNSELLING HANDICAPPED,reachkolkata83@gmail.com,"
												18/2/A/3, UDAY SANKAR SARANI, GOLF GREENBESIDE NETRA NIKETAN, KOLKATA - 700095   
											", 8961025755 ,"
																																															",DR. PURABI BOSE
464, West Bengal ,Kolkata											,Noble Mission Of South Calcutta,noble_mission@yahoo.com,"
												147, Barakhola, Krishak Pally , Mukundapur, Kolkata 700099Sankara Nethralaya, Kolkata - 700099   
											", 9830311719 ,"
																								 												Niramaya											",Lina Bardhan
465, West Bengal ,Alipurduar											,SWAPNA SOCIETY FOR DREAM OF SUCCESS,tapasbarmanpkb1985@gmail.com,"
												204, SHIL  BARI HAT31D national  highway, ALIPURDUAR - 736204   
											", 9641557756 ,"
																								 												Niramaya											",RAKHI ADHIKARY
466, West Bengal ,Bankura											,Kenduadihi Bikash Society,bikash12@rediffmail.com,"
												803, P.O. KenduadiniBehind Govinda nagar Bus stand, Bankura - 722102   
											", 9434004052 ,"
												Disha,Sahyogi,Badhte Kadam																																			",Uttam Mukherjee
467, West Bengal ,Kolkata											,Autism Society West Bengal,autismsocietywb@gmail.com,"
												22,, 22, Anjuman Ara Begum RowJogesh Chandra Law College, Kolkata - 700033   
											", 9038008536 ,"
																								 												Niramaya											",Dr Mitu De
468, West Bengal ,Purba Bardhaman											,Dr. Sailendra Nath Mukherjee Muka Badhir Vidhyalaya,snmashakiran.bdn@radiffmail.com,"
												Alisa Muza, GT Road Bye pass eastNear Alisa Bus Stand, Purba Bardhaman - 713104   
											", 9434123923 ,"
																																															",Pabitra Ganguly
469, West Bengal ,Cooch Behar											,DAKSHIN RAMCHANDRAPUR VIVEKANANDA SEVA KENDRA,drvsk_india@yahoo.co.in,"
												MITRAS, K.D.ROAD , SARADA SISHU TIRTHABYE LANE, NEAR VENOUS SQUARE CLUB, COOCHBEHAR, WEST BENGAL - 736101   
											", 8967930937 ,"
																																															",RAJA DAS
470, West Bengal ,Howrah											,VOICE OF WORLD,voiceofworld@gmail.com,"
												3, CHIDAM MUDI LANEKOLKATA, KOLKATA - 700006   
											", 9038009815 ,"
																																															",KRISHNA DEY
"
																								",,,,,,,,
 Page 47 of 55 ( 542 records ) ,,,,,,,,
471, West Bengal ,Darjeeling											,North Bengal Handicapped Rehabilitation Society,nbhrsslg@gmail.com,"
												Block    C / 27, Nivedita Market, Hospital RoadOpposite Siliguri District Hospital, Siliguri - 734001   
											", 9434716599 ,"
																																															",Chandan Kumar Ghosh
472, West Bengal ,Birbhum											,Rampurhat Spastics  Handicapped Society.,rshs.rph@gmail.com,"
												Rampurhat, Rampurhat Chandmary,Uttarpally,Ward No-13P.O. and  P.S-Rampurhat, Dist-Birbhum - 731224   
											", 9002896583 ,"
												Gharaunda,Sahyogi																																			",Nurul Islam
473, West Bengal ,Medinipur East											,Vivekananda Loksiksha Niketan,vlncontai@yahoo.in,"
												VILL. - Faridpur,, P.O. - Dakshin Dauki,P.S. Contai,, Contai - 721450   
											", 9434943246 ,"
																																															",Goutam Kumar Sasmal
474, West Bengal ,Howrah											,YUBA UNNAYAN SEBA SAMITY,shibobratamajee@gmail.com,"
												0062, TEHATTA HIGH SCHOOL, ULUBERIA - 711322   
											", 9874635477 ,"
																																															",SHIBOBRATA MAJEE
475, West Bengal ,Malda											,MALDA KRISHNAPALLY JANAJAGORAN SOCIETY,punarbasanspl.edu@gmail.com,"
												15/150/A, BAGHAJATIN PARK, MALGALBARINEAR BIDYABHARATI SISHU TIRTHA, OLD MALDA - 732142   
											", 9748257684 ,"
												Sahyogi,Disha,Vikaas												 												Niramaya											",SOUVIK CHOUDHURY
476, West Bengal ,Hooghly											,Chinsurah Sense Society,bratati.cy@gmail.com,"
												92958, SILBAGANSATYAPIRTALA, Chinsurah - 712101   
											", 9830832150 ,"
																																															",Bratati Choudhury
477, West Bengal ,24 Paraganas South											,PIRKHALI PATHIKRIT,pirkhalipathikrit@gmail.com,"
												007, Village-ChandipurPost-Kundarali, PS-Baruipur - 743610   
											", 8777752221 ,"
																																															",MADHUSUDAN MANDAL
478, West Bengal ,Murshidabad											,JHANJHA UNNAYAN SAMITY,jhanjhaunnyansamity@gmail.com,"
												n 0174, BERHAMPORE AMTALA ROADCHOA RAGHUNATH CLUB, HARIHARPARA - 742166   
											", 9002796228 ,"
												Sahyogi,Vikaas,Badhte Kadam,Disha																																			",MADAN SARKAR
479, West Bengal ,Darjeeling											,North Bengal Council For The Disabled,nbcd1990@gmail.com,"
												833/A/40/107, Ramkrishna Road By-laneNBCD Building, Ashrampara, Siliguri - 734001   
											", 9002770072 ,"
																																															",Dr. Gangotri Chakraborty
480, West Bengal ,Medinipur East											,Pratibandhi Sahayak Samity,psspanskura@gmail.com,"
												H69, At  P.O  PanskuraNear Pwd Ground, Purba Medinipur - 721139   
											", 9800010027 ,"
												Vikaas,Disha,Samarth																																			",Mahendra Maiti
"
																								",,,,,,,,
 Page 48 of 55 ( 542 records ) ,,,,,,,,
481, West Bengal ,Purba Bardhaman											,Society For Mental Health Care,smhcin@yahoo.co.in,"
												713, Village  P.O. Khajurdihi Via KatwaDistrict-Bardhaman, KATWA - 713150   
											", 9434743404 ,"
																																															",SUBRATA SINHA
482, West Bengal ,Hooghly											,PARTNER HOOGHLY,partnerhooghly93@gmail.com,"
												541/189, KEOTA GHOSH PARA (SOUTH), SAHAGANJNEAR SHYAMSUNDARPUR PRIMARY SCHOOL, CHINSURAH - 712104   
											", 8910359426 ,"
																																															",MR. SUBHRANSU GHOSH
483, West Bengal ,Kolkata											,Manovikas Kendra Rehabilitation & Research Institute For The Handicapped,mvkendra1974@gmail.com,"
												482, Madudah, Plot 1-24Sector - J, Eastern Metropolitan Bypass, Kolkata - 700107   
											", 9830721428 ,"
																																															",DR SHARADA FATEHPURIA
484, West Bengal ,Malda											,HAIDERPUR SHELTER OF MALDA,haiderpurshelterofmalda@rediffmail.com,"
												273/A, MAHESHMATI WESTBEHIND BIKRAM CLUB, MALDA - 732101   
											", 9434154314 ,"
																								 												Niramaya											",Manmay Mukherjee
485, West Bengal ,Hooghly											,BANGA SOCIETY OF BACKWARD CLASSES SCs STs AND MINORITIES,bsbcindia@gmail.com,"
												130, BANDEL STATION ROADNEAR BANSTALA MORE, HOOGHLY-CHINSURAH - 712103   
											", 9163544513 ,"
																																															",RAM KRIT YADAV
486, West Bengal ,Kolkata											,Indian Institute Of Cerebral Palsy,mail@iicpindia.org,"
												P-35/1, Taratolla RoadKolkata, Kolkata - 700088   
											", 9831057152 ,"
												Disha																																			",Ms. Sonali Nandi
487, West Bengal ,Cooch Behar											,SATHMILE REHABILITETION CENTRE FOR DISABLED,satmilercfordisabled@gmail.com,"
												MATHABHANGA ROAD, VILL-BHOGDABRI KESHRIBARI P.O.ELAJANERKUTHI IBHOG DABRIKESHRIBARI, INDIA - 736157   
											", 9002800603 ,"
																																															","SUNIL CH.ESHORE,BISWANATH BARMAN,"
488, West Bengal ,Alipurduar											,Birpara Welfare Organization,birparawelfare@gmail.com,"
												00, Birpara S C ColonyCircus Ground Birpara, Birpara - 735204   
											", 9832351275 ,"
																																															",Shri Indrajit Dey
489, West Bengal ,Kolkata											,Behala Bodhayan,behalabodhayan@yahoo.co.in,"
												48/3, Sarsuna Main RoadSarsuna,, Kolkata - 700061   
											", 9339751472 ,"
																																															",Smt. Rikta Ghosh
490, West Bengal ,Kolkata											,Calcutta Centre Mahavir Seva Sadan,mahavirsevasadan20@rediffmail.com,"
												20, Ekbalpur LaneKolkata, Kolkata - 700023   
											", 9051302105 ,"
																								 												Niramaya											",Shri R S Singhi
"
																								",,,,,,,,
 Page 49 of 55 ( 542 records ) ,,,,,,,,
491, West Bengal ,Kolkata											,BODHAYAN,bodhayan.parents.association@gmail.com,"
												1/1W, JODHPUR PARKKOLKATA, KOLKATA - 700068   
											", 9874583920 ,"
																																															",ANURADHA PAL CHOUDHURY
492, West Bengal ,24 Paraganas South											,AROGYA SANDHAN CHARITABLE TRUST,arogyasandhan@gmail.com,"
												2, 2,R.K.SARANI, EASTERN PARKSANTOSHPUR, KOLKATA - 700075   
											", 9331031650 ,"
																																															",NIRANJAN BISWAS
493, West Bengal ,Jalpaiguri											,Jalpaiguri Welfare Organization,sanjoyjwo@gmail.com,"
												345/202, Club RoadPo  Distt. Jalpaiguri, West Bengal - 735101   
											", 9434138069 ,"
																								 												Niramaya											",Sanjoy Chakraborty
494, West Bengal ,Nadia											,Kalyani Life Institute,kalyanilifeinstitute@gmail.com,"
												B-3/88, KalyaniKalyani, Kalyani - 741235   
											", 9830017416 ,"
												Vikaas,Disha,Badhte Kadam,Sahyogi												 												Niramaya											",Siddhartha Sankar Mukhopadhyay
495, West Bengal ,Paschim Bardhaman											,ASANSOL ANANDAM,asansolanandam1992@gmail.com,"
												B.C. Roy Road, Dr. B.C. Roy RoadKalyanpur Housing, Asansol, Asansol - 713305   
											", 7908458007 ,"
																								 												Niramaya											",SOMENATH BANERJEE
496, West Bengal ,Kolkata											,BIKASHAYAN,BIKASHAYAN@GMAIL.COM,"
												140/6, SOUTH SINTHEE ROADNEAR-JEVANDEEP MEDICINE SHOP, KOLKATA - 700050   
											", 9830354249 ,"
																																															",SOMNATH MUNSHI
497, West Bengal ,Murshidabad											,BHARATPUR CONIJA HANDICAP SCHOOL,BCHS2008.9@GMAIL.COM,"
												7568, ANCHALPARANEAR ALLAHABAD BANK, BHARATPUR - 742301   
											", 9775373851 ,"
																																															",NUR NOBI
498, West Bengal ,24 Paraganas South											,Purba Dwaraka Pur Moon Star Sangha,pdpmss.sundarban@gmail.com,"
												nil, shreekhanda  Ramkrishna Nagar  P O   Panchpota   GariaAaguyan Sangha Club, Kolkata - 700152   
											", 8926367439 ,"
												Badhte Kadam												 												Niramaya											",Bibekananda Bag
499, West Bengal ,24 Paraganas North											,JOYGRAM SOCIAL WELFARE SOCIETY,joygramsocialwelfaresociety@gmail.com,"
												Nil, Joygram, ChakpatliHasnabad, Hasnabad - 743426   
											", 9635606677 ,"
																																															",Ariful Islam Mandal
500, West Bengal ,24 Paraganas North											,Saltlake Drishti Centre For Learning Disability,susmitadrishti9836232858@gmail.com,"
												SALTLAKE CITY,SECTOR-I, CE-182, Arunachal Bhawan, KOLKATA - 700064   
											", 9836232858 ,"
																								 												Niramaya											",Susmita Nag
"
																								",,,,,,,,
 Page 50 of 55 ( 542 records ) ,,,,,,,,
501, West Bengal ,Howrah											,Asha Bhavan Centre,abcindia.sukeshi@gmail.com,"
												Asha Bhavan Centre, Vill. - KathilaPost. - Banitabla,P.S. Uluberia, Uluberia - 711316   
											", 9830047831 ,"
												Disha,Sahyogi,Badhte Kadam												 												Niramaya											",Sukeshi Barui
502, Delhi ,South Delhi											,Tamana Association,ushavarma@tamana.ngo,"
												C-10/8, Vasant Vihar, New DelhiNear C block Market, New Delhi - 110057   
											", 9811270236 ,"
																																															",Dr.Shayama Chona
503, Delhi ,North West Delhi											,Viklang Sahara Samiti Delhi,vssd1998@gmail.com,"
												G-Block, Basti Vikash KendraMangol Puri, New Delhi - 110083   
											", 9717237993 ,"
												Badhte Kadam,Disha,Vikaas,Prerna																																			",BUNTY SOLANKI
504, Delhi ,New Delhi											,Testbysushil,testing@123gmail.com,"
												54, testdelhi, anand vihar - 202106   
											", 1234567890 ,"
																																															",testing
505, Delhi ,West Delhi											,UDAI Working Together Works,udai.march@gmail.com,"
												C 3/93, JanakpuriNext to Orchid Hospital, Delhi - 110058   
											", 9899681972 ,"
																																															",Tanu Rajput
506, Delhi ,South Delhi											,Action for Ability Development and Inclusion (AADI),aadi_jagruti@yahoo.com,"
												Plot no 2, Balbir Saxena MargHauz Khas, New Delhi - 110016   
											", 9810200968 ,"
												Sambhav												 												Niramaya											",Ms. G. Syamala
507, Delhi ,North West Delhi											,MOTHERS CARE SPECIAL SCHOOL ...KARTIKEYAN EDUCATIONAL SOCIETY,motherscareschool2014@gmail.com,"
												MOTHERS CARE SPECIAL SCHOOL-  PLOT NO 66, POCKET-1, SEC. A-9, NARELAOPPOSITE CENTRAL SCHOOL, Narela, North West Delhi - 110040   
											", 9212539212 ,"
																																															",SANJEEP KUMAR
508, Delhi ,East Delhi											,SHRISTI PARENTS SUPPORT GROUP,shristithecreation@gmail.com,"
												C -272, Vivek Vihar,Opp Vivekanand Mahila College,, Delhi. - 110095   
											", 9818409489 ,"
												Badhte Kadam,Sahyogi,Disha												 												Niramaya											",Dr Rajiv  Nandy
509, Delhi ,South West Delhi											,Association for Advancement  and Rehabilitation of Handicapped,aarohdelhi@gmail.com,"
												B-11, Vasant KunjOpp. B-X Main Gate, New Delhi - 110070   
											", 9871564271 ,"
												Vikaas,Badhte Kadam																																			",Asha Gupta
510, Delhi ,East Delhi											,Manovikas Charitable Society,manovikasy2k@yahoo.com,"
												60A Radhey Puri Extn-1, Swami Dayanad MargJagat Puri Crossing, Delhi - 110051   
											", 9911107772 ,"
												Samarth,Vikaas,Badhte Kadam,Disha,Vikaas,Sahyogi												 												Niramaya											",Dr. Alok Kumar Bhuwan
"
																								",,,,,,,,
 Page 51 of 55 ( 542 records ) ,,,,,,,,
511, Delhi ,East Delhi											,JINGLE BELLS EDUCATION SOCIETY,anju_70gupta@yahoo.co.in,"
												S - 438, SCHOOL BLOCK, PART-2SHAKAR PUR, DELHI - 110092   
											", 9811819951 ,"
																																															",ANJU GUPTA
512, Delhi ,New Delhi											,Ashish Foundation For The Differently Abled Charitable Trust,sheila@ashishfoundation.co.in,"
												2/13, Sulahkul Vihar, Old Palam Road, KakrolaNear  Dwarka Sector - 14B, New Delhi - 110078   
											", 9810986890 ,"
																																															",Sheila George
513, Delhi ,South West Delhi											,Akshya Pratisthan,akshayprati@gmail.com,"
												NA, Church RoadD 3 Vasant Kunj, NEW DELHI - 110070   
											", 9811263744 ,"
												Disha																																			",ARUNA DALMIA
514, Delhi ,South Delhi											,MUSKAAN  PARENTS ASSOCIATION FOR THE EMPOWERMENT OF PERSONS WITH INTELLECTUAL DISABILITY,muskaan@muskaan-paepid.org,"
												plot no.3,, Sector-B, Pocket-2Vasant Kunj, New Delhi - 110070   
											", 9891386995 ,"
												Badhte Kadam,Gharaunda												 												Niramaya											",SHANTI AULUCK
515, Delhi ,East Delhi											,CHANDRA BHUSHAN SINGH MEMORIAL MAHILA BAL EVAM SHRAVAN VIKLANG SHIKSHA EVAM PUNARVAS SANSTHAN,cbsmshi@gmail.com,"
												M-124 RK Vihar Plot No 29 IP Extension,, M-124, RK Vihar Plot No 29, IP Extension,(Near Hasanpur Village Bus Stand)I.P. Extension, Patparganj,, Delhi - 110092   
											", 9810782542 ,"
																																															",G.B. Singh
516, Delhi ,South West Delhi											,HANDICAPPED CHILDRENS PARENTS ASSOCIATION,hcpaindia@yahoo.com,"
												PLOT NO.K, (BEHIND PLOT NO.13)INSTITUTIONAL, SECTOR-5, DWARKA, NEW DELHI - 110075   
											", 9971006165 ,"
																								 												Niramaya											",K.N SINGH
517, Delhi ,South West Delhi											,Sneh Social Welfare Foundation. Holy Heart Special School,kumaratishek@gmail.com,"
												D 742 DDA FLAT, BINDAPURNEAR POLICE STATION, New Delhi - 110059   
											", 9289879997 ,"
																								 												Niramaya											",Atishek Kumar
518, Delhi ,Shahdara											,BHAVYA WELFARE SOCIETY,bhavyarehab@gmail.com,"
												D-24 Panchsheel Garden, Naveen ShahdaraBirds Hospital, DELHI - 110032   
											", 9560996772 ,"
																								 												Niramaya											",VIBHA SHARMA
519, Delhi ,South Delhi											,SHAURYA FOUNDATION TRUST,ravigupta.lawyer@gmail.com,"
												B-104/2, WESTERN AVENUE, MAHARANI BAGHASHRAM CHOWK, NEW DELHI - 110065   
											", 9810006918 ,"
																																															",MR. RAVI GUPTA
520, Delhi ,South Delhi											,Astha (Alternative Strategies For The Handicapped),aarthindia@gmail.com,"
												DUSIB, Basti Vikas KendraBal Mukund Khand, Giri Nagar, (near Govindpuri metro station), Giri Nagar, Kalkaji, New Delhi - 110019   
											", 9811167293 ,"
																																															",Radhika M Alkazi
"
																								",,,,,,,,
 Page 52 of 55 ( 542 records ) ,,,,,,,,
521, Delhi ,South Delhi											,Cheshire Homes India Delhi Unit,home.dch@gmail.com,"
												-, Okhla RoadOpp. Holy Family Hospital, New Delhi - 110025   
											", 9910050704 ,"
												Gharaunda,Badhte Kadam																																			",Ms. Mira Pradeep Singh
522, Delhi ,South East Delhi											,Action For Autism,actionforautism@gmail.com,"
												Pocket - 7 and 8, Jasola ViharBehind DAV School, New Delhi - 110025   
											", 9810225923 ,"
												Badhte Kadam												 												Niramaya											",Mrs Merry Barua
523, Delhi ,North West Delhi											,"SOCIETY FOR REHABILITATION AND WELFARE OF DIFFERENTALLY ABLED, DELHI",pramod.sharma047@gmail.com,"
												121, VILLAGE- HAMID PURK M SCHOOL ROAD, DELHI - 110036   
											", 9899311295 ,"
																																															",PARMOD SHARMA
524, Delhi ,East Delhi											,AMAR JYOTI CHARITABLE TRUST,amarjyotinirmaya@gmail.com,"
												Karkardooma, Vikas MargDelhi, Delhi - 110092   
											", 9811058000 ,"
																								 												Niramaya											",Dr. Uma Tuli
525, Delhi ,South Delhi											,Society for the Aid of Mentally and Developmentally Handicapped  SAMADHAN,samadhan.dwarka@gmail.com,"
												Sector V, F Block, DakshinpuriDurbalnath Mandir, New Delhi - 110062   
											", 7042664506 ,"
												Disha												 												Niramaya											",SUMATHI MORGAN
526, Nagaland  ,Kohima											,JO FOUNDATION,danieljofn@gmail.com,"
												354, Agri ColonyJo Foundation Inclusive School, Kohima - 797001   
											", 9436000597 ,"
																																															",Daniel Thong Seb
527, Nagaland  ,Mokokchung											,Care And Support Society,careandsupportmokok@gmail.com,"
												158, Block - 4, Town Hall RoadNear DC Office, Sangtemla Ward, Mokokchung - 798601   
											", 9436017611 ,"
																																															",Imchawati Kichu
528, Nagaland  ,Kohima											,CHERRY BLOSSOMS SOCIETY,cherryblossomssociety@gmail.com,"
												A 16, LERIE COLONY, LERIE CHAZOUNEAR CRPF CAMP, KOHIMA - 797001   
											", 8974028113 ,"
																																															",D ADANI
529, Telangana ,Rangareddy											,MANASA SPECIAL SCHOOL FOR THE MENTALLY HANDICAPPED run by MANASA,manasa912014@gmail.com,"
												SURVEY NO.135, MOHAN NAGAR, KOTHAPET ROAD,HYDERABADBESIDES TSSPDCL OFFICE, HYDERABAD - 500035   
											", 9963811996 ,"
																																															",P. VANAJA
530, Telangana ,Medchal											,Child Guidance Centre (CGC),hallowcgc@yahoo.com,"
												H.NO 7-6/2, SANTOSH SADANGANESHNAGAR,  PEERZADIGUDA, HYDERABAD - 500098   
											", 8367675467 ,"
																																															",M JAYNEE ROSE KUMARI
"
																								",,,,,,,,
 Page 53 of 55 ( 542 records ) ,,,,,,,,
531, Telangana ,Rangareddy											,SADHANA SOCIETY FOR THE MENTALLY HANDICAPPED,sadhanawelfare@gmail.com,"
												Plot No A-7/5,Road No-6,IDA,Nacharam, Plot No A-7/5, Road No-6, IDA, NacharamOpp: H.P.Petrol Pump, HYDERABAD - 500076   
											", 9849098749 ,"
																																															",P.MADHUSUDAN REDDY
532, Telangana ,Mahbubnagar											,ECOCLUB Brahma Institute For Mentally Handicapped.,ecoclubindia@gmail.com,"
												8-3-22/A, Teachers Colony, MahabubnagarMunicipal park, MAHABUBNAGAR - 509001   
											", 9440402005 ,"
																																															",G CHANDRA SEKHAR
533, Telangana ,Hanumakonda											,BANNU AROGYADA SEVA SOCIETY   BANNU NEURO HEALTH AND REHABILITATION INSTITUTE,CHARAN@BANNU.ORG,"
												2-7-187, Excise ColonySubedari Hanamkonda, Warangal - 506001   
											", 9949075873 ,"
																																															",DR.VEERAMALLA CHARANJIT REDDY
534, Telangana ,Rangareddy											,SHANTHI NIKETAN RESIDENTIAL INSTITUTION FOR MENTALLY HANDICAPPED,shanthiniketan.mr@gmail.com,"
												PLOT NO 10 and 13, NEAR PEDDAMMA TEMPLEGOUTHAMI NAGAR, VANASTHALIPURAM - 500070   
											", 9246219975 ,"
												Vikaas,Badhte Kadam,Gharaunda																																			",L. BALEESHWARAIAH
535, Telangana ,Peddapalli											,Manochaitanya Spl School  and Vocational Centre for Mentally Handicapped run by PAMENCAP,krishna.gdk@gmail.com,"
												B-28, SECTOR-I, GODAVARIKHANIOPP: SINGARENI COMMUNITY HALL, GODAVARIKHANI - 505209   
											", 9491141530 ,"
												Vikaas,Badhte Kadam,Gharaunda																																			",DANDAPANTHULA KRISHNA KUMAR
536, Telangana ,Hyderabad											,Swayamkrushi,swayamkrushimk@gmail.com,"
												17,, Sri Malani Housing Cooperative SocietyIndian Airlines Colony, Trimulgherry, Secunderabad - 500015   
											", 9701441039 ,"
												Gharaunda,Vikaas												 												Niramaya											",Manjula Kalyan
537, Jammu & Kashmir ,Jammu											,Disabled Care Foundation,disabledcarefoundation@yahoo.co.in,"
												5-A Small Plots,, Gandhi nagar,JammuOpp. Bata Showroom, Jammu - 180004   
											", 9419122810 ,"
																																															",Umesh Sharma
538, Jammu & Kashmir ,Samba											,MUSKAN FOUNDATION,GO4MUSKANFOUNDATION09419@GMAIL.COM,"
												VIJAYPUR, Canal Road 9VIJAYPUR, CANAL ROAD VIJAYPUR - 184120   
											", 9419150607 ,"
												Vikaas,Badhte Kadam																																			",PARVEEN KUMARI
539, Jammu & Kashmir ,Srinagar											,Voluntary Medicare Society,vmsjk1@gmail.com,"
												BEMINA BYE-PASS, BEMINA BYE-PASS SRINAGARSKIMS MEDICAL COLLEGE, Srinagar - 190018   
											", 9419467621 ,"
												Vikaas																																			",Dr. Mir Mohammad Maqbool
540, Jammu & Kashmir ,Jammu											,SWAMI VIVEKA NAND EDUCATIONAL TRUST,EDUCATIONALTRUST2007@GMAIL.COM,"
												NEAR SHIV MANDIR, KATAL BATAL  NAGROTA, JAMMU - 181221   
											", 9419165110 ,"
																																															",CHAMAIL KUMAR
"
																								",,,,,,,,
 Page 54 of 55 ( 542 records ) ,,,,,,,,
541, Jammu & Kashmir ,Ganderbal											,Hope Disability Centre An Undertaking Of She Hope Society For Women Entrepreneurs,huzaifa@hopecentrekashmir.org,"
												001, Wayil GanderbalNear  Jamie Masjid, Ganderbal - 191201   
											", 9797810011 ,"
																																															",Miss Huzaifa Ashraf
542, Jammu & Kashmir ,Anantnag											,Humanity Welfare Organisation Helpline Bijbehara,jsocialactivist@gmail.com,"
												118, PahliporaNear Pumpshed, Bijbehara - 192124   
											", 9469064964 ,"
																																															",Javed Ahmad Tak
"
																								",,,,,,,,
 Page 55 of 55 ( 542 records ) ,,,,,,,,
